[
    {
        "category_name": "사회,공공기관 > 행정기관 > 교육부 > 교육청 > 교육지원청",
        "place_name": "서울특별시강동송파교육지원청"
    },
    {
        "category_name": "교육,학문 > 유아교육 > 어린이집",
        "place_name": "영재교육어린이집"
    },
    {
        "category_name": "교육,학문 > 학원",
        "place_name": "한솔교육"
    },
    {
        "category_name": "교육,학문 > 학원",
        "place_name": "해법교육"
    },
    {
        "category_name": "교통,수송 > 교통시설 > 주차장",
        "place_name": "강동송파교육지원청 주차장"
    },
    {
        "category_name": "교육,학문 > 학원",
        "place_name": "와이즈만영재교육 잠실보습학원"
    },
    {
        "category_name": "사회,공공기관 > 단체,협회",
        "place_name": "한국지역사회교육협의회"
    },
    {
        "category_name": "교육,학문 > 학원 > 미술학원",
        "place_name": "라미클래스&라미미술교육연구소"
    },
    {
        "category_name": "교육,학문 > 학원 > 수학학원",
        "place_name": "CMS영재교육센터 잠실지점"
    },
    {
        "category_name": "교육,학문 > 교육단체 > 영재교육원",
        "place_name": "케이지영재교육"
    },
    {
        "category_name": "문화,예술 > 도서",
        "place_name": "오름교육"
    },
    {
        "category_name": "사회,공공기관 > 단체,협회",
        "place_name": "한국중앙미용교육협회"
    },
    {
        "category_name": "교육,학문 > 학원",
        "place_name": "나랏말교육"
    },
    {
        "category_name": "교육,학문 > 교육단체 > 평생교육원,사회교육원",
        "place_name": "홈플러스 평생교육스쿨 잠실점"
    },
    {
        "category_name": "교육,학문 > 학원 > 어학원 > 영어학원",
        "place_name": "방과후교육"
    },
    {
        "category_name": "사회,공공기관 > 단체,협회 > 사회복지단체",
        "place_name": "송파교육복지센터"
    },
    {
        "category_name": "교육,학문 > 교육단체",
        "place_name": "교육인사이드"
    },
    {
        "category_name": "의료,건강 > 의료단체",
        "place_name": "한국보건의료 정보관리교육평가원"
    },
    {
        "category_name": "교육,학문 > 연구소",
        "place_name": "이신동영재교육연구소"
    },
    {
        "category_name": "교육,학문 > 온라인교육",
        "place_name": "부모사이버교육연수원"
    },
    {
        "category_name": "교육,학문 > 학원",
        "place_name": "주인공 진로진학교육학원"
    },
    {
        "category_name": "가정,생활 > 전자제품 > 전자제품판매 > 컴퓨터주변기기",
        "place_name": "제삼교육"
    },
    {
        "category_name": "가정,생활 > 화장실",
        "place_name": "강동송파교육지원청 개방화장실"
    },
    {
        "category_name": "교육,학문 > 교육단체",
        "place_name": "제이드론교육연구소 무인항공교육원"
    },
    {
        "category_name": "교육,학문 > 학습교재",
        "place_name": "단비교육"
    },
    {
        "category_name": "교육,학문 > 학원",
        "place_name": "UCEI통합커피교육기관"
    },
    {
        "category_name": "교육,학문 > 교육단체 > 영재교육원",
        "place_name": "KAGE 영재교육연구실 송파영재교육원"
    },
    {
        "category_name": "의료,건강 > 상담",
        "place_name": "한국세움교육개발원"
    },
    {
        "category_name": "서비스,산업 > 인터넷,IT > 소프트웨어",
        "place_name": "종로교육"
    },
    {
        "category_name": "의료,건강 > 상담 > 심리상담소",
        "place_name": "심리상담교육연구소해듦"
    },
    {
        "category_name": "교육,학문 > 직업전문교육",
        "place_name": "송파미래교육센터 제8관"
    },
    {
        "category_name": "서비스,산업 > 인쇄,복사",
        "place_name": "제일교육"
    },
    {
        "category_name": "교육,학문 > 학원 > 입시학원",
        "place_name": "강안교육"
    },
    {
        "category_name": "교육,학문 > 학습교재",
        "place_name": "한솔교육"
    },
    {
        "category_name": "교육,학문 > 교육단체",
        "place_name": "교육대전"
    },
    {
        "category_name": "교육,학문 > 학원 > 수학학원",
        "place_name": "빅맨교육"
    },
    {
        "category_name": "사회,공공기관 > 단체,협회",
        "place_name": "지역사회교육 사회적협동조합"
    },
    {
        "category_name": "교육,학문 > 학원 > 입시학원",
        "place_name": "와이즈만영재교육 송파센터"
    },
    {
        "category_name": "문화,예술 > 도서",
        "place_name": "(주)선경교육"
    },
    {
        "category_name": "교육,학문 > 온라인교육",
        "place_name": "한국it교육센터"
    },
    {
        "category_name": "교육,학문 > 학원 > 입시학원",
        "place_name": "다원교육 고등대치본관"
    },
    {
        "category_name": "교육,학문 > 학원",
        "place_name": "BR뇌교육 송파지점"
    },
    {
        "category_name": "교육,학문 > 문화센터",
        "place_name": "송파쌤미래교육센터 10관"
    },
    {
        "category_name": "교육,학문 > 학원 > 보습학원",
        "place_name": "다원교육 초중등관"
    },
    {
        "category_name": "문화,예술 > 도서 > 출판사",
        "place_name": "타보름교육"
    },
    {
        "category_name": "교육,학문 > 직업전문교육",
        "place_name": "송파미래교육센터 제8관"
    },
    {
        "category_name": "서비스,산업 > 인쇄,복사",
        "place_name": "제일교육"
    },
    {
        "category_name": "교육,학문 > 학원 > 입시학원",
        "place_name": "강안교육"
    },
    {
        "category_name": "교육,학문 > 학습교재",
        "place_name": "한솔교육"
    },
    {
        "category_name": "교육,학문 > 교육단체",
        "place_name": "교육대전"
    },
    {
        "category_name": "교육,학문 > 학원 > 수학학원",
        "place_name": "빅맨교육"
    },
    {
        "category_name": "사회,공공기관 > 단체,협회",
        "place_name": "지역사회교육 사회적협동조합"
    },
    {
        "category_name": "교육,학문 > 학원 > 입시학원",
        "place_name": "와이즈만영재교육 송파센터"
    },
    {
        "category_name": "문화,예술 > 도서",
        "place_name": "(주)선경교육"
    },
    {
        "category_name": "교육,학문 > 온라인교육",
        "place_name": "한국it교육센터"
    },
    {
        "category_name": "교육,학문 > 학원 > 입시학원",
        "place_name": "다원교육 고등대치본관"
    },
    {
        "category_name": "교육,학문 > 학원",
        "place_name": "BR뇌교육 송파지점"
    },
    {
        "category_name": "교육,학문 > 문화센터",
        "place_name": "송파쌤미래교육센터 10관"
    },
    {
        "category_name": "교육,학문 > 학원 > 보습학원",
        "place_name": "다원교육 초중등관"
    },
    {
        "category_name": "문화,예술 > 도서 > 출판사",
        "place_name": "타보름교육"
    },
    {
        "category_name": "교육,학문 > 직업전문교육",
        "place_name": "송파미래교육센터 제8관"
    },
    {
        "category_name": "서비스,산업 > 인쇄,복사",
        "place_name": "제일교육"
    },
    {
        "category_name": "교육,학문 > 학원 > 입시학원",
        "place_name": "강안교육"
    },
    {
        "category_name": "교육,학문 > 학습교재",
        "place_name": "한솔교육"
    },
    {
        "category_name": "교육,학문 > 교육단체",
        "place_name": "교육대전"
    },
    {
        "category_name": "교육,학문 > 학원 > 수학학원",
        "place_name": "빅맨교육"
    },
    {
        "category_name": "사회,공공기관 > 단체,협회",
        "place_name": "지역사회교육 사회적협동조합"
    },
    {
        "category_name": "교육,학문 > 학원 > 입시학원",
        "place_name": "와이즈만영재교육 송파센터"
    },
    {
        "category_name": "문화,예술 > 도서",
        "place_name": "(주)선경교육"
    },
    {
        "category_name": "교육,학문 > 온라인교육",
        "place_name": "한국it교육센터"
    },
    {
        "category_name": "교육,학문 > 학원 > 입시학원",
        "place_name": "다원교육 고등대치본관"
    },
    {
        "category_name": "교육,학문 > 학원",
        "place_name": "BR뇌교육 송파지점"
    },
    {
        "category_name": "교육,학문 > 문화센터",
        "place_name": "송파쌤미래교육센터 10관"
    },
    {
        "category_name": "교육,학문 > 학원 > 보습학원",
        "place_name": "다원교육 초중등관"
    },
    {
        "category_name": "문화,예술 > 도서 > 출판사",
        "place_name": "타보름교육"
    },
    {
        "category_name": "교육,학문 > 직업전문교육",
        "place_name": "송파미래교육센터 제8관"
    },
    {
        "category_name": "서비스,산업 > 인쇄,복사",
        "place_name": "제일교육"
    },
    {
        "category_name": "교육,학문 > 학원 > 입시학원",
        "place_name": "강안교육"
    },
    {
        "category_name": "교육,학문 > 학습교재",
        "place_name": "한솔교육"
    },
    {
        "category_name": "교육,학문 > 교육단체",
        "place_name": "교육대전"
    },
    {
        "category_name": "교육,학문 > 학원 > 수학학원",
        "place_name": "빅맨교육"
    },
    {
        "category_name": "사회,공공기관 > 단체,협회",
        "place_name": "지역사회교육 사회적협동조합"
    },
    {
        "category_name": "교육,학문 > 학원 > 입시학원",
        "place_name": "와이즈만영재교육 송파센터"
    },
    {
        "category_name": "문화,예술 > 도서",
        "place_name": "(주)선경교육"
    },
    {
        "category_name": "교육,학문 > 온라인교육",
        "place_name": "한국it교육센터"
    },
    {
        "category_name": "교육,학문 > 학원 > 입시학원",
        "place_name": "다원교육 고등대치본관"
    },
    {
        "category_name": "교육,학문 > 학원",
        "place_name": "BR뇌교육 송파지점"
    },
    {
        "category_name": "교육,학문 > 문화센터",
        "place_name": "송파쌤미래교육센터 10관"
    },
    {
        "category_name": "교육,학문 > 학원 > 보습학원",
        "place_name": "다원교육 초중등관"
    },
    {
        "category_name": "문화,예술 > 도서 > 출판사",
        "place_name": "타보름교육"
    },
    {
        "category_name": "교육,학문 > 직업전문교육",
        "place_name": "송파미래교육센터 제8관"
    },
    {
        "category_name": "서비스,산업 > 인쇄,복사",
        "place_name": "제일교육"
    },
    {
        "category_name": "교육,학문 > 학원 > 입시학원",
        "place_name": "강안교육"
    },
    {
        "category_name": "교육,학문 > 학습교재",
        "place_name": "한솔교육"
    },
    {
        "category_name": "교육,학문 > 교육단체",
        "place_name": "교육대전"
    },
    {
        "category_name": "교육,학문 > 학원 > 수학학원",
        "place_name": "빅맨교육"
    },
    {
        "category_name": "사회,공공기관 > 단체,협회",
        "place_name": "지역사회교육 사회적협동조합"
    },
    {
        "category_name": "교육,학문 > 학원 > 입시학원",
        "place_name": "와이즈만영재교육 송파센터"
    },
    {
        "category_name": "문화,예술 > 도서",
        "place_name": "(주)선경교육"
    },
    {
        "category_name": "교육,학문 > 온라인교육",
        "place_name": "한국it교육센터"
    },
    {
        "category_name": "교육,학문 > 학원 > 입시학원",
        "place_name": "다원교육 고등대치본관"
    },
    {
        "category_name": "교육,학문 > 학원",
        "place_name": "BR뇌교육 송파지점"
    },
    {
        "category_name": "교육,학문 > 문화센터",
        "place_name": "송파쌤미래교육센터 10관"
    },
    {
        "category_name": "교육,학문 > 학원 > 보습학원",
        "place_name": "다원교육 초중등관"
    },
    {
        "category_name": "문화,예술 > 도서 > 출판사",
        "place_name": "타보름교육"
    },
    {
        "category_name": "교육,학문 > 직업전문교육",
        "place_name": "송파미래교육센터 제8관"
    },
    {
        "category_name": "서비스,산업 > 인쇄,복사",
        "place_name": "제일교육"
    },
    {
        "category_name": "교육,학문 > 학원 > 입시학원",
        "place_name": "강안교육"
    },
    {
        "category_name": "교육,학문 > 학습교재",
        "place_name": "한솔교육"
    },
    {
        "category_name": "교육,학문 > 교육단체",
        "place_name": "교육대전"
    },
    {
        "category_name": "교육,학문 > 학원 > 수학학원",
        "place_name": "빅맨교육"
    },
    {
        "category_name": "사회,공공기관 > 단체,협회",
        "place_name": "지역사회교육 사회적협동조합"
    },
    {
        "category_name": "교육,학문 > 학원 > 입시학원",
        "place_name": "와이즈만영재교육 송파센터"
    },
    {
        "category_name": "문화,예술 > 도서",
        "place_name": "(주)선경교육"
    },
    {
        "category_name": "교육,학문 > 온라인교육",
        "place_name": "한국it교육센터"
    },
    {
        "category_name": "교육,학문 > 학원 > 입시학원",
        "place_name": "다원교육 고등대치본관"
    },
    {
        "category_name": "교육,학문 > 학원",
        "place_name": "BR뇌교육 송파지점"
    },
    {
        "category_name": "교육,학문 > 문화센터",
        "place_name": "송파쌤미래교육센터 10관"
    },
    {
        "category_name": "교육,학문 > 학원 > 보습학원",
        "place_name": "다원교육 초중등관"
    },
    {
        "category_name": "문화,예술 > 도서 > 출판사",
        "place_name": "타보름교육"
    },
    {
        "category_name": "교육,학문 > 직업전문교육",
        "place_name": "송파미래교육센터 제8관"
    },
    {
        "category_name": "서비스,산업 > 인쇄,복사",
        "place_name": "제일교육"
    },
    {
        "category_name": "교육,학문 > 학원 > 입시학원",
        "place_name": "강안교육"
    },
    {
        "category_name": "교육,학문 > 학습교재",
        "place_name": "한솔교육"
    },
    {
        "category_name": "교육,학문 > 교육단체",
        "place_name": "교육대전"
    },
    {
        "category_name": "교육,학문 > 학원 > 수학학원",
        "place_name": "빅맨교육"
    },
    {
        "category_name": "사회,공공기관 > 단체,협회",
        "place_name": "지역사회교육 사회적협동조합"
    },
    {
        "category_name": "교육,학문 > 학원 > 입시학원",
        "place_name": "와이즈만영재교육 송파센터"
    },
    {
        "category_name": "문화,예술 > 도서",
        "place_name": "(주)선경교육"
    },
    {
        "category_name": "교육,학문 > 온라인교육",
        "place_name": "한국it교육센터"
    },
    {
        "category_name": "교육,학문 > 학원 > 입시학원",
        "place_name": "다원교육 고등대치본관"
    },
    {
        "category_name": "교육,학문 > 학원",
        "place_name": "BR뇌교육 송파지점"
    },
    {
        "category_name": "교육,학문 > 문화센터",
        "place_name": "송파쌤미래교육센터 10관"
    },
    {
        "category_name": "교육,학문 > 학원 > 보습학원",
        "place_name": "다원교육 초중등관"
    },
    {
        "category_name": "문화,예술 > 도서 > 출판사",
        "place_name": "타보름교육"
    },
    {
        "category_name": "교육,학문 > 직업전문교육",
        "place_name": "송파미래교육센터 제8관"
    },
    {
        "category_name": "서비스,산업 > 인쇄,복사",
        "place_name": "제일교육"
    },
    {
        "category_name": "교육,학문 > 학원 > 입시학원",
        "place_name": "강안교육"
    },
    {
        "category_name": "교육,학문 > 학습교재",
        "place_name": "한솔교육"
    },
    {
        "category_name": "교육,학문 > 교육단체",
        "place_name": "교육대전"
    },
    {
        "category_name": "교육,학문 > 학원 > 수학학원",
        "place_name": "빅맨교육"
    },
    {
        "category_name": "사회,공공기관 > 단체,협회",
        "place_name": "지역사회교육 사회적협동조합"
    },
    {
        "category_name": "교육,학문 > 학원 > 입시학원",
        "place_name": "와이즈만영재교육 송파센터"
    },
    {
        "category_name": "문화,예술 > 도서",
        "place_name": "(주)선경교육"
    },
    {
        "category_name": "교육,학문 > 온라인교육",
        "place_name": "한국it교육센터"
    },
    {
        "category_name": "교육,학문 > 학원 > 입시학원",
        "place_name": "다원교육 고등대치본관"
    },
    {
        "category_name": "교육,학문 > 학원",
        "place_name": "BR뇌교육 송파지점"
    },
    {
        "category_name": "교육,학문 > 문화센터",
        "place_name": "송파쌤미래교육센터 10관"
    },
    {
        "category_name": "교육,학문 > 학원 > 보습학원",
        "place_name": "다원교육 초중등관"
    },
    {
        "category_name": "문화,예술 > 도서 > 출판사",
        "place_name": "타보름교육"
    },
    {
        "category_name": "교육,학문 > 직업전문교육",
        "place_name": "송파미래교육센터 제8관"
    },
    {
        "category_name": "서비스,산업 > 인쇄,복사",
        "place_name": "제일교육"
    },
    {
        "category_name": "교육,학문 > 학원 > 입시학원",
        "place_name": "강안교육"
    },
    {
        "category_name": "교육,학문 > 학습교재",
        "place_name": "한솔교육"
    },
    {
        "category_name": "교육,학문 > 교육단체",
        "place_name": "교육대전"
    },
    {
        "category_name": "교육,학문 > 학원 > 수학학원",
        "place_name": "빅맨교육"
    },
    {
        "category_name": "사회,공공기관 > 단체,협회",
        "place_name": "지역사회교육 사회적협동조합"
    },
    {
        "category_name": "교육,학문 > 학원 > 입시학원",
        "place_name": "와이즈만영재교육 송파센터"
    },
    {
        "category_name": "문화,예술 > 도서",
        "place_name": "(주)선경교육"
    },
    {
        "category_name": "교육,학문 > 온라인교육",
        "place_name": "한국it교육센터"
    },
    {
        "category_name": "교육,학문 > 학원 > 입시학원",
        "place_name": "다원교육 고등대치본관"
    },
    {
        "category_name": "교육,학문 > 학원",
        "place_name": "BR뇌교육 송파지점"
    },
    {
        "category_name": "교육,학문 > 문화센터",
        "place_name": "송파쌤미래교육센터 10관"
    },
    {
        "category_name": "교육,학문 > 학원 > 보습학원",
        "place_name": "다원교육 초중등관"
    },
    {
        "category_name": "문화,예술 > 도서 > 출판사",
        "place_name": "타보름교육"
    },
    {
        "category_name": "교육,학문 > 직업전문교육",
        "place_name": "송파미래교육센터 제8관"
    },
    {
        "category_name": "서비스,산업 > 인쇄,복사",
        "place_name": "제일교육"
    },
    {
        "category_name": "교육,학문 > 학원 > 입시학원",
        "place_name": "강안교육"
    },
    {
        "category_name": "교육,학문 > 학습교재",
        "place_name": "한솔교육"
    },
    {
        "category_name": "교육,학문 > 교육단체",
        "place_name": "교육대전"
    },
    {
        "category_name": "교육,학문 > 학원 > 수학학원",
        "place_name": "빅맨교육"
    },
    {
        "category_name": "사회,공공기관 > 단체,협회",
        "place_name": "지역사회교육 사회적협동조합"
    },
    {
        "category_name": "교육,학문 > 학원 > 입시학원",
        "place_name": "와이즈만영재교육 송파센터"
    },
    {
        "category_name": "문화,예술 > 도서",
        "place_name": "(주)선경교육"
    },
    {
        "category_name": "교육,학문 > 온라인교육",
        "place_name": "한국it교육센터"
    },
    {
        "category_name": "교육,학문 > 학원 > 입시학원",
        "place_name": "다원교육 고등대치본관"
    },
    {
        "category_name": "교육,학문 > 학원",
        "place_name": "BR뇌교육 송파지점"
    },
    {
        "category_name": "교육,학문 > 문화센터",
        "place_name": "송파쌤미래교육센터 10관"
    },
    {
        "category_name": "교육,학문 > 학원 > 보습학원",
        "place_name": "다원교육 초중등관"
    },
    {
        "category_name": "문화,예술 > 도서 > 출판사",
        "place_name": "타보름교육"
    },
    {
        "category_name": "교육,학문 > 직업전문교육",
        "place_name": "송파미래교육센터 제8관"
    },
    {
        "category_name": "서비스,산업 > 인쇄,복사",
        "place_name": "제일교육"
    },
    {
        "category_name": "교육,학문 > 학원 > 입시학원",
        "place_name": "강안교육"
    },
    {
        "category_name": "교육,학문 > 학습교재",
        "place_name": "한솔교육"
    },
    {
        "category_name": "교육,학문 > 교육단체",
        "place_name": "교육대전"
    },
    {
        "category_name": "교육,학문 > 학원 > 수학학원",
        "place_name": "빅맨교육"
    },
    {
        "category_name": "사회,공공기관 > 단체,협회",
        "place_name": "지역사회교육 사회적협동조합"
    },
    {
        "category_name": "교육,학문 > 학원 > 입시학원",
        "place_name": "와이즈만영재교육 송파센터"
    },
    {
        "category_name": "문화,예술 > 도서",
        "place_name": "(주)선경교육"
    },
    {
        "category_name": "교육,학문 > 온라인교육",
        "place_name": "한국it교육센터"
    },
    {
        "category_name": "교육,학문 > 학원 > 입시학원",
        "place_name": "다원교육 고등대치본관"
    },
    {
        "category_name": "교육,학문 > 학원",
        "place_name": "BR뇌교육 송파지점"
    },
    {
        "category_name": "교육,학문 > 문화센터",
        "place_name": "송파쌤미래교육센터 10관"
    },
    {
        "category_name": "교육,학문 > 학원 > 보습학원",
        "place_name": "다원교육 초중등관"
    },
    {
        "category_name": "문화,예술 > 도서 > 출판사",
        "place_name": "타보름교육"
    },
    {
        "category_name": "교육,학문 > 직업전문교육",
        "place_name": "송파미래교육센터 제8관"
    },
    {
        "category_name": "서비스,산업 > 인쇄,복사",
        "place_name": "제일교육"
    },
    {
        "category_name": "교육,학문 > 학원 > 입시학원",
        "place_name": "강안교육"
    },
    {
        "category_name": "교육,학문 > 학습교재",
        "place_name": "한솔교육"
    },
    {
        "category_name": "교육,학문 > 교육단체",
        "place_name": "교육대전"
    },
    {
        "category_name": "교육,학문 > 학원 > 수학학원",
        "place_name": "빅맨교육"
    },
    {
        "category_name": "사회,공공기관 > 단체,협회",
        "place_name": "지역사회교육 사회적협동조합"
    },
    {
        "category_name": "교육,학문 > 학원 > 입시학원",
        "place_name": "와이즈만영재교육 송파센터"
    },
    {
        "category_name": "문화,예술 > 도서",
        "place_name": "(주)선경교육"
    },
    {
        "category_name": "교육,학문 > 온라인교육",
        "place_name": "한국it교육센터"
    },
    {
        "category_name": "교육,학문 > 학원 > 입시학원",
        "place_name": "다원교육 고등대치본관"
    },
    {
        "category_name": "교육,학문 > 학원",
        "place_name": "BR뇌교육 송파지점"
    },
    {
        "category_name": "교육,학문 > 문화센터",
        "place_name": "송파쌤미래교육센터 10관"
    },
    {
        "category_name": "교육,학문 > 학원 > 보습학원",
        "place_name": "다원교육 초중등관"
    },
    {
        "category_name": "문화,예술 > 도서 > 출판사",
        "place_name": "타보름교육"
    },
    {
        "category_name": "교육,학문 > 직업전문교육",
        "place_name": "송파미래교육센터 제8관"
    },
    {
        "category_name": "서비스,산업 > 인쇄,복사",
        "place_name": "제일교육"
    },
    {
        "category_name": "교육,학문 > 학원 > 입시학원",
        "place_name": "강안교육"
    },
    {
        "category_name": "교육,학문 > 학습교재",
        "place_name": "한솔교육"
    },
    {
        "category_name": "교육,학문 > 교육단체",
        "place_name": "교육대전"
    },
    {
        "category_name": "교육,학문 > 학원 > 수학학원",
        "place_name": "빅맨교육"
    },
    {
        "category_name": "사회,공공기관 > 단체,협회",
        "place_name": "지역사회교육 사회적협동조합"
    },
    {
        "category_name": "교육,학문 > 학원 > 입시학원",
        "place_name": "와이즈만영재교육 송파센터"
    },
    {
        "category_name": "문화,예술 > 도서",
        "place_name": "(주)선경교육"
    },
    {
        "category_name": "교육,학문 > 온라인교육",
        "place_name": "한국it교육센터"
    },
    {
        "category_name": "교육,학문 > 학원 > 입시학원",
        "place_name": "다원교육 고등대치본관"
    },
    {
        "category_name": "교육,학문 > 학원",
        "place_name": "BR뇌교육 송파지점"
    },
    {
        "category_name": "교육,학문 > 문화센터",
        "place_name": "송파쌤미래교육센터 10관"
    },
    {
        "category_name": "교육,학문 > 학원 > 보습학원",
        "place_name": "다원교육 초중등관"
    },
    {
        "category_name": "문화,예술 > 도서 > 출판사",
        "place_name": "타보름교육"
    },
    {
        "category_name": "교육,학문 > 직업전문교육",
        "place_name": "송파미래교육센터 제8관"
    },
    {
        "category_name": "서비스,산업 > 인쇄,복사",
        "place_name": "제일교육"
    },
    {
        "category_name": "교육,학문 > 학원 > 입시학원",
        "place_name": "강안교육"
    },
    {
        "category_name": "교육,학문 > 학습교재",
        "place_name": "한솔교육"
    },
    {
        "category_name": "교육,학문 > 교육단체",
        "place_name": "교육대전"
    },
    {
        "category_name": "교육,학문 > 학원 > 수학학원",
        "place_name": "빅맨교육"
    },
    {
        "category_name": "사회,공공기관 > 단체,협회",
        "place_name": "지역사회교육 사회적협동조합"
    },
    {
        "category_name": "교육,학문 > 학원 > 입시학원",
        "place_name": "와이즈만영재교육 송파센터"
    },
    {
        "category_name": "문화,예술 > 도서",
        "place_name": "(주)선경교육"
    },
    {
        "category_name": "교육,학문 > 온라인교육",
        "place_name": "한국it교육센터"
    },
    {
        "category_name": "교육,학문 > 학원 > 입시학원",
        "place_name": "다원교육 고등대치본관"
    },
    {
        "category_name": "교육,학문 > 학원",
        "place_name": "BR뇌교육 송파지점"
    },
    {
        "category_name": "교육,학문 > 문화센터",
        "place_name": "송파쌤미래교육센터 10관"
    },
    {
        "category_name": "교육,학문 > 학원 > 보습학원",
        "place_name": "다원교육 초중등관"
    },
    {
        "category_name": "문화,예술 > 도서 > 출판사",
        "place_name": "타보름교육"
    },
    {
        "category_name": "교육,학문 > 직업전문교육",
        "place_name": "송파미래교육센터 제8관"
    },
    {
        "category_name": "서비스,산업 > 인쇄,복사",
        "place_name": "제일교육"
    },
    {
        "category_name": "교육,학문 > 학원 > 입시학원",
        "place_name": "강안교육"
    },
    {
        "category_name": "교육,학문 > 학습교재",
        "place_name": "한솔교육"
    },
    {
        "category_name": "교육,학문 > 교육단체",
        "place_name": "교육대전"
    },
    {
        "category_name": "교육,학문 > 학원 > 수학학원",
        "place_name": "빅맨교육"
    },
    {
        "category_name": "사회,공공기관 > 단체,협회",
        "place_name": "지역사회교육 사회적협동조합"
    },
    {
        "category_name": "교육,학문 > 학원 > 입시학원",
        "place_name": "와이즈만영재교육 송파센터"
    },
    {
        "category_name": "문화,예술 > 도서",
        "place_name": "(주)선경교육"
    },
    {
        "category_name": "교육,학문 > 온라인교육",
        "place_name": "한국it교육센터"
    },
    {
        "category_name": "교육,학문 > 학원 > 입시학원",
        "place_name": "다원교육 고등대치본관"
    },
    {
        "category_name": "교육,학문 > 학원",
        "place_name": "BR뇌교육 송파지점"
    },
    {
        "category_name": "교육,학문 > 문화센터",
        "place_name": "송파쌤미래교육센터 10관"
    },
    {
        "category_name": "교육,학문 > 학원 > 보습학원",
        "place_name": "다원교육 초중등관"
    },
    {
        "category_name": "문화,예술 > 도서 > 출판사",
        "place_name": "타보름교육"
    },
    {
        "category_name": "교육,학문 > 직업전문교육",
        "place_name": "송파미래교육센터 제8관"
    },
    {
        "category_name": "서비스,산업 > 인쇄,복사",
        "place_name": "제일교육"
    },
    {
        "category_name": "교육,학문 > 학원 > 입시학원",
        "place_name": "강안교육"
    },
    {
        "category_name": "교육,학문 > 학습교재",
        "place_name": "한솔교육"
    },
    {
        "category_name": "교육,학문 > 교육단체",
        "place_name": "교육대전"
    },
    {
        "category_name": "교육,학문 > 학원 > 수학학원",
        "place_name": "빅맨교육"
    },
    {
        "category_name": "사회,공공기관 > 단체,협회",
        "place_name": "지역사회교육 사회적협동조합"
    },
    {
        "category_name": "교육,학문 > 학원 > 입시학원",
        "place_name": "와이즈만영재교육 송파센터"
    },
    {
        "category_name": "문화,예술 > 도서",
        "place_name": "(주)선경교육"
    },
    {
        "category_name": "교육,학문 > 온라인교육",
        "place_name": "한국it교육센터"
    },
    {
        "category_name": "교육,학문 > 학원 > 입시학원",
        "place_name": "다원교육 고등대치본관"
    },
    {
        "category_name": "교육,학문 > 학원",
        "place_name": "BR뇌교육 송파지점"
    },
    {
        "category_name": "교육,학문 > 문화센터",
        "place_name": "송파쌤미래교육센터 10관"
    },
    {
        "category_name": "교육,학문 > 학원 > 보습학원",
        "place_name": "다원교육 초중등관"
    },
    {
        "category_name": "문화,예술 > 도서 > 출판사",
        "place_name": "타보름교육"
    },
    {
        "category_name": "교육,학문 > 직업전문교육",
        "place_name": "송파미래교육센터 제8관"
    },
    {
        "category_name": "서비스,산업 > 인쇄,복사",
        "place_name": "제일교육"
    },
    {
        "category_name": "교육,학문 > 학원 > 입시학원",
        "place_name": "강안교육"
    },
    {
        "category_name": "교육,학문 > 학습교재",
        "place_name": "한솔교육"
    },
    {
        "category_name": "교육,학문 > 교육단체",
        "place_name": "교육대전"
    },
    {
        "category_name": "교육,학문 > 학원 > 수학학원",
        "place_name": "빅맨교육"
    },
    {
        "category_name": "사회,공공기관 > 단체,협회",
        "place_name": "지역사회교육 사회적협동조합"
    },
    {
        "category_name": "교육,학문 > 학원 > 입시학원",
        "place_name": "와이즈만영재교육 송파센터"
    },
    {
        "category_name": "문화,예술 > 도서",
        "place_name": "(주)선경교육"
    },
    {
        "category_name": "교육,학문 > 온라인교육",
        "place_name": "한국it교육센터"
    },
    {
        "category_name": "교육,학문 > 학원 > 입시학원",
        "place_name": "다원교육 고등대치본관"
    },
    {
        "category_name": "교육,학문 > 학원",
        "place_name": "BR뇌교육 송파지점"
    },
    {
        "category_name": "교육,학문 > 문화센터",
        "place_name": "송파쌤미래교육센터 10관"
    },
    {
        "category_name": "교육,학문 > 학원 > 보습학원",
        "place_name": "다원교육 초중등관"
    },
    {
        "category_name": "문화,예술 > 도서 > 출판사",
        "place_name": "타보름교육"
    },
    {
        "category_name": "교육,학문 > 직업전문교육",
        "place_name": "송파미래교육센터 제8관"
    },
    {
        "category_name": "서비스,산업 > 인쇄,복사",
        "place_name": "제일교육"
    },
    {
        "category_name": "교육,학문 > 학원 > 입시학원",
        "place_name": "강안교육"
    },
    {
        "category_name": "교육,학문 > 학습교재",
        "place_name": "한솔교육"
    },
    {
        "category_name": "교육,학문 > 교육단체",
        "place_name": "교육대전"
    },
    {
        "category_name": "교육,학문 > 학원 > 수학학원",
        "place_name": "빅맨교육"
    },
    {
        "category_name": "사회,공공기관 > 단체,협회",
        "place_name": "지역사회교육 사회적협동조합"
    },
    {
        "category_name": "교육,학문 > 학원 > 입시학원",
        "place_name": "와이즈만영재교육 송파센터"
    },
    {
        "category_name": "문화,예술 > 도서",
        "place_name": "(주)선경교육"
    },
    {
        "category_name": "교육,학문 > 온라인교육",
        "place_name": "한국it교육센터"
    },
    {
        "category_name": "교육,학문 > 학원 > 입시학원",
        "place_name": "다원교육 고등대치본관"
    },
    {
        "category_name": "교육,학문 > 학원",
        "place_name": "BR뇌교육 송파지점"
    },
    {
        "category_name": "교육,학문 > 문화센터",
        "place_name": "송파쌤미래교육센터 10관"
    },
    {
        "category_name": "교육,학문 > 학원 > 보습학원",
        "place_name": "다원교육 초중등관"
    },
    {
        "category_name": "문화,예술 > 도서 > 출판사",
        "place_name": "타보름교육"
    },
    {
        "category_name": "교육,학문 > 직업전문교육",
        "place_name": "송파미래교육센터 제8관"
    },
    {
        "category_name": "서비스,산업 > 인쇄,복사",
        "place_name": "제일교육"
    },
    {
        "category_name": "교육,학문 > 학원 > 입시학원",
        "place_name": "강안교육"
    },
    {
        "category_name": "교육,학문 > 학습교재",
        "place_name": "한솔교육"
    },
    {
        "category_name": "교육,학문 > 교육단체",
        "place_name": "교육대전"
    },
    {
        "category_name": "교육,학문 > 학원 > 수학학원",
        "place_name": "빅맨교육"
    },
    {
        "category_name": "사회,공공기관 > 단체,협회",
        "place_name": "지역사회교육 사회적협동조합"
    },
    {
        "category_name": "교육,학문 > 학원 > 입시학원",
        "place_name": "와이즈만영재교육 송파센터"
    },
    {
        "category_name": "문화,예술 > 도서",
        "place_name": "(주)선경교육"
    },
    {
        "category_name": "교육,학문 > 온라인교육",
        "place_name": "한국it교육센터"
    },
    {
        "category_name": "교육,학문 > 학원 > 입시학원",
        "place_name": "다원교육 고등대치본관"
    },
    {
        "category_name": "교육,학문 > 학원",
        "place_name": "BR뇌교육 송파지점"
    },
    {
        "category_name": "교육,학문 > 문화센터",
        "place_name": "송파쌤미래교육센터 10관"
    },
    {
        "category_name": "교육,학문 > 학원 > 보습학원",
        "place_name": "다원교육 초중등관"
    },
    {
        "category_name": "문화,예술 > 도서 > 출판사",
        "place_name": "타보름교육"
    },
    {
        "category_name": "교육,학문 > 직업전문교육",
        "place_name": "송파미래교육센터 제8관"
    },
    {
        "category_name": "서비스,산업 > 인쇄,복사",
        "place_name": "제일교육"
    },
    {
        "category_name": "교육,학문 > 학원 > 입시학원",
        "place_name": "강안교육"
    },
    {
        "category_name": "교육,학문 > 학습교재",
        "place_name": "한솔교육"
    },
    {
        "category_name": "교육,학문 > 교육단체",
        "place_name": "교육대전"
    },
    {
        "category_name": "교육,학문 > 학원 > 수학학원",
        "place_name": "빅맨교육"
    },
    {
        "category_name": "사회,공공기관 > 단체,협회",
        "place_name": "지역사회교육 사회적협동조합"
    },
    {
        "category_name": "교육,학문 > 학원 > 입시학원",
        "place_name": "와이즈만영재교육 송파센터"
    },
    {
        "category_name": "문화,예술 > 도서",
        "place_name": "(주)선경교육"
    },
    {
        "category_name": "교육,학문 > 온라인교육",
        "place_name": "한국it교육센터"
    },
    {
        "category_name": "교육,학문 > 학원 > 입시학원",
        "place_name": "다원교육 고등대치본관"
    },
    {
        "category_name": "교육,학문 > 학원",
        "place_name": "BR뇌교육 송파지점"
    },
    {
        "category_name": "교육,학문 > 문화센터",
        "place_name": "송파쌤미래교육센터 10관"
    },
    {
        "category_name": "교육,학문 > 학원 > 보습학원",
        "place_name": "다원교육 초중등관"
    },
    {
        "category_name": "문화,예술 > 도서 > 출판사",
        "place_name": "타보름교육"
    },
    {
        "category_name": "교육,학문 > 직업전문교육",
        "place_name": "송파미래교육센터 제8관"
    },
    {
        "category_name": "서비스,산업 > 인쇄,복사",
        "place_name": "제일교육"
    },
    {
        "category_name": "교육,학문 > 학원 > 입시학원",
        "place_name": "강안교육"
    },
    {
        "category_name": "교육,학문 > 학습교재",
        "place_name": "한솔교육"
    },
    {
        "category_name": "교육,학문 > 교육단체",
        "place_name": "교육대전"
    },
    {
        "category_name": "교육,학문 > 학원 > 수학학원",
        "place_name": "빅맨교육"
    },
    {
        "category_name": "사회,공공기관 > 단체,협회",
        "place_name": "지역사회교육 사회적협동조합"
    },
    {
        "category_name": "교육,학문 > 학원 > 입시학원",
        "place_name": "와이즈만영재교육 송파센터"
    },
    {
        "category_name": "문화,예술 > 도서",
        "place_name": "(주)선경교육"
    },
    {
        "category_name": "교육,학문 > 온라인교육",
        "place_name": "한국it교육센터"
    },
    {
        "category_name": "교육,학문 > 학원 > 입시학원",
        "place_name": "다원교육 고등대치본관"
    },
    {
        "category_name": "교육,학문 > 학원",
        "place_name": "BR뇌교육 송파지점"
    },
    {
        "category_name": "교육,학문 > 문화센터",
        "place_name": "송파쌤미래교육센터 10관"
    },
    {
        "category_name": "교육,학문 > 학원 > 보습학원",
        "place_name": "다원교육 초중등관"
    },
    {
        "category_name": "문화,예술 > 도서 > 출판사",
        "place_name": "타보름교육"
    },
    {
        "category_name": "교육,학문 > 직업전문교육",
        "place_name": "송파미래교육센터 제8관"
    },
    {
        "category_name": "서비스,산업 > 인쇄,복사",
        "place_name": "제일교육"
    },
    {
        "category_name": "교육,학문 > 학원 > 입시학원",
        "place_name": "강안교육"
    },
    {
        "category_name": "교육,학문 > 학습교재",
        "place_name": "한솔교육"
    },
    {
        "category_name": "교육,학문 > 교육단체",
        "place_name": "교육대전"
    },
    {
        "category_name": "교육,학문 > 학원 > 수학학원",
        "place_name": "빅맨교육"
    },
    {
        "category_name": "사회,공공기관 > 단체,협회",
        "place_name": "지역사회교육 사회적협동조합"
    },
    {
        "category_name": "교육,학문 > 학원 > 입시학원",
        "place_name": "와이즈만영재교육 송파센터"
    },
    {
        "category_name": "문화,예술 > 도서",
        "place_name": "(주)선경교육"
    },
    {
        "category_name": "교육,학문 > 온라인교육",
        "place_name": "한국it교육센터"
    },
    {
        "category_name": "교육,학문 > 학원 > 입시학원",
        "place_name": "다원교육 고등대치본관"
    },
    {
        "category_name": "교육,학문 > 학원",
        "place_name": "BR뇌교육 송파지점"
    },
    {
        "category_name": "교육,학문 > 문화센터",
        "place_name": "송파쌤미래교육센터 10관"
    },
    {
        "category_name": "교육,학문 > 학원 > 보습학원",
        "place_name": "다원교육 초중등관"
    },
    {
        "category_name": "문화,예술 > 도서 > 출판사",
        "place_name": "타보름교육"
    },
    {
        "category_name": "교육,학문 > 직업전문교육",
        "place_name": "송파미래교육센터 제8관"
    },
    {
        "category_name": "서비스,산업 > 인쇄,복사",
        "place_name": "제일교육"
    },
    {
        "category_name": "교육,학문 > 학원 > 입시학원",
        "place_name": "강안교육"
    },
    {
        "category_name": "교육,학문 > 학습교재",
        "place_name": "한솔교육"
    },
    {
        "category_name": "교육,학문 > 교육단체",
        "place_name": "교육대전"
    },
    {
        "category_name": "교육,학문 > 학원 > 수학학원",
        "place_name": "빅맨교육"
    },
    {
        "category_name": "사회,공공기관 > 단체,협회",
        "place_name": "지역사회교육 사회적협동조합"
    },
    {
        "category_name": "교육,학문 > 학원 > 입시학원",
        "place_name": "와이즈만영재교육 송파센터"
    },
    {
        "category_name": "문화,예술 > 도서",
        "place_name": "(주)선경교육"
    },
    {
        "category_name": "교육,학문 > 온라인교육",
        "place_name": "한국it교육센터"
    },
    {
        "category_name": "교육,학문 > 학원 > 입시학원",
        "place_name": "다원교육 고등대치본관"
    },
    {
        "category_name": "교육,학문 > 학원",
        "place_name": "BR뇌교육 송파지점"
    },
    {
        "category_name": "교육,학문 > 문화센터",
        "place_name": "송파쌤미래교육센터 10관"
    },
    {
        "category_name": "교육,학문 > 학원 > 보습학원",
        "place_name": "다원교육 초중등관"
    },
    {
        "category_name": "문화,예술 > 도서 > 출판사",
        "place_name": "타보름교육"
    },
    {
        "category_name": "교육,학문 > 직업전문교육",
        "place_name": "송파미래교육센터 제8관"
    },
    {
        "category_name": "서비스,산업 > 인쇄,복사",
        "place_name": "제일교육"
    },
    {
        "category_name": "교육,학문 > 학원 > 입시학원",
        "place_name": "강안교육"
    },
    {
        "category_name": "교육,학문 > 학습교재",
        "place_name": "한솔교육"
    },
    {
        "category_name": "교육,학문 > 교육단체",
        "place_name": "교육대전"
    },
    {
        "category_name": "교육,학문 > 학원 > 수학학원",
        "place_name": "빅맨교육"
    },
    {
        "category_name": "사회,공공기관 > 단체,협회",
        "place_name": "지역사회교육 사회적협동조합"
    },
    {
        "category_name": "교육,학문 > 학원 > 입시학원",
        "place_name": "와이즈만영재교육 송파센터"
    },
    {
        "category_name": "문화,예술 > 도서",
        "place_name": "(주)선경교육"
    },
    {
        "category_name": "교육,학문 > 온라인교육",
        "place_name": "한국it교육센터"
    },
    {
        "category_name": "교육,학문 > 학원 > 입시학원",
        "place_name": "다원교육 고등대치본관"
    },
    {
        "category_name": "교육,학문 > 학원",
        "place_name": "BR뇌교육 송파지점"
    },
    {
        "category_name": "교육,학문 > 문화센터",
        "place_name": "송파쌤미래교육센터 10관"
    },
    {
        "category_name": "교육,학문 > 학원 > 보습학원",
        "place_name": "다원교육 초중등관"
    },
    {
        "category_name": "문화,예술 > 도서 > 출판사",
        "place_name": "타보름교육"
    },
    {
        "category_name": "교육,학문 > 직업전문교육",
        "place_name": "송파미래교육센터 제8관"
    },
    {
        "category_name": "서비스,산업 > 인쇄,복사",
        "place_name": "제일교육"
    },
    {
        "category_name": "교육,학문 > 학원 > 입시학원",
        "place_name": "강안교육"
    },
    {
        "category_name": "교육,학문 > 학습교재",
        "place_name": "한솔교육"
    },
    {
        "category_name": "교육,학문 > 교육단체",
        "place_name": "교육대전"
    },
    {
        "category_name": "교육,학문 > 학원 > 수학학원",
        "place_name": "빅맨교육"
    },
    {
        "category_name": "사회,공공기관 > 단체,협회",
        "place_name": "지역사회교육 사회적협동조합"
    },
    {
        "category_name": "교육,학문 > 학원 > 입시학원",
        "place_name": "와이즈만영재교육 송파센터"
    },
    {
        "category_name": "문화,예술 > 도서",
        "place_name": "(주)선경교육"
    },
    {
        "category_name": "교육,학문 > 온라인교육",
        "place_name": "한국it교육센터"
    },
    {
        "category_name": "교육,학문 > 학원 > 입시학원",
        "place_name": "다원교육 고등대치본관"
    },
    {
        "category_name": "교육,학문 > 학원",
        "place_name": "BR뇌교육 송파지점"
    },
    {
        "category_name": "교육,학문 > 문화센터",
        "place_name": "송파쌤미래교육센터 10관"
    },
    {
        "category_name": "교육,학문 > 학원 > 보습학원",
        "place_name": "다원교육 초중등관"
    },
    {
        "category_name": "문화,예술 > 도서 > 출판사",
        "place_name": "타보름교육"
    },
    {
        "category_name": "교육,학문 > 직업전문교육",
        "place_name": "송파미래교육센터 제8관"
    },
    {
        "category_name": "서비스,산업 > 인쇄,복사",
        "place_name": "제일교육"
    },
    {
        "category_name": "교육,학문 > 학원 > 입시학원",
        "place_name": "강안교육"
    },
    {
        "category_name": "교육,학문 > 학습교재",
        "place_name": "한솔교육"
    },
    {
        "category_name": "교육,학문 > 교육단체",
        "place_name": "교육대전"
    },
    {
        "category_name": "교육,학문 > 학원 > 수학학원",
        "place_name": "빅맨교육"
    },
    {
        "category_name": "사회,공공기관 > 단체,협회",
        "place_name": "지역사회교육 사회적협동조합"
    },
    {
        "category_name": "교육,학문 > 학원 > 입시학원",
        "place_name": "와이즈만영재교육 송파센터"
    },
    {
        "category_name": "문화,예술 > 도서",
        "place_name": "(주)선경교육"
    },
    {
        "category_name": "교육,학문 > 온라인교육",
        "place_name": "한국it교육센터"
    },
    {
        "category_name": "교육,학문 > 학원 > 입시학원",
        "place_name": "다원교육 고등대치본관"
    },
    {
        "category_name": "교육,학문 > 학원",
        "place_name": "BR뇌교육 송파지점"
    },
    {
        "category_name": "교육,학문 > 문화센터",
        "place_name": "송파쌤미래교육센터 10관"
    },
    {
        "category_name": "교육,학문 > 학원 > 보습학원",
        "place_name": "다원교육 초중등관"
    },
    {
        "category_name": "문화,예술 > 도서 > 출판사",
        "place_name": "타보름교육"
    },
    {
        "category_name": "교육,학문 > 직업전문교육",
        "place_name": "송파미래교육센터 제8관"
    },
    {
        "category_name": "서비스,산업 > 인쇄,복사",
        "place_name": "제일교육"
    },
    {
        "category_name": "교육,학문 > 학원 > 입시학원",
        "place_name": "강안교육"
    },
    {
        "category_name": "교육,학문 > 학습교재",
        "place_name": "한솔교육"
    },
    {
        "category_name": "교육,학문 > 교육단체",
        "place_name": "교육대전"
    },
    {
        "category_name": "교육,학문 > 학원 > 수학학원",
        "place_name": "빅맨교육"
    },
    {
        "category_name": "사회,공공기관 > 단체,협회",
        "place_name": "지역사회교육 사회적협동조합"
    },
    {
        "category_name": "교육,학문 > 학원 > 입시학원",
        "place_name": "와이즈만영재교육 송파센터"
    },
    {
        "category_name": "문화,예술 > 도서",
        "place_name": "(주)선경교육"
    },
    {
        "category_name": "교육,학문 > 온라인교육",
        "place_name": "한국it교육센터"
    },
    {
        "category_name": "교육,학문 > 학원 > 입시학원",
        "place_name": "다원교육 고등대치본관"
    },
    {
        "category_name": "교육,학문 > 학원",
        "place_name": "BR뇌교육 송파지점"
    },
    {
        "category_name": "교육,학문 > 문화센터",
        "place_name": "송파쌤미래교육센터 10관"
    },
    {
        "category_name": "교육,학문 > 학원 > 보습학원",
        "place_name": "다원교육 초중등관"
    },
    {
        "category_name": "문화,예술 > 도서 > 출판사",
        "place_name": "타보름교육"
    },
    {
        "category_name": "교육,학문 > 직업전문교육",
        "place_name": "송파미래교육센터 제8관"
    },
    {
        "category_name": "서비스,산업 > 인쇄,복사",
        "place_name": "제일교육"
    },
    {
        "category_name": "교육,학문 > 학원 > 입시학원",
        "place_name": "강안교육"
    },
    {
        "category_name": "교육,학문 > 학습교재",
        "place_name": "한솔교육"
    },
    {
        "category_name": "교육,학문 > 교육단체",
        "place_name": "교육대전"
    },
    {
        "category_name": "교육,학문 > 학원 > 수학학원",
        "place_name": "빅맨교육"
    },
    {
        "category_name": "사회,공공기관 > 단체,협회",
        "place_name": "지역사회교육 사회적협동조합"
    },
    {
        "category_name": "교육,학문 > 학원 > 입시학원",
        "place_name": "와이즈만영재교육 송파센터"
    },
    {
        "category_name": "문화,예술 > 도서",
        "place_name": "(주)선경교육"
    },
    {
        "category_name": "교육,학문 > 온라인교육",
        "place_name": "한국it교육센터"
    },
    {
        "category_name": "교육,학문 > 학원 > 입시학원",
        "place_name": "다원교육 고등대치본관"
    },
    {
        "category_name": "교육,학문 > 학원",
        "place_name": "BR뇌교육 송파지점"
    },
    {
        "category_name": "교육,학문 > 문화센터",
        "place_name": "송파쌤미래교육센터 10관"
    },
    {
        "category_name": "교육,학문 > 학원 > 보습학원",
        "place_name": "다원교육 초중등관"
    },
    {
        "category_name": "문화,예술 > 도서 > 출판사",
        "place_name": "타보름교육"
    },
    {
        "category_name": "교육,학문 > 직업전문교육",
        "place_name": "송파미래교육센터 제8관"
    },
    {
        "category_name": "서비스,산업 > 인쇄,복사",
        "place_name": "제일교육"
    },
    {
        "category_name": "교육,학문 > 학원 > 입시학원",
        "place_name": "강안교육"
    },
    {
        "category_name": "교육,학문 > 학습교재",
        "place_name": "한솔교육"
    },
    {
        "category_name": "교육,학문 > 교육단체",
        "place_name": "교육대전"
    },
    {
        "category_name": "교육,학문 > 학원 > 수학학원",
        "place_name": "빅맨교육"
    },
    {
        "category_name": "사회,공공기관 > 단체,협회",
        "place_name": "지역사회교육 사회적협동조합"
    },
    {
        "category_name": "교육,학문 > 학원 > 입시학원",
        "place_name": "와이즈만영재교육 송파센터"
    },
    {
        "category_name": "문화,예술 > 도서",
        "place_name": "(주)선경교육"
    },
    {
        "category_name": "교육,학문 > 온라인교육",
        "place_name": "한국it교육센터"
    },
    {
        "category_name": "교육,학문 > 학원 > 입시학원",
        "place_name": "다원교육 고등대치본관"
    },
    {
        "category_name": "교육,학문 > 학원",
        "place_name": "BR뇌교육 송파지점"
    },
    {
        "category_name": "교육,학문 > 문화센터",
        "place_name": "송파쌤미래교육센터 10관"
    },
    {
        "category_name": "교육,학문 > 학원 > 보습학원",
        "place_name": "다원교육 초중등관"
    },
    {
        "category_name": "문화,예술 > 도서 > 출판사",
        "place_name": "타보름교육"
    },
    {
        "category_name": "교육,학문 > 직업전문교육",
        "place_name": "송파미래교육센터 제8관"
    },
    {
        "category_name": "서비스,산업 > 인쇄,복사",
        "place_name": "제일교육"
    },
    {
        "category_name": "교육,학문 > 학원 > 입시학원",
        "place_name": "강안교육"
    },
    {
        "category_name": "교육,학문 > 학습교재",
        "place_name": "한솔교육"
    },
    {
        "category_name": "교육,학문 > 교육단체",
        "place_name": "교육대전"
    },
    {
        "category_name": "교육,학문 > 학원 > 수학학원",
        "place_name": "빅맨교육"
    },
    {
        "category_name": "사회,공공기관 > 단체,협회",
        "place_name": "지역사회교육 사회적협동조합"
    },
    {
        "category_name": "교육,학문 > 학원 > 입시학원",
        "place_name": "와이즈만영재교육 송파센터"
    },
    {
        "category_name": "문화,예술 > 도서",
        "place_name": "(주)선경교육"
    },
    {
        "category_name": "교육,학문 > 온라인교육",
        "place_name": "한국it교육센터"
    },
    {
        "category_name": "교육,학문 > 학원 > 입시학원",
        "place_name": "다원교육 고등대치본관"
    },
    {
        "category_name": "교육,학문 > 학원",
        "place_name": "BR뇌교육 송파지점"
    },
    {
        "category_name": "교육,학문 > 문화센터",
        "place_name": "송파쌤미래교육센터 10관"
    },
    {
        "category_name": "교육,학문 > 학원 > 보습학원",
        "place_name": "다원교육 초중등관"
    },
    {
        "category_name": "문화,예술 > 도서 > 출판사",
        "place_name": "타보름교육"
    },
    {
        "category_name": "교육,학문 > 직업전문교육",
        "place_name": "송파미래교육센터 제8관"
    },
    {
        "category_name": "서비스,산업 > 인쇄,복사",
        "place_name": "제일교육"
    },
    {
        "category_name": "교육,학문 > 학원 > 입시학원",
        "place_name": "강안교육"
    },
    {
        "category_name": "교육,학문 > 학습교재",
        "place_name": "한솔교육"
    },
    {
        "category_name": "교육,학문 > 교육단체",
        "place_name": "교육대전"
    },
    {
        "category_name": "교육,학문 > 학원 > 수학학원",
        "place_name": "빅맨교육"
    },
    {
        "category_name": "사회,공공기관 > 단체,협회",
        "place_name": "지역사회교육 사회적협동조합"
    },
    {
        "category_name": "교육,학문 > 학원 > 입시학원",
        "place_name": "와이즈만영재교육 송파센터"
    },
    {
        "category_name": "문화,예술 > 도서",
        "place_name": "(주)선경교육"
    },
    {
        "category_name": "교육,학문 > 온라인교육",
        "place_name": "한국it교육센터"
    },
    {
        "category_name": "교육,학문 > 학원 > 입시학원",
        "place_name": "다원교육 고등대치본관"
    },
    {
        "category_name": "교육,학문 > 학원",
        "place_name": "BR뇌교육 송파지점"
    },
    {
        "category_name": "교육,학문 > 문화센터",
        "place_name": "송파쌤미래교육센터 10관"
    },
    {
        "category_name": "교육,학문 > 학원 > 보습학원",
        "place_name": "다원교육 초중등관"
    },
    {
        "category_name": "문화,예술 > 도서 > 출판사",
        "place_name": "타보름교육"
    },
    {
        "category_name": "교육,학문 > 직업전문교육",
        "place_name": "송파미래교육센터 제8관"
    },
    {
        "category_name": "서비스,산업 > 인쇄,복사",
        "place_name": "제일교육"
    },
    {
        "category_name": "교육,학문 > 학원 > 입시학원",
        "place_name": "강안교육"
    },
    {
        "category_name": "교육,학문 > 학습교재",
        "place_name": "한솔교육"
    },
    {
        "category_name": "교육,학문 > 교육단체",
        "place_name": "교육대전"
    },
    {
        "category_name": "교육,학문 > 학원 > 수학학원",
        "place_name": "빅맨교육"
    },
    {
        "category_name": "사회,공공기관 > 단체,협회",
        "place_name": "지역사회교육 사회적협동조합"
    },
    {
        "category_name": "교육,학문 > 학원 > 입시학원",
        "place_name": "와이즈만영재교육 송파센터"
    },
    {
        "category_name": "문화,예술 > 도서",
        "place_name": "(주)선경교육"
    },
    {
        "category_name": "교육,학문 > 온라인교육",
        "place_name": "한국it교육센터"
    },
    {
        "category_name": "교육,학문 > 학원 > 입시학원",
        "place_name": "다원교육 고등대치본관"
    },
    {
        "category_name": "교육,학문 > 학원",
        "place_name": "BR뇌교육 송파지점"
    },
    {
        "category_name": "교육,학문 > 문화센터",
        "place_name": "송파쌤미래교육센터 10관"
    },
    {
        "category_name": "교육,학문 > 학원 > 보습학원",
        "place_name": "다원교육 초중등관"
    },
    {
        "category_name": "문화,예술 > 도서 > 출판사",
        "place_name": "타보름교육"
    },
    {
        "category_name": "교육,학문 > 직업전문교육",
        "place_name": "송파미래교육센터 제8관"
    },
    {
        "category_name": "서비스,산업 > 인쇄,복사",
        "place_name": "제일교육"
    },
    {
        "category_name": "교육,학문 > 학원 > 입시학원",
        "place_name": "강안교육"
    },
    {
        "category_name": "교육,학문 > 학습교재",
        "place_name": "한솔교육"
    },
    {
        "category_name": "교육,학문 > 교육단체",
        "place_name": "교육대전"
    },
    {
        "category_name": "교육,학문 > 학원 > 수학학원",
        "place_name": "빅맨교육"
    },
    {
        "category_name": "사회,공공기관 > 단체,협회",
        "place_name": "지역사회교육 사회적협동조합"
    },
    {
        "category_name": "교육,학문 > 학원 > 입시학원",
        "place_name": "와이즈만영재교육 송파센터"
    },
    {
        "category_name": "문화,예술 > 도서",
        "place_name": "(주)선경교육"
    },
    {
        "category_name": "교육,학문 > 온라인교육",
        "place_name": "한국it교육센터"
    },
    {
        "category_name": "교육,학문 > 학원 > 입시학원",
        "place_name": "다원교육 고등대치본관"
    },
    {
        "category_name": "교육,학문 > 학원",
        "place_name": "BR뇌교육 송파지점"
    },
    {
        "category_name": "교육,학문 > 문화센터",
        "place_name": "송파쌤미래교육센터 10관"
    },
    {
        "category_name": "교육,학문 > 학원 > 보습학원",
        "place_name": "다원교육 초중등관"
    },
    {
        "category_name": "문화,예술 > 도서 > 출판사",
        "place_name": "타보름교육"
    },
    {
        "category_name": "교육,학문 > 직업전문교육",
        "place_name": "송파미래교육센터 제8관"
    },
    {
        "category_name": "서비스,산업 > 인쇄,복사",
        "place_name": "제일교육"
    },
    {
        "category_name": "교육,학문 > 학원 > 입시학원",
        "place_name": "강안교육"
    },
    {
        "category_name": "교육,학문 > 학습교재",
        "place_name": "한솔교육"
    },
    {
        "category_name": "교육,학문 > 교육단체",
        "place_name": "교육대전"
    },
    {
        "category_name": "교육,학문 > 학원 > 수학학원",
        "place_name": "빅맨교육"
    },
    {
        "category_name": "사회,공공기관 > 단체,협회",
        "place_name": "지역사회교육 사회적협동조합"
    },
    {
        "category_name": "교육,학문 > 학원 > 입시학원",
        "place_name": "와이즈만영재교육 송파센터"
    },
    {
        "category_name": "문화,예술 > 도서",
        "place_name": "(주)선경교육"
    },
    {
        "category_name": "교육,학문 > 온라인교육",
        "place_name": "한국it교육센터"
    },
    {
        "category_name": "교육,학문 > 학원 > 입시학원",
        "place_name": "다원교육 고등대치본관"
    },
    {
        "category_name": "교육,학문 > 학원",
        "place_name": "BR뇌교육 송파지점"
    },
    {
        "category_name": "교육,학문 > 문화센터",
        "place_name": "송파쌤미래교육센터 10관"
    },
    {
        "category_name": "교육,학문 > 학원 > 보습학원",
        "place_name": "다원교육 초중등관"
    },
    {
        "category_name": "문화,예술 > 도서 > 출판사",
        "place_name": "타보름교육"
    },
    {
        "category_name": "교육,학문 > 직업전문교육",
        "place_name": "송파미래교육센터 제8관"
    },
    {
        "category_name": "서비스,산업 > 인쇄,복사",
        "place_name": "제일교육"
    },
    {
        "category_name": "교육,학문 > 학원 > 입시학원",
        "place_name": "강안교육"
    },
    {
        "category_name": "교육,학문 > 학습교재",
        "place_name": "한솔교육"
    },
    {
        "category_name": "교육,학문 > 교육단체",
        "place_name": "교육대전"
    },
    {
        "category_name": "교육,학문 > 학원 > 수학학원",
        "place_name": "빅맨교육"
    },
    {
        "category_name": "사회,공공기관 > 단체,협회",
        "place_name": "지역사회교육 사회적협동조합"
    },
    {
        "category_name": "교육,학문 > 학원 > 입시학원",
        "place_name": "와이즈만영재교육 송파센터"
    },
    {
        "category_name": "문화,예술 > 도서",
        "place_name": "(주)선경교육"
    },
    {
        "category_name": "교육,학문 > 온라인교육",
        "place_name": "한국it교육센터"
    },
    {
        "category_name": "교육,학문 > 학원 > 입시학원",
        "place_name": "다원교육 고등대치본관"
    },
    {
        "category_name": "교육,학문 > 학원",
        "place_name": "BR뇌교육 송파지점"
    },
    {
        "category_name": "교육,학문 > 문화센터",
        "place_name": "송파쌤미래교육센터 10관"
    },
    {
        "category_name": "교육,학문 > 학원 > 보습학원",
        "place_name": "다원교육 초중등관"
    },
    {
        "category_name": "문화,예술 > 도서 > 출판사",
        "place_name": "타보름교육"
    },
    {
        "category_name": "교육,학문 > 직업전문교육",
        "place_name": "송파미래교육센터 제8관"
    },
    {
        "category_name": "서비스,산업 > 인쇄,복사",
        "place_name": "제일교육"
    },
    {
        "category_name": "교육,학문 > 학원 > 입시학원",
        "place_name": "강안교육"
    },
    {
        "category_name": "교육,학문 > 학습교재",
        "place_name": "한솔교육"
    },
    {
        "category_name": "교육,학문 > 교육단체",
        "place_name": "교육대전"
    },
    {
        "category_name": "교육,학문 > 학원 > 수학학원",
        "place_name": "빅맨교육"
    },
    {
        "category_name": "사회,공공기관 > 단체,협회",
        "place_name": "지역사회교육 사회적협동조합"
    },
    {
        "category_name": "교육,학문 > 학원 > 입시학원",
        "place_name": "와이즈만영재교육 송파센터"
    },
    {
        "category_name": "문화,예술 > 도서",
        "place_name": "(주)선경교육"
    },
    {
        "category_name": "교육,학문 > 온라인교육",
        "place_name": "한국it교육센터"
    },
    {
        "category_name": "교육,학문 > 학원 > 입시학원",
        "place_name": "다원교육 고등대치본관"
    },
    {
        "category_name": "교육,학문 > 학원",
        "place_name": "BR뇌교육 송파지점"
    },
    {
        "category_name": "교육,학문 > 문화센터",
        "place_name": "송파쌤미래교육센터 10관"
    },
    {
        "category_name": "교육,학문 > 학원 > 보습학원",
        "place_name": "다원교육 초중등관"
    },
    {
        "category_name": "문화,예술 > 도서 > 출판사",
        "place_name": "타보름교육"
    },
    {
        "category_name": "교육,학문 > 직업전문교육",
        "place_name": "송파미래교육센터 제8관"
    },
    {
        "category_name": "서비스,산업 > 인쇄,복사",
        "place_name": "제일교육"
    },
    {
        "category_name": "교육,학문 > 학원 > 입시학원",
        "place_name": "강안교육"
    },
    {
        "category_name": "교육,학문 > 학습교재",
        "place_name": "한솔교육"
    },
    {
        "category_name": "교육,학문 > 교육단체",
        "place_name": "교육대전"
    },
    {
        "category_name": "교육,학문 > 학원 > 수학학원",
        "place_name": "빅맨교육"
    },
    {
        "category_name": "사회,공공기관 > 단체,협회",
        "place_name": "지역사회교육 사회적협동조합"
    },
    {
        "category_name": "교육,학문 > 학원 > 입시학원",
        "place_name": "와이즈만영재교육 송파센터"
    },
    {
        "category_name": "문화,예술 > 도서",
        "place_name": "(주)선경교육"
    },
    {
        "category_name": "교육,학문 > 온라인교육",
        "place_name": "한국it교육센터"
    },
    {
        "category_name": "교육,학문 > 학원 > 입시학원",
        "place_name": "다원교육 고등대치본관"
    },
    {
        "category_name": "교육,학문 > 학원",
        "place_name": "BR뇌교육 송파지점"
    },
    {
        "category_name": "교육,학문 > 문화센터",
        "place_name": "송파쌤미래교육센터 10관"
    },
    {
        "category_name": "교육,학문 > 학원 > 보습학원",
        "place_name": "다원교육 초중등관"
    },
    {
        "category_name": "문화,예술 > 도서 > 출판사",
        "place_name": "타보름교육"
    },
    {
        "category_name": "교육,학문 > 직업전문교육",
        "place_name": "송파미래교육센터 제8관"
    },
    {
        "category_name": "서비스,산업 > 인쇄,복사",
        "place_name": "제일교육"
    },
    {
        "category_name": "교육,학문 > 학원 > 입시학원",
        "place_name": "강안교육"
    },
    {
        "category_name": "교육,학문 > 학습교재",
        "place_name": "한솔교육"
    },
    {
        "category_name": "교육,학문 > 교육단체",
        "place_name": "교육대전"
    },
    {
        "category_name": "교육,학문 > 학원 > 수학학원",
        "place_name": "빅맨교육"
    },
    {
        "category_name": "사회,공공기관 > 단체,협회",
        "place_name": "지역사회교육 사회적협동조합"
    },
    {
        "category_name": "교육,학문 > 학원 > 입시학원",
        "place_name": "와이즈만영재교육 송파센터"
    },
    {
        "category_name": "문화,예술 > 도서",
        "place_name": "(주)선경교육"
    },
    {
        "category_name": "교육,학문 > 온라인교육",
        "place_name": "한국it교육센터"
    },
    {
        "category_name": "교육,학문 > 학원 > 입시학원",
        "place_name": "다원교육 고등대치본관"
    },
    {
        "category_name": "교육,학문 > 학원",
        "place_name": "BR뇌교육 송파지점"
    },
    {
        "category_name": "교육,학문 > 문화센터",
        "place_name": "송파쌤미래교육센터 10관"
    },
    {
        "category_name": "교육,학문 > 학원 > 보습학원",
        "place_name": "다원교육 초중등관"
    },
    {
        "category_name": "문화,예술 > 도서 > 출판사",
        "place_name": "타보름교육"
    },
    {
        "category_name": "교육,학문 > 직업전문교육",
        "place_name": "송파미래교육센터 제8관"
    },
    {
        "category_name": "서비스,산업 > 인쇄,복사",
        "place_name": "제일교육"
    },
    {
        "category_name": "교육,학문 > 학원 > 입시학원",
        "place_name": "강안교육"
    },
    {
        "category_name": "교육,학문 > 학습교재",
        "place_name": "한솔교육"
    },
    {
        "category_name": "교육,학문 > 교육단체",
        "place_name": "교육대전"
    },
    {
        "category_name": "교육,학문 > 학원 > 수학학원",
        "place_name": "빅맨교육"
    },
    {
        "category_name": "사회,공공기관 > 단체,협회",
        "place_name": "지역사회교육 사회적협동조합"
    },
    {
        "category_name": "교육,학문 > 학원 > 입시학원",
        "place_name": "와이즈만영재교육 송파센터"
    },
    {
        "category_name": "문화,예술 > 도서",
        "place_name": "(주)선경교육"
    },
    {
        "category_name": "교육,학문 > 온라인교육",
        "place_name": "한국it교육센터"
    },
    {
        "category_name": "교육,학문 > 학원 > 입시학원",
        "place_name": "다원교육 고등대치본관"
    },
    {
        "category_name": "교육,학문 > 학원",
        "place_name": "BR뇌교육 송파지점"
    },
    {
        "category_name": "교육,학문 > 문화센터",
        "place_name": "송파쌤미래교육센터 10관"
    },
    {
        "category_name": "교육,학문 > 학원 > 보습학원",
        "place_name": "다원교육 초중등관"
    },
    {
        "category_name": "문화,예술 > 도서 > 출판사",
        "place_name": "타보름교육"
    },
    {
        "category_name": "교육,학문 > 직업전문교육",
        "place_name": "송파미래교육센터 제8관"
    },
    {
        "category_name": "서비스,산업 > 인쇄,복사",
        "place_name": "제일교육"
    },
    {
        "category_name": "교육,학문 > 학원 > 입시학원",
        "place_name": "강안교육"
    },
    {
        "category_name": "교육,학문 > 학습교재",
        "place_name": "한솔교육"
    },
    {
        "category_name": "교육,학문 > 교육단체",
        "place_name": "교육대전"
    },
    {
        "category_name": "교육,학문 > 학원 > 수학학원",
        "place_name": "빅맨교육"
    },
    {
        "category_name": "사회,공공기관 > 단체,협회",
        "place_name": "지역사회교육 사회적협동조합"
    },
    {
        "category_name": "교육,학문 > 학원 > 입시학원",
        "place_name": "와이즈만영재교육 송파센터"
    },
    {
        "category_name": "문화,예술 > 도서",
        "place_name": "(주)선경교육"
    },
    {
        "category_name": "교육,학문 > 온라인교육",
        "place_name": "한국it교육센터"
    },
    {
        "category_name": "교육,학문 > 학원 > 입시학원",
        "place_name": "다원교육 고등대치본관"
    },
    {
        "category_name": "교육,학문 > 학원",
        "place_name": "BR뇌교육 송파지점"
    },
    {
        "category_name": "교육,학문 > 문화센터",
        "place_name": "송파쌤미래교육센터 10관"
    },
    {
        "category_name": "교육,학문 > 학원 > 보습학원",
        "place_name": "다원교육 초중등관"
    },
    {
        "category_name": "문화,예술 > 도서 > 출판사",
        "place_name": "타보름교육"
    },
    {
        "category_name": "교육,학문 > 직업전문교육",
        "place_name": "송파미래교육센터 제8관"
    },
    {
        "category_name": "서비스,산업 > 인쇄,복사",
        "place_name": "제일교육"
    },
    {
        "category_name": "교육,학문 > 학원 > 입시학원",
        "place_name": "강안교육"
    },
    {
        "category_name": "교육,학문 > 학습교재",
        "place_name": "한솔교육"
    },
    {
        "category_name": "교육,학문 > 교육단체",
        "place_name": "교육대전"
    },
    {
        "category_name": "교육,학문 > 학원 > 수학학원",
        "place_name": "빅맨교육"
    },
    {
        "category_name": "사회,공공기관 > 단체,협회",
        "place_name": "지역사회교육 사회적협동조합"
    },
    {
        "category_name": "교육,학문 > 학원 > 입시학원",
        "place_name": "와이즈만영재교육 송파센터"
    },
    {
        "category_name": "문화,예술 > 도서",
        "place_name": "(주)선경교육"
    },
    {
        "category_name": "교육,학문 > 온라인교육",
        "place_name": "한국it교육센터"
    },
    {
        "category_name": "교육,학문 > 학원 > 입시학원",
        "place_name": "다원교육 고등대치본관"
    },
    {
        "category_name": "교육,학문 > 학원",
        "place_name": "BR뇌교육 송파지점"
    },
    {
        "category_name": "교육,학문 > 문화센터",
        "place_name": "송파쌤미래교육센터 10관"
    },
    {
        "category_name": "교육,학문 > 학원 > 보습학원",
        "place_name": "다원교육 초중등관"
    },
    {
        "category_name": "문화,예술 > 도서 > 출판사",
        "place_name": "타보름교육"
    },
    {
        "category_name": "교육,학문 > 직업전문교육",
        "place_name": "송파미래교육센터 제8관"
    },
    {
        "category_name": "서비스,산업 > 인쇄,복사",
        "place_name": "제일교육"
    },
    {
        "category_name": "교육,학문 > 학원 > 입시학원",
        "place_name": "강안교육"
    },
    {
        "category_name": "교육,학문 > 학습교재",
        "place_name": "한솔교육"
    },
    {
        "category_name": "교육,학문 > 교육단체",
        "place_name": "교육대전"
    },
    {
        "category_name": "교육,학문 > 학원 > 수학학원",
        "place_name": "빅맨교육"
    },
    {
        "category_name": "사회,공공기관 > 단체,협회",
        "place_name": "지역사회교육 사회적협동조합"
    },
    {
        "category_name": "교육,학문 > 학원 > 입시학원",
        "place_name": "와이즈만영재교육 송파센터"
    },
    {
        "category_name": "문화,예술 > 도서",
        "place_name": "(주)선경교육"
    },
    {
        "category_name": "교육,학문 > 온라인교육",
        "place_name": "한국it교육센터"
    },
    {
        "category_name": "교육,학문 > 학원 > 입시학원",
        "place_name": "다원교육 고등대치본관"
    },
    {
        "category_name": "교육,학문 > 학원",
        "place_name": "BR뇌교육 송파지점"
    },
    {
        "category_name": "교육,학문 > 문화센터",
        "place_name": "송파쌤미래교육센터 10관"
    },
    {
        "category_name": "교육,학문 > 학원 > 보습학원",
        "place_name": "다원교육 초중등관"
    },
    {
        "category_name": "문화,예술 > 도서 > 출판사",
        "place_name": "타보름교육"
    },
    {
        "category_name": "교육,학문 > 직업전문교육",
        "place_name": "송파미래교육센터 제8관"
    },
    {
        "category_name": "서비스,산업 > 인쇄,복사",
        "place_name": "제일교육"
    },
    {
        "category_name": "교육,학문 > 학원 > 입시학원",
        "place_name": "강안교육"
    },
    {
        "category_name": "교육,학문 > 학습교재",
        "place_name": "한솔교육"
    },
    {
        "category_name": "교육,학문 > 교육단체",
        "place_name": "교육대전"
    },
    {
        "category_name": "교육,학문 > 학원 > 수학학원",
        "place_name": "빅맨교육"
    },
    {
        "category_name": "사회,공공기관 > 단체,협회",
        "place_name": "지역사회교육 사회적협동조합"
    },
    {
        "category_name": "교육,학문 > 학원 > 입시학원",
        "place_name": "와이즈만영재교육 송파센터"
    },
    {
        "category_name": "문화,예술 > 도서",
        "place_name": "(주)선경교육"
    },
    {
        "category_name": "교육,학문 > 온라인교육",
        "place_name": "한국it교육센터"
    },
    {
        "category_name": "교육,학문 > 학원 > 입시학원",
        "place_name": "다원교육 고등대치본관"
    },
    {
        "category_name": "교육,학문 > 학원",
        "place_name": "BR뇌교육 송파지점"
    },
    {
        "category_name": "교육,학문 > 문화센터",
        "place_name": "송파쌤미래교육센터 10관"
    },
    {
        "category_name": "교육,학문 > 학원 > 보습학원",
        "place_name": "다원교육 초중등관"
    },
    {
        "category_name": "문화,예술 > 도서 > 출판사",
        "place_name": "타보름교육"
    },
    {
        "category_name": "교육,학문 > 학원 > 편입학원 > 김영편입학원",
        "place_name": "김영편입학원 잠실캠퍼스"
    },
    {
        "category_name": "교육,학문 > 학원 > 음악학원 > 실용음악학원",
        "place_name": "아베크뮤직아카데미 잠실본원"
    },
    {
        "category_name": "교육,학문 > 학원 > 입시학원",
        "place_name": "잠실파인만학원 초중등관"
    },
    {
        "category_name": "교육,학문 > 학원 > 입시학원",
        "place_name": "KSA한국체대입시학원 송파본점"
    },
    {
        "category_name": "교육,학문 > 학원 > 요리학원",
        "place_name": "ABC쿠킹스튜디오"
    },
    {
        "category_name": "교육,학문 > 학원 > 어학원",
        "place_name": "로티스어학원"
    },
    {
        "category_name": "교육,학문 > 학원",
        "place_name": "플랜비식음료학원"
    },
    {
        "category_name": "교육,학문 > 학원",
        "place_name": "생각하는황소 송파점"
    },
    {
        "category_name": "교육,학문 > 학원 > 어학원",
        "place_name": "에이프릴어학원 송파잠실 캠퍼스"
    },
    {
        "category_name": "교육,학문 > 학원 > 어학원 > 영어학원",
        "place_name": "코너스톤 잠실아카데미학원"
    },
    {
        "category_name": "교육,학문 > 학원 > 어학원 > 영어학원",
        "place_name": "세움영어"
    },
    {
        "category_name": "교육,학문 > 학원",
        "place_name": "에듀플렉스 잠실점"
    },
    {
        "category_name": "교육,학문 > 학원 > 실내운전연습장",
        "place_name": "드라이빙존운전면허 잠실학원사거리점"
    },
    {
        "category_name": "교육,학문 > 학원 > 어학원 > 영어학원",
        "place_name": "진심영어보습학원"
    },
    {
        "category_name": "교육,학문 > 학원 > 어학원 > 영어학원",
        "place_name": "리딩스타 잠실캠퍼스"
    },
    {
        "category_name": "교육,학문 > 학원 > 수학학원",
        "place_name": "시매쓰 송파잠실점"
    },
    {
        "category_name": "교육,학문 > 학원 > 어학원 > 일본어학원",
        "place_name": "지엘에이 일본어학원"
    },
    {
        "category_name": "교육,학문 > 학원 > 수학학원",
        "place_name": "그래비티수학학원"
    },
    {
        "category_name": "교육,학문 > 학원 > 입시학원",
        "place_name": "로고스학원"
    },
    {
        "category_name": "교육,학문 > 학원 > 입시학원",
        "place_name": "맥스체대입시 송파교육원"
    },
    {
        "category_name": "교육,학문 > 학원",
        "place_name": "샘이깊은국어학원"
    },
    {
        "category_name": "교육,학문 > 학원 > 음악학원 > 피아노학원",
        "place_name": "이화피아노학원"
    },
    {
        "category_name": "교육,학문 > 학원 > 어학원",
        "place_name": "잠실크라센어학원"
    },
    {
        "category_name": "교육,학문 > 학원 > 음악학원 > 실용음악학원",
        "place_name": "비앤비실용음악학원"
    },
    {
        "category_name": "교육,학문 > 학원 > 애견미용학원",
        "place_name": "쿨펫애견미용전문학원 잠실점"
    },
    {
        "category_name": "교육,학문 > 학원 > 어학원 > 영어학원",
        "place_name": "리틀팍스어학원 서울잠실센터"
    },
    {
        "category_name": "교육,학문 > 학원 > 어학원 > 영어학원",
        "place_name": "JLS정상어학원 잠실분원"
    },
    {
        "category_name": "교육,학문 > 학원 > 수학학원",
        "place_name": "개념폴리아 잠실관"
    },
    {
        "category_name": "교육,학문 > 학원 > 어학원 > 영어학원",
        "place_name": "진심영어학원"
    },
    {
        "category_name": "교육,학문 > 학원 > 논술학원",
        "place_name": "이지논술학원"
    },
    {
        "category_name": "교육,학문 > 학원 > 패션디자인학원",
        "place_name": "에스킴니트디자인"
    },
    {
        "category_name": "교육,학문 > 학원 > 어학원",
        "place_name": "송파이지어학원"
    },
    {
        "category_name": "교육,학문 > 학원",
        "place_name": "와이즈만영재교육 잠실보습학원"
    },
    {
        "category_name": "교육,학문 > 학원 > 수학학원",
        "place_name": "대치해법수학교실 잠실관"
    },
    {
        "category_name": "교육,학문 > 학원 > 어학원 > 영어학원",
        "place_name": "제이엠어학원"
    },
    {
        "category_name": "교육,학문 > 학원 > 간호학원",
        "place_name": "이화간호학원"
    },
    {
        "category_name": "교육,학문 > 학원 > 입시학원",
        "place_name": "이투스247학원 송파점"
    },
    {
        "category_name": "교육,학문 > 학원 > 미술학원",
        "place_name": "아트파이브 잠실"
    },
    {
        "category_name": "교육,학문 > 학원",
        "place_name": "디엠패션학원"
    },
    {
        "category_name": "교육,학문 > 학원 > 컴퓨터학원",
        "place_name": "디랩코딩 잠실캠퍼스"
    },
    {
        "category_name": "교육,학문 > 학원 > 간호학원",
        "place_name": "성모간호학원"
    },
    {
        "category_name": "교육,학문 > 학원 > 어학원 > 영어학원",
        "place_name": "가이디잉글리시"
    },
    {
        "category_name": "교육,학문 > 학원 > 어학원 > 영어학원",
        "place_name": "DL영어학원"
    },
    {
        "category_name": "교육,학문 > 학원",
        "place_name": "와이키즈 잠실놀이학원"
    },
    {
        "category_name": "교육,학문 > 학원",
        "place_name": "바디힐필라테스"
    },
    {
        "category_name": "교육,학문 > 학원 > 패션디자인학원",
        "place_name": "에스킴니트디자인"
    },
    {
        "category_name": "교육,학문 > 학원 > 어학원",
        "place_name": "송파이지어학원"
    },
    {
        "category_name": "교육,학문 > 학원",
        "place_name": "와이즈만영재교육 잠실보습학원"
    },
    {
        "category_name": "교육,학문 > 학원 > 수학학원",
        "place_name": "대치해법수학교실 잠실관"
    },
    {
        "category_name": "교육,학문 > 학원 > 어학원 > 영어학원",
        "place_name": "제이엠어학원"
    },
    {
        "category_name": "교육,학문 > 학원 > 간호학원",
        "place_name": "이화간호학원"
    },
    {
        "category_name": "교육,학문 > 학원 > 입시학원",
        "place_name": "이투스247학원 송파점"
    },
    {
        "category_name": "교육,학문 > 학원 > 미술학원",
        "place_name": "아트파이브 잠실"
    },
    {
        "category_name": "교육,학문 > 학원",
        "place_name": "디엠패션학원"
    },
    {
        "category_name": "교육,학문 > 학원 > 컴퓨터학원",
        "place_name": "디랩코딩 잠실캠퍼스"
    },
    {
        "category_name": "교육,학문 > 학원 > 간호학원",
        "place_name": "성모간호학원"
    },
    {
        "category_name": "교육,학문 > 학원 > 어학원 > 영어학원",
        "place_name": "가이디잉글리시"
    },
    {
        "category_name": "교육,학문 > 학원 > 어학원 > 영어학원",
        "place_name": "DL영어학원"
    },
    {
        "category_name": "교육,학문 > 학원",
        "place_name": "와이키즈 잠실놀이학원"
    },
    {
        "category_name": "교육,학문 > 학원",
        "place_name": "바디힐필라테스"
    },
    {
        "category_name": "교육,학문 > 학원 > 패션디자인학원",
        "place_name": "에스킴니트디자인"
    },
    {
        "category_name": "교육,학문 > 학원 > 어학원",
        "place_name": "송파이지어학원"
    },
    {
        "category_name": "교육,학문 > 학원",
        "place_name": "와이즈만영재교육 잠실보습학원"
    },
    {
        "category_name": "교육,학문 > 학원 > 수학학원",
        "place_name": "대치해법수학교실 잠실관"
    },
    {
        "category_name": "교육,학문 > 학원 > 어학원 > 영어학원",
        "place_name": "제이엠어학원"
    },
    {
        "category_name": "교육,학문 > 학원 > 간호학원",
        "place_name": "이화간호학원"
    },
    {
        "category_name": "교육,학문 > 학원 > 입시학원",
        "place_name": "이투스247학원 송파점"
    },
    {
        "category_name": "교육,학문 > 학원 > 미술학원",
        "place_name": "아트파이브 잠실"
    },
    {
        "category_name": "교육,학문 > 학원",
        "place_name": "디엠패션학원"
    },
    {
        "category_name": "교육,학문 > 학원 > 컴퓨터학원",
        "place_name": "디랩코딩 잠실캠퍼스"
    },
    {
        "category_name": "교육,학문 > 학원 > 간호학원",
        "place_name": "성모간호학원"
    },
    {
        "category_name": "교육,학문 > 학원 > 어학원 > 영어학원",
        "place_name": "가이디잉글리시"
    },
    {
        "category_name": "교육,학문 > 학원 > 어학원 > 영어학원",
        "place_name": "DL영어학원"
    },
    {
        "category_name": "교육,학문 > 학원",
        "place_name": "와이키즈 잠실놀이학원"
    },
    {
        "category_name": "교육,학문 > 학원",
        "place_name": "바디힐필라테스"
    },
    {
        "category_name": "교육,학문 > 학원 > 패션디자인학원",
        "place_name": "에스킴니트디자인"
    },
    {
        "category_name": "교육,학문 > 학원 > 어학원",
        "place_name": "송파이지어학원"
    },
    {
        "category_name": "교육,학문 > 학원",
        "place_name": "와이즈만영재교육 잠실보습학원"
    },
    {
        "category_name": "교육,학문 > 학원 > 수학학원",
        "place_name": "대치해법수학교실 잠실관"
    },
    {
        "category_name": "교육,학문 > 학원 > 어학원 > 영어학원",
        "place_name": "제이엠어학원"
    },
    {
        "category_name": "교육,학문 > 학원 > 간호학원",
        "place_name": "이화간호학원"
    },
    {
        "category_name": "교육,학문 > 학원 > 입시학원",
        "place_name": "이투스247학원 송파점"
    },
    {
        "category_name": "교육,학문 > 학원 > 미술학원",
        "place_name": "아트파이브 잠실"
    },
    {
        "category_name": "교육,학문 > 학원",
        "place_name": "디엠패션학원"
    },
    {
        "category_name": "교육,학문 > 학원 > 컴퓨터학원",
        "place_name": "디랩코딩 잠실캠퍼스"
    },
    {
        "category_name": "교육,학문 > 학원 > 간호학원",
        "place_name": "성모간호학원"
    },
    {
        "category_name": "교육,학문 > 학원 > 어학원 > 영어학원",
        "place_name": "가이디잉글리시"
    },
    {
        "category_name": "교육,학문 > 학원 > 어학원 > 영어학원",
        "place_name": "DL영어학원"
    },
    {
        "category_name": "교육,학문 > 학원",
        "place_name": "와이키즈 잠실놀이학원"
    },
    {
        "category_name": "교육,학문 > 학원",
        "place_name": "바디힐필라테스"
    },
    {
        "category_name": "교육,학문 > 학원 > 패션디자인학원",
        "place_name": "에스킴니트디자인"
    },
    {
        "category_name": "교육,학문 > 학원 > 어학원",
        "place_name": "송파이지어학원"
    },
    {
        "category_name": "교육,학문 > 학원",
        "place_name": "와이즈만영재교육 잠실보습학원"
    },
    {
        "category_name": "교육,학문 > 학원 > 수학학원",
        "place_name": "대치해법수학교실 잠실관"
    },
    {
        "category_name": "교육,학문 > 학원 > 어학원 > 영어학원",
        "place_name": "제이엠어학원"
    },
    {
        "category_name": "교육,학문 > 학원 > 간호학원",
        "place_name": "이화간호학원"
    },
    {
        "category_name": "교육,학문 > 학원 > 입시학원",
        "place_name": "이투스247학원 송파점"
    },
    {
        "category_name": "교육,학문 > 학원 > 미술학원",
        "place_name": "아트파이브 잠실"
    },
    {
        "category_name": "교육,학문 > 학원",
        "place_name": "디엠패션학원"
    },
    {
        "category_name": "교육,학문 > 학원 > 컴퓨터학원",
        "place_name": "디랩코딩 잠실캠퍼스"
    },
    {
        "category_name": "교육,학문 > 학원 > 간호학원",
        "place_name": "성모간호학원"
    },
    {
        "category_name": "교육,학문 > 학원 > 어학원 > 영어학원",
        "place_name": "가이디잉글리시"
    },
    {
        "category_name": "교육,학문 > 학원 > 어학원 > 영어학원",
        "place_name": "DL영어학원"
    },
    {
        "category_name": "교육,학문 > 학원",
        "place_name": "와이키즈 잠실놀이학원"
    },
    {
        "category_name": "교육,학문 > 학원",
        "place_name": "바디힐필라테스"
    },
    {
        "category_name": "교육,학문 > 학원 > 패션디자인학원",
        "place_name": "에스킴니트디자인"
    },
    {
        "category_name": "교육,학문 > 학원 > 어학원",
        "place_name": "송파이지어학원"
    },
    {
        "category_name": "교육,학문 > 학원",
        "place_name": "와이즈만영재교육 잠실보습학원"
    },
    {
        "category_name": "교육,학문 > 학원 > 수학학원",
        "place_name": "대치해법수학교실 잠실관"
    },
    {
        "category_name": "교육,학문 > 학원 > 어학원 > 영어학원",
        "place_name": "제이엠어학원"
    },
    {
        "category_name": "교육,학문 > 학원 > 간호학원",
        "place_name": "이화간호학원"
    },
    {
        "category_name": "교육,학문 > 학원 > 입시학원",
        "place_name": "이투스247학원 송파점"
    },
    {
        "category_name": "교육,학문 > 학원 > 미술학원",
        "place_name": "아트파이브 잠실"
    },
    {
        "category_name": "교육,학문 > 학원",
        "place_name": "디엠패션학원"
    },
    {
        "category_name": "교육,학문 > 학원 > 컴퓨터학원",
        "place_name": "디랩코딩 잠실캠퍼스"
    },
    {
        "category_name": "교육,학문 > 학원 > 간호학원",
        "place_name": "성모간호학원"
    },
    {
        "category_name": "교육,학문 > 학원 > 어학원 > 영어학원",
        "place_name": "가이디잉글리시"
    },
    {
        "category_name": "교육,학문 > 학원 > 어학원 > 영어학원",
        "place_name": "DL영어학원"
    },
    {
        "category_name": "교육,학문 > 학원",
        "place_name": "와이키즈 잠실놀이학원"
    },
    {
        "category_name": "교육,학문 > 학원",
        "place_name": "바디힐필라테스"
    },
    {
        "category_name": "교육,학문 > 학원 > 패션디자인학원",
        "place_name": "에스킴니트디자인"
    },
    {
        "category_name": "교육,학문 > 학원 > 어학원",
        "place_name": "송파이지어학원"
    },
    {
        "category_name": "교육,학문 > 학원",
        "place_name": "와이즈만영재교육 잠실보습학원"
    },
    {
        "category_name": "교육,학문 > 학원 > 수학학원",
        "place_name": "대치해법수학교실 잠실관"
    },
    {
        "category_name": "교육,학문 > 학원 > 어학원 > 영어학원",
        "place_name": "제이엠어학원"
    },
    {
        "category_name": "교육,학문 > 학원 > 간호학원",
        "place_name": "이화간호학원"
    },
    {
        "category_name": "교육,학문 > 학원 > 입시학원",
        "place_name": "이투스247학원 송파점"
    },
    {
        "category_name": "교육,학문 > 학원 > 미술학원",
        "place_name": "아트파이브 잠실"
    },
    {
        "category_name": "교육,학문 > 학원",
        "place_name": "디엠패션학원"
    },
    {
        "category_name": "교육,학문 > 학원 > 컴퓨터학원",
        "place_name": "디랩코딩 잠실캠퍼스"
    },
    {
        "category_name": "교육,학문 > 학원 > 간호학원",
        "place_name": "성모간호학원"
    },
    {
        "category_name": "교육,학문 > 학원 > 어학원 > 영어학원",
        "place_name": "가이디잉글리시"
    },
    {
        "category_name": "교육,학문 > 학원 > 어학원 > 영어학원",
        "place_name": "DL영어학원"
    },
    {
        "category_name": "교육,학문 > 학원",
        "place_name": "와이키즈 잠실놀이학원"
    },
    {
        "category_name": "교육,학문 > 학원",
        "place_name": "바디힐필라테스"
    },
    {
        "category_name": "교육,학문 > 학원 > 패션디자인학원",
        "place_name": "에스킴니트디자인"
    },
    {
        "category_name": "교육,학문 > 학원 > 어학원",
        "place_name": "송파이지어학원"
    },
    {
        "category_name": "교육,학문 > 학원",
        "place_name": "와이즈만영재교육 잠실보습학원"
    },
    {
        "category_name": "교육,학문 > 학원 > 수학학원",
        "place_name": "대치해법수학교실 잠실관"
    },
    {
        "category_name": "교육,학문 > 학원 > 어학원 > 영어학원",
        "place_name": "제이엠어학원"
    },
    {
        "category_name": "교육,학문 > 학원 > 간호학원",
        "place_name": "이화간호학원"
    },
    {
        "category_name": "교육,학문 > 학원 > 입시학원",
        "place_name": "이투스247학원 송파점"
    },
    {
        "category_name": "교육,학문 > 학원 > 미술학원",
        "place_name": "아트파이브 잠실"
    },
    {
        "category_name": "교육,학문 > 학원",
        "place_name": "디엠패션학원"
    },
    {
        "category_name": "교육,학문 > 학원 > 컴퓨터학원",
        "place_name": "디랩코딩 잠실캠퍼스"
    },
    {
        "category_name": "교육,학문 > 학원 > 간호학원",
        "place_name": "성모간호학원"
    },
    {
        "category_name": "교육,학문 > 학원 > 어학원 > 영어학원",
        "place_name": "가이디잉글리시"
    },
    {
        "category_name": "교육,학문 > 학원 > 어학원 > 영어학원",
        "place_name": "DL영어학원"
    },
    {
        "category_name": "교육,학문 > 학원",
        "place_name": "와이키즈 잠실놀이학원"
    },
    {
        "category_name": "교육,학문 > 학원",
        "place_name": "바디힐필라테스"
    },
    {
        "category_name": "교육,학문 > 학원 > 패션디자인학원",
        "place_name": "에스킴니트디자인"
    },
    {
        "category_name": "교육,학문 > 학원 > 어학원",
        "place_name": "송파이지어학원"
    },
    {
        "category_name": "교육,학문 > 학원",
        "place_name": "와이즈만영재교육 잠실보습학원"
    },
    {
        "category_name": "교육,학문 > 학원 > 수학학원",
        "place_name": "대치해법수학교실 잠실관"
    },
    {
        "category_name": "교육,학문 > 학원 > 어학원 > 영어학원",
        "place_name": "제이엠어학원"
    },
    {
        "category_name": "교육,학문 > 학원 > 간호학원",
        "place_name": "이화간호학원"
    },
    {
        "category_name": "교육,학문 > 학원 > 입시학원",
        "place_name": "이투스247학원 송파점"
    },
    {
        "category_name": "교육,학문 > 학원 > 미술학원",
        "place_name": "아트파이브 잠실"
    },
    {
        "category_name": "교육,학문 > 학원",
        "place_name": "디엠패션학원"
    },
    {
        "category_name": "교육,학문 > 학원 > 컴퓨터학원",
        "place_name": "디랩코딩 잠실캠퍼스"
    },
    {
        "category_name": "교육,학문 > 학원 > 간호학원",
        "place_name": "성모간호학원"
    },
    {
        "category_name": "교육,학문 > 학원 > 어학원 > 영어학원",
        "place_name": "가이디잉글리시"
    },
    {
        "category_name": "교육,학문 > 학원 > 어학원 > 영어학원",
        "place_name": "DL영어학원"
    },
    {
        "category_name": "교육,학문 > 학원",
        "place_name": "와이키즈 잠실놀이학원"
    },
    {
        "category_name": "교육,학문 > 학원",
        "place_name": "바디힐필라테스"
    },
    {
        "category_name": "교육,학문 > 학원 > 패션디자인학원",
        "place_name": "에스킴니트디자인"
    },
    {
        "category_name": "교육,학문 > 학원 > 어학원",
        "place_name": "송파이지어학원"
    },
    {
        "category_name": "교육,학문 > 학원",
        "place_name": "와이즈만영재교육 잠실보습학원"
    },
    {
        "category_name": "교육,학문 > 학원 > 수학학원",
        "place_name": "대치해법수학교실 잠실관"
    },
    {
        "category_name": "교육,학문 > 학원 > 어학원 > 영어학원",
        "place_name": "제이엠어학원"
    },
    {
        "category_name": "교육,학문 > 학원 > 간호학원",
        "place_name": "이화간호학원"
    },
    {
        "category_name": "교육,학문 > 학원 > 입시학원",
        "place_name": "이투스247학원 송파점"
    },
    {
        "category_name": "교육,학문 > 학원 > 미술학원",
        "place_name": "아트파이브 잠실"
    },
    {
        "category_name": "교육,학문 > 학원",
        "place_name": "디엠패션학원"
    },
    {
        "category_name": "교육,학문 > 학원 > 컴퓨터학원",
        "place_name": "디랩코딩 잠실캠퍼스"
    },
    {
        "category_name": "교육,학문 > 학원 > 간호학원",
        "place_name": "성모간호학원"
    },
    {
        "category_name": "교육,학문 > 학원 > 어학원 > 영어학원",
        "place_name": "가이디잉글리시"
    },
    {
        "category_name": "교육,학문 > 학원 > 어학원 > 영어학원",
        "place_name": "DL영어학원"
    },
    {
        "category_name": "교육,학문 > 학원",
        "place_name": "와이키즈 잠실놀이학원"
    },
    {
        "category_name": "교육,학문 > 학원",
        "place_name": "바디힐필라테스"
    },
    {
        "category_name": "교육,학문 > 학원 > 패션디자인학원",
        "place_name": "에스킴니트디자인"
    },
    {
        "category_name": "교육,학문 > 학원 > 어학원",
        "place_name": "송파이지어학원"
    },
    {
        "category_name": "교육,학문 > 학원",
        "place_name": "와이즈만영재교육 잠실보습학원"
    },
    {
        "category_name": "교육,학문 > 학원 > 수학학원",
        "place_name": "대치해법수학교실 잠실관"
    },
    {
        "category_name": "교육,학문 > 학원 > 어학원 > 영어학원",
        "place_name": "제이엠어학원"
    },
    {
        "category_name": "교육,학문 > 학원 > 간호학원",
        "place_name": "이화간호학원"
    },
    {
        "category_name": "교육,학문 > 학원 > 입시학원",
        "place_name": "이투스247학원 송파점"
    },
    {
        "category_name": "교육,학문 > 학원 > 미술학원",
        "place_name": "아트파이브 잠실"
    },
    {
        "category_name": "교육,학문 > 학원",
        "place_name": "디엠패션학원"
    },
    {
        "category_name": "교육,학문 > 학원 > 컴퓨터학원",
        "place_name": "디랩코딩 잠실캠퍼스"
    },
    {
        "category_name": "교육,학문 > 학원 > 간호학원",
        "place_name": "성모간호학원"
    },
    {
        "category_name": "교육,학문 > 학원 > 어학원 > 영어학원",
        "place_name": "가이디잉글리시"
    },
    {
        "category_name": "교육,학문 > 학원 > 어학원 > 영어학원",
        "place_name": "DL영어학원"
    },
    {
        "category_name": "교육,학문 > 학원",
        "place_name": "와이키즈 잠실놀이학원"
    },
    {
        "category_name": "교육,학문 > 학원",
        "place_name": "바디힐필라테스"
    },
    {
        "category_name": "교육,학문 > 학원 > 패션디자인학원",
        "place_name": "에스킴니트디자인"
    },
    {
        "category_name": "교육,학문 > 학원 > 어학원",
        "place_name": "송파이지어학원"
    },
    {
        "category_name": "교육,학문 > 학원",
        "place_name": "와이즈만영재교육 잠실보습학원"
    },
    {
        "category_name": "교육,학문 > 학원 > 수학학원",
        "place_name": "대치해법수학교실 잠실관"
    },
    {
        "category_name": "교육,학문 > 학원 > 어학원 > 영어학원",
        "place_name": "제이엠어학원"
    },
    {
        "category_name": "교육,학문 > 학원 > 간호학원",
        "place_name": "이화간호학원"
    },
    {
        "category_name": "교육,학문 > 학원 > 입시학원",
        "place_name": "이투스247학원 송파점"
    },
    {
        "category_name": "교육,학문 > 학원 > 미술학원",
        "place_name": "아트파이브 잠실"
    },
    {
        "category_name": "교육,학문 > 학원",
        "place_name": "디엠패션학원"
    },
    {
        "category_name": "교육,학문 > 학원 > 컴퓨터학원",
        "place_name": "디랩코딩 잠실캠퍼스"
    },
    {
        "category_name": "교육,학문 > 학원 > 간호학원",
        "place_name": "성모간호학원"
    },
    {
        "category_name": "교육,학문 > 학원 > 어학원 > 영어학원",
        "place_name": "가이디잉글리시"
    },
    {
        "category_name": "교육,학문 > 학원 > 어학원 > 영어학원",
        "place_name": "DL영어학원"
    },
    {
        "category_name": "교육,학문 > 학원",
        "place_name": "와이키즈 잠실놀이학원"
    },
    {
        "category_name": "교육,학문 > 학원",
        "place_name": "바디힐필라테스"
    },
    {
        "category_name": "교육,학문 > 학원 > 패션디자인학원",
        "place_name": "에스킴니트디자인"
    },
    {
        "category_name": "교육,학문 > 학원 > 어학원",
        "place_name": "송파이지어학원"
    },
    {
        "category_name": "교육,학문 > 학원",
        "place_name": "와이즈만영재교육 잠실보습학원"
    },
    {
        "category_name": "교육,학문 > 학원 > 수학학원",
        "place_name": "대치해법수학교실 잠실관"
    },
    {
        "category_name": "교육,학문 > 학원 > 어학원 > 영어학원",
        "place_name": "제이엠어학원"
    },
    {
        "category_name": "교육,학문 > 학원 > 간호학원",
        "place_name": "이화간호학원"
    },
    {
        "category_name": "교육,학문 > 학원 > 입시학원",
        "place_name": "이투스247학원 송파점"
    },
    {
        "category_name": "교육,학문 > 학원 > 미술학원",
        "place_name": "아트파이브 잠실"
    },
    {
        "category_name": "교육,학문 > 학원",
        "place_name": "디엠패션학원"
    },
    {
        "category_name": "교육,학문 > 학원 > 컴퓨터학원",
        "place_name": "디랩코딩 잠실캠퍼스"
    },
    {
        "category_name": "교육,학문 > 학원 > 간호학원",
        "place_name": "성모간호학원"
    },
    {
        "category_name": "교육,학문 > 학원 > 어학원 > 영어학원",
        "place_name": "가이디잉글리시"
    },
    {
        "category_name": "교육,학문 > 학원 > 어학원 > 영어학원",
        "place_name": "DL영어학원"
    },
    {
        "category_name": "교육,학문 > 학원",
        "place_name": "와이키즈 잠실놀이학원"
    },
    {
        "category_name": "교육,학문 > 학원",
        "place_name": "바디힐필라테스"
    },
    {
        "category_name": "교육,학문 > 학원 > 패션디자인학원",
        "place_name": "에스킴니트디자인"
    },
    {
        "category_name": "교육,학문 > 학원 > 어학원",
        "place_name": "송파이지어학원"
    },
    {
        "category_name": "교육,학문 > 학원",
        "place_name": "와이즈만영재교육 잠실보습학원"
    },
    {
        "category_name": "교육,학문 > 학원 > 수학학원",
        "place_name": "대치해법수학교실 잠실관"
    },
    {
        "category_name": "교육,학문 > 학원 > 어학원 > 영어학원",
        "place_name": "제이엠어학원"
    },
    {
        "category_name": "교육,학문 > 학원 > 간호학원",
        "place_name": "이화간호학원"
    },
    {
        "category_name": "교육,학문 > 학원 > 입시학원",
        "place_name": "이투스247학원 송파점"
    },
    {
        "category_name": "교육,학문 > 학원 > 미술학원",
        "place_name": "아트파이브 잠실"
    },
    {
        "category_name": "교육,학문 > 학원",
        "place_name": "디엠패션학원"
    },
    {
        "category_name": "교육,학문 > 학원 > 컴퓨터학원",
        "place_name": "디랩코딩 잠실캠퍼스"
    },
    {
        "category_name": "교육,학문 > 학원 > 간호학원",
        "place_name": "성모간호학원"
    },
    {
        "category_name": "교육,학문 > 학원 > 어학원 > 영어학원",
        "place_name": "가이디잉글리시"
    },
    {
        "category_name": "교육,학문 > 학원 > 어학원 > 영어학원",
        "place_name": "DL영어학원"
    },
    {
        "category_name": "교육,학문 > 학원",
        "place_name": "와이키즈 잠실놀이학원"
    },
    {
        "category_name": "교육,학문 > 학원",
        "place_name": "바디힐필라테스"
    },
    {
        "category_name": "교육,학문 > 학원 > 패션디자인학원",
        "place_name": "에스킴니트디자인"
    },
    {
        "category_name": "교육,학문 > 학원 > 어학원",
        "place_name": "송파이지어학원"
    },
    {
        "category_name": "교육,학문 > 학원",
        "place_name": "와이즈만영재교육 잠실보습학원"
    },
    {
        "category_name": "교육,학문 > 학원 > 수학학원",
        "place_name": "대치해법수학교실 잠실관"
    },
    {
        "category_name": "교육,학문 > 학원 > 어학원 > 영어학원",
        "place_name": "제이엠어학원"
    },
    {
        "category_name": "교육,학문 > 학원 > 간호학원",
        "place_name": "이화간호학원"
    },
    {
        "category_name": "교육,학문 > 학원 > 입시학원",
        "place_name": "이투스247학원 송파점"
    },
    {
        "category_name": "교육,학문 > 학원 > 미술학원",
        "place_name": "아트파이브 잠실"
    },
    {
        "category_name": "교육,학문 > 학원",
        "place_name": "디엠패션학원"
    },
    {
        "category_name": "교육,학문 > 학원 > 컴퓨터학원",
        "place_name": "디랩코딩 잠실캠퍼스"
    },
    {
        "category_name": "교육,학문 > 학원 > 간호학원",
        "place_name": "성모간호학원"
    },
    {
        "category_name": "교육,학문 > 학원 > 어학원 > 영어학원",
        "place_name": "가이디잉글리시"
    },
    {
        "category_name": "교육,학문 > 학원 > 어학원 > 영어학원",
        "place_name": "DL영어학원"
    },
    {
        "category_name": "교육,학문 > 학원",
        "place_name": "와이키즈 잠실놀이학원"
    },
    {
        "category_name": "교육,학문 > 학원",
        "place_name": "바디힐필라테스"
    },
    {
        "category_name": "교육,학문 > 학원 > 패션디자인학원",
        "place_name": "에스킴니트디자인"
    },
    {
        "category_name": "교육,학문 > 학원 > 어학원",
        "place_name": "송파이지어학원"
    },
    {
        "category_name": "교육,학문 > 학원",
        "place_name": "와이즈만영재교육 잠실보습학원"
    },
    {
        "category_name": "교육,학문 > 학원 > 수학학원",
        "place_name": "대치해법수학교실 잠실관"
    },
    {
        "category_name": "교육,학문 > 학원 > 어학원 > 영어학원",
        "place_name": "제이엠어학원"
    },
    {
        "category_name": "교육,학문 > 학원 > 간호학원",
        "place_name": "이화간호학원"
    },
    {
        "category_name": "교육,학문 > 학원 > 입시학원",
        "place_name": "이투스247학원 송파점"
    },
    {
        "category_name": "교육,학문 > 학원 > 미술학원",
        "place_name": "아트파이브 잠실"
    },
    {
        "category_name": "교육,학문 > 학원",
        "place_name": "디엠패션학원"
    },
    {
        "category_name": "교육,학문 > 학원 > 컴퓨터학원",
        "place_name": "디랩코딩 잠실캠퍼스"
    },
    {
        "category_name": "교육,학문 > 학원 > 간호학원",
        "place_name": "성모간호학원"
    },
    {
        "category_name": "교육,학문 > 학원 > 어학원 > 영어학원",
        "place_name": "가이디잉글리시"
    },
    {
        "category_name": "교육,학문 > 학원 > 어학원 > 영어학원",
        "place_name": "DL영어학원"
    },
    {
        "category_name": "교육,학문 > 학원",
        "place_name": "와이키즈 잠실놀이학원"
    },
    {
        "category_name": "교육,학문 > 학원",
        "place_name": "바디힐필라테스"
    },
    {
        "category_name": "교육,학문 > 학원 > 패션디자인학원",
        "place_name": "에스킴니트디자인"
    },
    {
        "category_name": "교육,학문 > 학원 > 어학원",
        "place_name": "송파이지어학원"
    },
    {
        "category_name": "교육,학문 > 학원",
        "place_name": "와이즈만영재교육 잠실보습학원"
    },
    {
        "category_name": "교육,학문 > 학원 > 수학학원",
        "place_name": "대치해법수학교실 잠실관"
    },
    {
        "category_name": "교육,학문 > 학원 > 어학원 > 영어학원",
        "place_name": "제이엠어학원"
    },
    {
        "category_name": "교육,학문 > 학원 > 간호학원",
        "place_name": "이화간호학원"
    },
    {
        "category_name": "교육,학문 > 학원 > 입시학원",
        "place_name": "이투스247학원 송파점"
    },
    {
        "category_name": "교육,학문 > 학원 > 미술학원",
        "place_name": "아트파이브 잠실"
    },
    {
        "category_name": "교육,학문 > 학원",
        "place_name": "디엠패션학원"
    },
    {
        "category_name": "교육,학문 > 학원 > 컴퓨터학원",
        "place_name": "디랩코딩 잠실캠퍼스"
    },
    {
        "category_name": "교육,학문 > 학원 > 간호학원",
        "place_name": "성모간호학원"
    },
    {
        "category_name": "교육,학문 > 학원 > 어학원 > 영어학원",
        "place_name": "가이디잉글리시"
    },
    {
        "category_name": "교육,학문 > 학원 > 어학원 > 영어학원",
        "place_name": "DL영어학원"
    },
    {
        "category_name": "교육,학문 > 학원",
        "place_name": "와이키즈 잠실놀이학원"
    },
    {
        "category_name": "교육,학문 > 학원",
        "place_name": "바디힐필라테스"
    },
    {
        "category_name": "교육,학문 > 학원 > 패션디자인학원",
        "place_name": "에스킴니트디자인"
    },
    {
        "category_name": "교육,학문 > 학원 > 어학원",
        "place_name": "송파이지어학원"
    },
    {
        "category_name": "교육,학문 > 학원",
        "place_name": "와이즈만영재교육 잠실보습학원"
    },
    {
        "category_name": "교육,학문 > 학원 > 수학학원",
        "place_name": "대치해법수학교실 잠실관"
    },
    {
        "category_name": "교육,학문 > 학원 > 어학원 > 영어학원",
        "place_name": "제이엠어학원"
    },
    {
        "category_name": "교육,학문 > 학원 > 간호학원",
        "place_name": "이화간호학원"
    },
    {
        "category_name": "교육,학문 > 학원 > 입시학원",
        "place_name": "이투스247학원 송파점"
    },
    {
        "category_name": "교육,학문 > 학원 > 미술학원",
        "place_name": "아트파이브 잠실"
    },
    {
        "category_name": "교육,학문 > 학원",
        "place_name": "디엠패션학원"
    },
    {
        "category_name": "교육,학문 > 학원 > 컴퓨터학원",
        "place_name": "디랩코딩 잠실캠퍼스"
    },
    {
        "category_name": "교육,학문 > 학원 > 간호학원",
        "place_name": "성모간호학원"
    },
    {
        "category_name": "교육,학문 > 학원 > 어학원 > 영어학원",
        "place_name": "가이디잉글리시"
    },
    {
        "category_name": "교육,학문 > 학원 > 어학원 > 영어학원",
        "place_name": "DL영어학원"
    },
    {
        "category_name": "교육,학문 > 학원",
        "place_name": "와이키즈 잠실놀이학원"
    },
    {
        "category_name": "교육,학문 > 학원",
        "place_name": "바디힐필라테스"
    },
    {
        "category_name": "교육,학문 > 학원 > 패션디자인학원",
        "place_name": "에스킴니트디자인"
    },
    {
        "category_name": "교육,학문 > 학원 > 어학원",
        "place_name": "송파이지어학원"
    },
    {
        "category_name": "교육,학문 > 학원",
        "place_name": "와이즈만영재교육 잠실보습학원"
    },
    {
        "category_name": "교육,학문 > 학원 > 수학학원",
        "place_name": "대치해법수학교실 잠실관"
    },
    {
        "category_name": "교육,학문 > 학원 > 어학원 > 영어학원",
        "place_name": "제이엠어학원"
    },
    {
        "category_name": "교육,학문 > 학원 > 간호학원",
        "place_name": "이화간호학원"
    },
    {
        "category_name": "교육,학문 > 학원 > 입시학원",
        "place_name": "이투스247학원 송파점"
    },
    {
        "category_name": "교육,학문 > 학원 > 미술학원",
        "place_name": "아트파이브 잠실"
    },
    {
        "category_name": "교육,학문 > 학원",
        "place_name": "디엠패션학원"
    },
    {
        "category_name": "교육,학문 > 학원 > 컴퓨터학원",
        "place_name": "디랩코딩 잠실캠퍼스"
    },
    {
        "category_name": "교육,학문 > 학원 > 간호학원",
        "place_name": "성모간호학원"
    },
    {
        "category_name": "교육,학문 > 학원 > 어학원 > 영어학원",
        "place_name": "가이디잉글리시"
    },
    {
        "category_name": "교육,학문 > 학원 > 어학원 > 영어학원",
        "place_name": "DL영어학원"
    },
    {
        "category_name": "교육,학문 > 학원",
        "place_name": "와이키즈 잠실놀이학원"
    },
    {
        "category_name": "교육,학문 > 학원",
        "place_name": "바디힐필라테스"
    },
    {
        "category_name": "교육,학문 > 학원 > 패션디자인학원",
        "place_name": "에스킴니트디자인"
    },
    {
        "category_name": "교육,학문 > 학원 > 어학원",
        "place_name": "송파이지어학원"
    },
    {
        "category_name": "교육,학문 > 학원",
        "place_name": "와이즈만영재교육 잠실보습학원"
    },
    {
        "category_name": "교육,학문 > 학원 > 수학학원",
        "place_name": "대치해법수학교실 잠실관"
    },
    {
        "category_name": "교육,학문 > 학원 > 어학원 > 영어학원",
        "place_name": "제이엠어학원"
    },
    {
        "category_name": "교육,학문 > 학원 > 간호학원",
        "place_name": "이화간호학원"
    },
    {
        "category_name": "교육,학문 > 학원 > 입시학원",
        "place_name": "이투스247학원 송파점"
    },
    {
        "category_name": "교육,학문 > 학원 > 미술학원",
        "place_name": "아트파이브 잠실"
    },
    {
        "category_name": "교육,학문 > 학원",
        "place_name": "디엠패션학원"
    },
    {
        "category_name": "교육,학문 > 학원 > 컴퓨터학원",
        "place_name": "디랩코딩 잠실캠퍼스"
    },
    {
        "category_name": "교육,학문 > 학원 > 간호학원",
        "place_name": "성모간호학원"
    },
    {
        "category_name": "교육,학문 > 학원 > 어학원 > 영어학원",
        "place_name": "가이디잉글리시"
    },
    {
        "category_name": "교육,학문 > 학원 > 어학원 > 영어학원",
        "place_name": "DL영어학원"
    },
    {
        "category_name": "교육,학문 > 학원",
        "place_name": "와이키즈 잠실놀이학원"
    },
    {
        "category_name": "교육,학문 > 학원",
        "place_name": "바디힐필라테스"
    },
    {
        "category_name": "교육,학문 > 학원 > 패션디자인학원",
        "place_name": "에스킴니트디자인"
    },
    {
        "category_name": "교육,학문 > 학원 > 어학원",
        "place_name": "송파이지어학원"
    },
    {
        "category_name": "교육,학문 > 학원",
        "place_name": "와이즈만영재교육 잠실보습학원"
    },
    {
        "category_name": "교육,학문 > 학원 > 수학학원",
        "place_name": "대치해법수학교실 잠실관"
    },
    {
        "category_name": "교육,학문 > 학원 > 어학원 > 영어학원",
        "place_name": "제이엠어학원"
    },
    {
        "category_name": "교육,학문 > 학원 > 간호학원",
        "place_name": "이화간호학원"
    },
    {
        "category_name": "교육,학문 > 학원 > 입시학원",
        "place_name": "이투스247학원 송파점"
    },
    {
        "category_name": "교육,학문 > 학원 > 미술학원",
        "place_name": "아트파이브 잠실"
    },
    {
        "category_name": "교육,학문 > 학원",
        "place_name": "디엠패션학원"
    },
    {
        "category_name": "교육,학문 > 학원 > 컴퓨터학원",
        "place_name": "디랩코딩 잠실캠퍼스"
    },
    {
        "category_name": "교육,학문 > 학원 > 간호학원",
        "place_name": "성모간호학원"
    },
    {
        "category_name": "교육,학문 > 학원 > 어학원 > 영어학원",
        "place_name": "가이디잉글리시"
    },
    {
        "category_name": "교육,학문 > 학원 > 어학원 > 영어학원",
        "place_name": "DL영어학원"
    },
    {
        "category_name": "교육,학문 > 학원",
        "place_name": "와이키즈 잠실놀이학원"
    },
    {
        "category_name": "교육,학문 > 학원",
        "place_name": "바디힐필라테스"
    },
    {
        "category_name": "교육,학문 > 학원 > 패션디자인학원",
        "place_name": "에스킴니트디자인"
    },
    {
        "category_name": "교육,학문 > 학원 > 어학원",
        "place_name": "송파이지어학원"
    },
    {
        "category_name": "교육,학문 > 학원",
        "place_name": "와이즈만영재교육 잠실보습학원"
    },
    {
        "category_name": "교육,학문 > 학원 > 수학학원",
        "place_name": "대치해법수학교실 잠실관"
    },
    {
        "category_name": "교육,학문 > 학원 > 어학원 > 영어학원",
        "place_name": "제이엠어학원"
    },
    {
        "category_name": "교육,학문 > 학원 > 간호학원",
        "place_name": "이화간호학원"
    },
    {
        "category_name": "교육,학문 > 학원 > 입시학원",
        "place_name": "이투스247학원 송파점"
    },
    {
        "category_name": "교육,학문 > 학원 > 미술학원",
        "place_name": "아트파이브 잠실"
    },
    {
        "category_name": "교육,학문 > 학원",
        "place_name": "디엠패션학원"
    },
    {
        "category_name": "교육,학문 > 학원 > 컴퓨터학원",
        "place_name": "디랩코딩 잠실캠퍼스"
    },
    {
        "category_name": "교육,학문 > 학원 > 간호학원",
        "place_name": "성모간호학원"
    },
    {
        "category_name": "교육,학문 > 학원 > 어학원 > 영어학원",
        "place_name": "가이디잉글리시"
    },
    {
        "category_name": "교육,학문 > 학원 > 어학원 > 영어학원",
        "place_name": "DL영어학원"
    },
    {
        "category_name": "교육,학문 > 학원",
        "place_name": "와이키즈 잠실놀이학원"
    },
    {
        "category_name": "교육,학문 > 학원",
        "place_name": "바디힐필라테스"
    },
    {
        "category_name": "교육,학문 > 학원 > 패션디자인학원",
        "place_name": "에스킴니트디자인"
    },
    {
        "category_name": "교육,학문 > 학원 > 어학원",
        "place_name": "송파이지어학원"
    },
    {
        "category_name": "교육,학문 > 학원",
        "place_name": "와이즈만영재교육 잠실보습학원"
    },
    {
        "category_name": "교육,학문 > 학원 > 수학학원",
        "place_name": "대치해법수학교실 잠실관"
    },
    {
        "category_name": "교육,학문 > 학원 > 어학원 > 영어학원",
        "place_name": "제이엠어학원"
    },
    {
        "category_name": "교육,학문 > 학원 > 간호학원",
        "place_name": "이화간호학원"
    },
    {
        "category_name": "교육,학문 > 학원 > 입시학원",
        "place_name": "이투스247학원 송파점"
    },
    {
        "category_name": "교육,학문 > 학원 > 미술학원",
        "place_name": "아트파이브 잠실"
    },
    {
        "category_name": "교육,학문 > 학원",
        "place_name": "디엠패션학원"
    },
    {
        "category_name": "교육,학문 > 학원 > 컴퓨터학원",
        "place_name": "디랩코딩 잠실캠퍼스"
    },
    {
        "category_name": "교육,학문 > 학원 > 간호학원",
        "place_name": "성모간호학원"
    },
    {
        "category_name": "교육,학문 > 학원 > 어학원 > 영어학원",
        "place_name": "가이디잉글리시"
    },
    {
        "category_name": "교육,학문 > 학원 > 어학원 > 영어학원",
        "place_name": "DL영어학원"
    },
    {
        "category_name": "교육,학문 > 학원",
        "place_name": "와이키즈 잠실놀이학원"
    },
    {
        "category_name": "교육,학문 > 학원",
        "place_name": "바디힐필라테스"
    },
    {
        "category_name": "교육,학문 > 학원 > 패션디자인학원",
        "place_name": "에스킴니트디자인"
    },
    {
        "category_name": "교육,학문 > 학원 > 어학원",
        "place_name": "송파이지어학원"
    },
    {
        "category_name": "교육,학문 > 학원",
        "place_name": "와이즈만영재교육 잠실보습학원"
    },
    {
        "category_name": "교육,학문 > 학원 > 수학학원",
        "place_name": "대치해법수학교실 잠실관"
    },
    {
        "category_name": "교육,학문 > 학원 > 어학원 > 영어학원",
        "place_name": "제이엠어학원"
    },
    {
        "category_name": "교육,학문 > 학원 > 간호학원",
        "place_name": "이화간호학원"
    },
    {
        "category_name": "교육,학문 > 학원 > 입시학원",
        "place_name": "이투스247학원 송파점"
    },
    {
        "category_name": "교육,학문 > 학원 > 미술학원",
        "place_name": "아트파이브 잠실"
    },
    {
        "category_name": "교육,학문 > 학원",
        "place_name": "디엠패션학원"
    },
    {
        "category_name": "교육,학문 > 학원 > 컴퓨터학원",
        "place_name": "디랩코딩 잠실캠퍼스"
    },
    {
        "category_name": "교육,학문 > 학원 > 간호학원",
        "place_name": "성모간호학원"
    },
    {
        "category_name": "교육,학문 > 학원 > 어학원 > 영어학원",
        "place_name": "가이디잉글리시"
    },
    {
        "category_name": "교육,학문 > 학원 > 어학원 > 영어학원",
        "place_name": "DL영어학원"
    },
    {
        "category_name": "교육,학문 > 학원",
        "place_name": "와이키즈 잠실놀이학원"
    },
    {
        "category_name": "교육,학문 > 학원",
        "place_name": "바디힐필라테스"
    },
    {
        "category_name": "교육,학문 > 학원 > 패션디자인학원",
        "place_name": "에스킴니트디자인"
    },
    {
        "category_name": "교육,학문 > 학원 > 어학원",
        "place_name": "송파이지어학원"
    },
    {
        "category_name": "교육,학문 > 학원",
        "place_name": "와이즈만영재교육 잠실보습학원"
    },
    {
        "category_name": "교육,학문 > 학원 > 수학학원",
        "place_name": "대치해법수학교실 잠실관"
    },
    {
        "category_name": "교육,학문 > 학원 > 어학원 > 영어학원",
        "place_name": "제이엠어학원"
    },
    {
        "category_name": "교육,학문 > 학원 > 간호학원",
        "place_name": "이화간호학원"
    },
    {
        "category_name": "교육,학문 > 학원 > 입시학원",
        "place_name": "이투스247학원 송파점"
    },
    {
        "category_name": "교육,학문 > 학원 > 미술학원",
        "place_name": "아트파이브 잠실"
    },
    {
        "category_name": "교육,학문 > 학원",
        "place_name": "디엠패션학원"
    },
    {
        "category_name": "교육,학문 > 학원 > 컴퓨터학원",
        "place_name": "디랩코딩 잠실캠퍼스"
    },
    {
        "category_name": "교육,학문 > 학원 > 간호학원",
        "place_name": "성모간호학원"
    },
    {
        "category_name": "교육,학문 > 학원 > 어학원 > 영어학원",
        "place_name": "가이디잉글리시"
    },
    {
        "category_name": "교육,학문 > 학원 > 어학원 > 영어학원",
        "place_name": "DL영어학원"
    },
    {
        "category_name": "교육,학문 > 학원",
        "place_name": "와이키즈 잠실놀이학원"
    },
    {
        "category_name": "교육,학문 > 학원",
        "place_name": "바디힐필라테스"
    },
    {
        "category_name": "교육,학문 > 학원 > 패션디자인학원",
        "place_name": "에스킴니트디자인"
    },
    {
        "category_name": "교육,학문 > 학원 > 어학원",
        "place_name": "송파이지어학원"
    },
    {
        "category_name": "교육,학문 > 학원",
        "place_name": "와이즈만영재교육 잠실보습학원"
    },
    {
        "category_name": "교육,학문 > 학원 > 수학학원",
        "place_name": "대치해법수학교실 잠실관"
    },
    {
        "category_name": "교육,학문 > 학원 > 어학원 > 영어학원",
        "place_name": "제이엠어학원"
    },
    {
        "category_name": "교육,학문 > 학원 > 간호학원",
        "place_name": "이화간호학원"
    },
    {
        "category_name": "교육,학문 > 학원 > 입시학원",
        "place_name": "이투스247학원 송파점"
    },
    {
        "category_name": "교육,학문 > 학원 > 미술학원",
        "place_name": "아트파이브 잠실"
    },
    {
        "category_name": "교육,학문 > 학원",
        "place_name": "디엠패션학원"
    },
    {
        "category_name": "교육,학문 > 학원 > 컴퓨터학원",
        "place_name": "디랩코딩 잠실캠퍼스"
    },
    {
        "category_name": "교육,학문 > 학원 > 간호학원",
        "place_name": "성모간호학원"
    },
    {
        "category_name": "교육,학문 > 학원 > 어학원 > 영어학원",
        "place_name": "가이디잉글리시"
    },
    {
        "category_name": "교육,학문 > 학원 > 어학원 > 영어학원",
        "place_name": "DL영어학원"
    },
    {
        "category_name": "교육,학문 > 학원",
        "place_name": "와이키즈 잠실놀이학원"
    },
    {
        "category_name": "교육,학문 > 학원",
        "place_name": "바디힐필라테스"
    },
    {
        "category_name": "교육,학문 > 학원 > 패션디자인학원",
        "place_name": "에스킴니트디자인"
    },
    {
        "category_name": "교육,학문 > 학원 > 어학원",
        "place_name": "송파이지어학원"
    },
    {
        "category_name": "교육,학문 > 학원",
        "place_name": "와이즈만영재교육 잠실보습학원"
    },
    {
        "category_name": "교육,학문 > 학원 > 수학학원",
        "place_name": "대치해법수학교실 잠실관"
    },
    {
        "category_name": "교육,학문 > 학원 > 어학원 > 영어학원",
        "place_name": "제이엠어학원"
    },
    {
        "category_name": "교육,학문 > 학원 > 간호학원",
        "place_name": "이화간호학원"
    },
    {
        "category_name": "교육,학문 > 학원 > 입시학원",
        "place_name": "이투스247학원 송파점"
    },
    {
        "category_name": "교육,학문 > 학원 > 미술학원",
        "place_name": "아트파이브 잠실"
    },
    {
        "category_name": "교육,학문 > 학원",
        "place_name": "디엠패션학원"
    },
    {
        "category_name": "교육,학문 > 학원 > 컴퓨터학원",
        "place_name": "디랩코딩 잠실캠퍼스"
    },
    {
        "category_name": "교육,학문 > 학원 > 간호학원",
        "place_name": "성모간호학원"
    },
    {
        "category_name": "교육,학문 > 학원 > 어학원 > 영어학원",
        "place_name": "가이디잉글리시"
    },
    {
        "category_name": "교육,학문 > 학원 > 어학원 > 영어학원",
        "place_name": "DL영어학원"
    },
    {
        "category_name": "교육,학문 > 학원",
        "place_name": "와이키즈 잠실놀이학원"
    },
    {
        "category_name": "교육,학문 > 학원",
        "place_name": "바디힐필라테스"
    },
    {
        "category_name": "교육,학문 > 학원 > 패션디자인학원",
        "place_name": "에스킴니트디자인"
    },
    {
        "category_name": "교육,학문 > 학원 > 어학원",
        "place_name": "송파이지어학원"
    },
    {
        "category_name": "교육,학문 > 학원",
        "place_name": "와이즈만영재교육 잠실보습학원"
    },
    {
        "category_name": "교육,학문 > 학원 > 수학학원",
        "place_name": "대치해법수학교실 잠실관"
    },
    {
        "category_name": "교육,학문 > 학원 > 어학원 > 영어학원",
        "place_name": "제이엠어학원"
    },
    {
        "category_name": "교육,학문 > 학원 > 간호학원",
        "place_name": "이화간호학원"
    },
    {
        "category_name": "교육,학문 > 학원 > 입시학원",
        "place_name": "이투스247학원 송파점"
    },
    {
        "category_name": "교육,학문 > 학원 > 미술학원",
        "place_name": "아트파이브 잠실"
    },
    {
        "category_name": "교육,학문 > 학원",
        "place_name": "디엠패션학원"
    },
    {
        "category_name": "교육,학문 > 학원 > 컴퓨터학원",
        "place_name": "디랩코딩 잠실캠퍼스"
    },
    {
        "category_name": "교육,학문 > 학원 > 간호학원",
        "place_name": "성모간호학원"
    },
    {
        "category_name": "교육,학문 > 학원 > 어학원 > 영어학원",
        "place_name": "가이디잉글리시"
    },
    {
        "category_name": "교육,학문 > 학원 > 어학원 > 영어학원",
        "place_name": "DL영어학원"
    },
    {
        "category_name": "교육,학문 > 학원",
        "place_name": "와이키즈 잠실놀이학원"
    },
    {
        "category_name": "교육,학문 > 학원",
        "place_name": "바디힐필라테스"
    },
    {
        "category_name": "교육,학문 > 학원 > 패션디자인학원",
        "place_name": "에스킴니트디자인"
    },
    {
        "category_name": "교육,학문 > 학원 > 어학원",
        "place_name": "송파이지어학원"
    },
    {
        "category_name": "교육,학문 > 학원",
        "place_name": "와이즈만영재교육 잠실보습학원"
    },
    {
        "category_name": "교육,학문 > 학원 > 수학학원",
        "place_name": "대치해법수학교실 잠실관"
    },
    {
        "category_name": "교육,학문 > 학원 > 어학원 > 영어학원",
        "place_name": "제이엠어학원"
    },
    {
        "category_name": "교육,학문 > 학원 > 간호학원",
        "place_name": "이화간호학원"
    },
    {
        "category_name": "교육,학문 > 학원 > 입시학원",
        "place_name": "이투스247학원 송파점"
    },
    {
        "category_name": "교육,학문 > 학원 > 미술학원",
        "place_name": "아트파이브 잠실"
    },
    {
        "category_name": "교육,학문 > 학원",
        "place_name": "디엠패션학원"
    },
    {
        "category_name": "교육,학문 > 학원 > 컴퓨터학원",
        "place_name": "디랩코딩 잠실캠퍼스"
    },
    {
        "category_name": "교육,학문 > 학원 > 간호학원",
        "place_name": "성모간호학원"
    },
    {
        "category_name": "교육,학문 > 학원 > 어학원 > 영어학원",
        "place_name": "가이디잉글리시"
    },
    {
        "category_name": "교육,학문 > 학원 > 어학원 > 영어학원",
        "place_name": "DL영어학원"
    },
    {
        "category_name": "교육,학문 > 학원",
        "place_name": "와이키즈 잠실놀이학원"
    },
    {
        "category_name": "교육,학문 > 학원",
        "place_name": "바디힐필라테스"
    },
    {
        "category_name": "교육,학문 > 학원 > 패션디자인학원",
        "place_name": "에스킴니트디자인"
    },
    {
        "category_name": "교육,학문 > 학원 > 어학원",
        "place_name": "송파이지어학원"
    },
    {
        "category_name": "교육,학문 > 학원",
        "place_name": "와이즈만영재교육 잠실보습학원"
    },
    {
        "category_name": "교육,학문 > 학원 > 수학학원",
        "place_name": "대치해법수학교실 잠실관"
    },
    {
        "category_name": "교육,학문 > 학원 > 어학원 > 영어학원",
        "place_name": "제이엠어학원"
    },
    {
        "category_name": "교육,학문 > 학원 > 간호학원",
        "place_name": "이화간호학원"
    },
    {
        "category_name": "교육,학문 > 학원 > 입시학원",
        "place_name": "이투스247학원 송파점"
    },
    {
        "category_name": "교육,학문 > 학원 > 미술학원",
        "place_name": "아트파이브 잠실"
    },
    {
        "category_name": "교육,학문 > 학원",
        "place_name": "디엠패션학원"
    },
    {
        "category_name": "교육,학문 > 학원 > 컴퓨터학원",
        "place_name": "디랩코딩 잠실캠퍼스"
    },
    {
        "category_name": "교육,학문 > 학원 > 간호학원",
        "place_name": "성모간호학원"
    },
    {
        "category_name": "교육,학문 > 학원 > 어학원 > 영어학원",
        "place_name": "가이디잉글리시"
    },
    {
        "category_name": "교육,학문 > 학원 > 어학원 > 영어학원",
        "place_name": "DL영어학원"
    },
    {
        "category_name": "교육,학문 > 학원",
        "place_name": "와이키즈 잠실놀이학원"
    },
    {
        "category_name": "교육,학문 > 학원",
        "place_name": "바디힐필라테스"
    },
    {
        "category_name": "교육,학문 > 학원 > 패션디자인학원",
        "place_name": "에스킴니트디자인"
    },
    {
        "category_name": "교육,학문 > 학원 > 어학원",
        "place_name": "송파이지어학원"
    },
    {
        "category_name": "교육,학문 > 학원",
        "place_name": "와이즈만영재교육 잠실보습학원"
    },
    {
        "category_name": "교육,학문 > 학원 > 수학학원",
        "place_name": "대치해법수학교실 잠실관"
    },
    {
        "category_name": "교육,학문 > 학원 > 어학원 > 영어학원",
        "place_name": "제이엠어학원"
    },
    {
        "category_name": "교육,학문 > 학원 > 간호학원",
        "place_name": "이화간호학원"
    },
    {
        "category_name": "교육,학문 > 학원 > 입시학원",
        "place_name": "이투스247학원 송파점"
    },
    {
        "category_name": "교육,학문 > 학원 > 미술학원",
        "place_name": "아트파이브 잠실"
    },
    {
        "category_name": "교육,학문 > 학원",
        "place_name": "디엠패션학원"
    },
    {
        "category_name": "교육,학문 > 학원 > 컴퓨터학원",
        "place_name": "디랩코딩 잠실캠퍼스"
    },
    {
        "category_name": "교육,학문 > 학원 > 간호학원",
        "place_name": "성모간호학원"
    },
    {
        "category_name": "교육,학문 > 학원 > 어학원 > 영어학원",
        "place_name": "가이디잉글리시"
    },
    {
        "category_name": "교육,학문 > 학원 > 어학원 > 영어학원",
        "place_name": "DL영어학원"
    },
    {
        "category_name": "교육,학문 > 학원",
        "place_name": "와이키즈 잠실놀이학원"
    },
    {
        "category_name": "교육,학문 > 학원",
        "place_name": "바디힐필라테스"
    },
    {
        "category_name": "교육,학문 > 학원 > 패션디자인학원",
        "place_name": "에스킴니트디자인"
    },
    {
        "category_name": "교육,학문 > 학원 > 어학원",
        "place_name": "송파이지어학원"
    },
    {
        "category_name": "교육,학문 > 학원",
        "place_name": "와이즈만영재교육 잠실보습학원"
    },
    {
        "category_name": "교육,학문 > 학원 > 수학학원",
        "place_name": "대치해법수학교실 잠실관"
    },
    {
        "category_name": "교육,학문 > 학원 > 어학원 > 영어학원",
        "place_name": "제이엠어학원"
    },
    {
        "category_name": "교육,학문 > 학원 > 간호학원",
        "place_name": "이화간호학원"
    },
    {
        "category_name": "교육,학문 > 학원 > 입시학원",
        "place_name": "이투스247학원 송파점"
    },
    {
        "category_name": "교육,학문 > 학원 > 미술학원",
        "place_name": "아트파이브 잠실"
    },
    {
        "category_name": "교육,학문 > 학원",
        "place_name": "디엠패션학원"
    },
    {
        "category_name": "교육,학문 > 학원 > 컴퓨터학원",
        "place_name": "디랩코딩 잠실캠퍼스"
    },
    {
        "category_name": "교육,학문 > 학원 > 간호학원",
        "place_name": "성모간호학원"
    },
    {
        "category_name": "교육,학문 > 학원 > 어학원 > 영어학원",
        "place_name": "가이디잉글리시"
    },
    {
        "category_name": "교육,학문 > 학원 > 어학원 > 영어학원",
        "place_name": "DL영어학원"
    },
    {
        "category_name": "교육,학문 > 학원",
        "place_name": "와이키즈 잠실놀이학원"
    },
    {
        "category_name": "교육,학문 > 학원",
        "place_name": "바디힐필라테스"
    },
    {
        "category_name": "교육,학문 > 학원 > 패션디자인학원",
        "place_name": "에스킴니트디자인"
    },
    {
        "category_name": "교육,학문 > 학원 > 어학원",
        "place_name": "송파이지어학원"
    },
    {
        "category_name": "교육,학문 > 학원",
        "place_name": "와이즈만영재교육 잠실보습학원"
    },
    {
        "category_name": "교육,학문 > 학원 > 수학학원",
        "place_name": "대치해법수학교실 잠실관"
    },
    {
        "category_name": "교육,학문 > 학원 > 어학원 > 영어학원",
        "place_name": "제이엠어학원"
    },
    {
        "category_name": "교육,학문 > 학원 > 간호학원",
        "place_name": "이화간호학원"
    },
    {
        "category_name": "교육,학문 > 학원 > 입시학원",
        "place_name": "이투스247학원 송파점"
    },
    {
        "category_name": "교육,학문 > 학원 > 미술학원",
        "place_name": "아트파이브 잠실"
    },
    {
        "category_name": "교육,학문 > 학원",
        "place_name": "디엠패션학원"
    },
    {
        "category_name": "교육,학문 > 학원 > 컴퓨터학원",
        "place_name": "디랩코딩 잠실캠퍼스"
    },
    {
        "category_name": "교육,학문 > 학원 > 간호학원",
        "place_name": "성모간호학원"
    },
    {
        "category_name": "교육,학문 > 학원 > 어학원 > 영어학원",
        "place_name": "가이디잉글리시"
    },
    {
        "category_name": "교육,학문 > 학원 > 어학원 > 영어학원",
        "place_name": "DL영어학원"
    },
    {
        "category_name": "교육,학문 > 학원",
        "place_name": "와이키즈 잠실놀이학원"
    },
    {
        "category_name": "교육,학문 > 학원",
        "place_name": "바디힐필라테스"
    },
    {
        "category_name": "교육,학문 > 학원 > 패션디자인학원",
        "place_name": "에스킴니트디자인"
    },
    {
        "category_name": "교육,학문 > 학원 > 어학원",
        "place_name": "송파이지어학원"
    },
    {
        "category_name": "교육,학문 > 학원",
        "place_name": "와이즈만영재교육 잠실보습학원"
    },
    {
        "category_name": "교육,학문 > 학원 > 수학학원",
        "place_name": "대치해법수학교실 잠실관"
    },
    {
        "category_name": "교육,학문 > 학원 > 어학원 > 영어학원",
        "place_name": "제이엠어학원"
    },
    {
        "category_name": "교육,학문 > 학원 > 간호학원",
        "place_name": "이화간호학원"
    },
    {
        "category_name": "교육,학문 > 학원 > 입시학원",
        "place_name": "이투스247학원 송파점"
    },
    {
        "category_name": "교육,학문 > 학원 > 미술학원",
        "place_name": "아트파이브 잠실"
    },
    {
        "category_name": "교육,학문 > 학원",
        "place_name": "디엠패션학원"
    },
    {
        "category_name": "교육,학문 > 학원 > 컴퓨터학원",
        "place_name": "디랩코딩 잠실캠퍼스"
    },
    {
        "category_name": "교육,학문 > 학원 > 간호학원",
        "place_name": "성모간호학원"
    },
    {
        "category_name": "교육,학문 > 학원 > 어학원 > 영어학원",
        "place_name": "가이디잉글리시"
    },
    {
        "category_name": "교육,학문 > 학원 > 어학원 > 영어학원",
        "place_name": "DL영어학원"
    },
    {
        "category_name": "교육,학문 > 학원",
        "place_name": "와이키즈 잠실놀이학원"
    },
    {
        "category_name": "교육,학문 > 학원",
        "place_name": "바디힐필라테스"
    },
    {
        "category_name": "교육,학문 > 학원 > 패션디자인학원",
        "place_name": "에스킴니트디자인"
    },
    {
        "category_name": "교육,학문 > 학원 > 어학원",
        "place_name": "송파이지어학원"
    },
    {
        "category_name": "교육,학문 > 학원",
        "place_name": "와이즈만영재교육 잠실보습학원"
    },
    {
        "category_name": "교육,학문 > 학원 > 수학학원",
        "place_name": "대치해법수학교실 잠실관"
    },
    {
        "category_name": "교육,학문 > 학원 > 어학원 > 영어학원",
        "place_name": "제이엠어학원"
    },
    {
        "category_name": "교육,학문 > 학원 > 간호학원",
        "place_name": "이화간호학원"
    },
    {
        "category_name": "교육,학문 > 학원 > 입시학원",
        "place_name": "이투스247학원 송파점"
    },
    {
        "category_name": "교육,학문 > 학원 > 미술학원",
        "place_name": "아트파이브 잠실"
    },
    {
        "category_name": "교육,학문 > 학원",
        "place_name": "디엠패션학원"
    },
    {
        "category_name": "교육,학문 > 학원 > 컴퓨터학원",
        "place_name": "디랩코딩 잠실캠퍼스"
    },
    {
        "category_name": "교육,학문 > 학원 > 간호학원",
        "place_name": "성모간호학원"
    },
    {
        "category_name": "교육,학문 > 학원 > 어학원 > 영어학원",
        "place_name": "가이디잉글리시"
    },
    {
        "category_name": "교육,학문 > 학원 > 어학원 > 영어학원",
        "place_name": "DL영어학원"
    },
    {
        "category_name": "교육,학문 > 학원",
        "place_name": "와이키즈 잠실놀이학원"
    },
    {
        "category_name": "교육,학문 > 학원",
        "place_name": "바디힐필라테스"
    },
    {
        "category_name": "교육,학문 > 학원 > 패션디자인학원",
        "place_name": "에스킴니트디자인"
    },
    {
        "category_name": "교육,학문 > 학원 > 어학원",
        "place_name": "송파이지어학원"
    },
    {
        "category_name": "교육,학문 > 학원",
        "place_name": "와이즈만영재교육 잠실보습학원"
    },
    {
        "category_name": "교육,학문 > 학원 > 수학학원",
        "place_name": "대치해법수학교실 잠실관"
    },
    {
        "category_name": "교육,학문 > 학원 > 어학원 > 영어학원",
        "place_name": "제이엠어학원"
    },
    {
        "category_name": "교육,학문 > 학원 > 간호학원",
        "place_name": "이화간호학원"
    },
    {
        "category_name": "교육,학문 > 학원 > 입시학원",
        "place_name": "이투스247학원 송파점"
    },
    {
        "category_name": "교육,학문 > 학원 > 미술학원",
        "place_name": "아트파이브 잠실"
    },
    {
        "category_name": "교육,학문 > 학원",
        "place_name": "디엠패션학원"
    },
    {
        "category_name": "교육,학문 > 학원 > 컴퓨터학원",
        "place_name": "디랩코딩 잠실캠퍼스"
    },
    {
        "category_name": "교육,학문 > 학원 > 간호학원",
        "place_name": "성모간호학원"
    },
    {
        "category_name": "교육,학문 > 학원 > 어학원 > 영어학원",
        "place_name": "가이디잉글리시"
    },
    {
        "category_name": "교육,학문 > 학원 > 어학원 > 영어학원",
        "place_name": "DL영어학원"
    },
    {
        "category_name": "교육,학문 > 학원",
        "place_name": "와이키즈 잠실놀이학원"
    },
    {
        "category_name": "교육,학문 > 학원",
        "place_name": "바디힐필라테스"
    },
    {
        "category_name": "교육,학문 > 학원 > 패션디자인학원",
        "place_name": "에스킴니트디자인"
    },
    {
        "category_name": "교육,학문 > 학원 > 어학원",
        "place_name": "송파이지어학원"
    },
    {
        "category_name": "교육,학문 > 학원",
        "place_name": "와이즈만영재교육 잠실보습학원"
    },
    {
        "category_name": "교육,학문 > 학원 > 수학학원",
        "place_name": "대치해법수학교실 잠실관"
    },
    {
        "category_name": "교육,학문 > 학원 > 어학원 > 영어학원",
        "place_name": "제이엠어학원"
    },
    {
        "category_name": "교육,학문 > 학원 > 간호학원",
        "place_name": "이화간호학원"
    },
    {
        "category_name": "교육,학문 > 학원 > 입시학원",
        "place_name": "이투스247학원 송파점"
    },
    {
        "category_name": "교육,학문 > 학원 > 미술학원",
        "place_name": "아트파이브 잠실"
    },
    {
        "category_name": "교육,학문 > 학원",
        "place_name": "디엠패션학원"
    },
    {
        "category_name": "교육,학문 > 학원 > 컴퓨터학원",
        "place_name": "디랩코딩 잠실캠퍼스"
    },
    {
        "category_name": "교육,학문 > 학원 > 간호학원",
        "place_name": "성모간호학원"
    },
    {
        "category_name": "교육,학문 > 학원 > 어학원 > 영어학원",
        "place_name": "가이디잉글리시"
    },
    {
        "category_name": "교육,학문 > 학원 > 어학원 > 영어학원",
        "place_name": "DL영어학원"
    },
    {
        "category_name": "교육,학문 > 학원",
        "place_name": "와이키즈 잠실놀이학원"
    },
    {
        "category_name": "교육,학문 > 학원",
        "place_name": "바디힐필라테스"
    },
    {
        "category_name": "교육,학문 > 학원 > 패션디자인학원",
        "place_name": "에스킴니트디자인"
    },
    {
        "category_name": "교육,학문 > 학원 > 어학원",
        "place_name": "송파이지어학원"
    },
    {
        "category_name": "교육,학문 > 학원",
        "place_name": "와이즈만영재교육 잠실보습학원"
    },
    {
        "category_name": "교육,학문 > 학원 > 수학학원",
        "place_name": "대치해법수학교실 잠실관"
    },
    {
        "category_name": "교육,학문 > 학원 > 어학원 > 영어학원",
        "place_name": "제이엠어학원"
    },
    {
        "category_name": "교육,학문 > 학원 > 간호학원",
        "place_name": "이화간호학원"
    },
    {
        "category_name": "교육,학문 > 학원 > 입시학원",
        "place_name": "이투스247학원 송파점"
    },
    {
        "category_name": "교육,학문 > 학원 > 미술학원",
        "place_name": "아트파이브 잠실"
    },
    {
        "category_name": "교육,학문 > 학원",
        "place_name": "디엠패션학원"
    },
    {
        "category_name": "교육,학문 > 학원 > 컴퓨터학원",
        "place_name": "디랩코딩 잠실캠퍼스"
    },
    {
        "category_name": "교육,학문 > 학원 > 간호학원",
        "place_name": "성모간호학원"
    },
    {
        "category_name": "교육,학문 > 학원 > 어학원 > 영어학원",
        "place_name": "가이디잉글리시"
    },
    {
        "category_name": "교육,학문 > 학원 > 어학원 > 영어학원",
        "place_name": "DL영어학원"
    },
    {
        "category_name": "교육,학문 > 학원",
        "place_name": "와이키즈 잠실놀이학원"
    },
    {
        "category_name": "교육,학문 > 학원",
        "place_name": "바디힐필라테스"
    },
    {
        "category_name": "교육,학문 > 학원 > 패션디자인학원",
        "place_name": "에스킴니트디자인"
    },
    {
        "category_name": "교육,학문 > 학원 > 어학원",
        "place_name": "송파이지어학원"
    },
    {
        "category_name": "교육,학문 > 학원",
        "place_name": "와이즈만영재교육 잠실보습학원"
    },
    {
        "category_name": "교육,학문 > 학원 > 수학학원",
        "place_name": "대치해법수학교실 잠실관"
    },
    {
        "category_name": "교육,학문 > 학원 > 어학원 > 영어학원",
        "place_name": "제이엠어학원"
    },
    {
        "category_name": "교육,학문 > 학원 > 간호학원",
        "place_name": "이화간호학원"
    },
    {
        "category_name": "교육,학문 > 학원 > 입시학원",
        "place_name": "이투스247학원 송파점"
    },
    {
        "category_name": "교육,학문 > 학원 > 미술학원",
        "place_name": "아트파이브 잠실"
    },
    {
        "category_name": "교육,학문 > 학원",
        "place_name": "디엠패션학원"
    },
    {
        "category_name": "교육,학문 > 학원 > 컴퓨터학원",
        "place_name": "디랩코딩 잠실캠퍼스"
    },
    {
        "category_name": "교육,학문 > 학원 > 간호학원",
        "place_name": "성모간호학원"
    },
    {
        "category_name": "교육,학문 > 학원 > 어학원 > 영어학원",
        "place_name": "가이디잉글리시"
    },
    {
        "category_name": "교육,학문 > 학원 > 어학원 > 영어학원",
        "place_name": "DL영어학원"
    },
    {
        "category_name": "교육,학문 > 학원",
        "place_name": "와이키즈 잠실놀이학원"
    },
    {
        "category_name": "교육,학문 > 학원",
        "place_name": "바디힐필라테스"
    },
    {
        "category_name": "교육,학문 > 학원 > 패션디자인학원",
        "place_name": "에스킴니트디자인"
    },
    {
        "category_name": "교육,학문 > 학원 > 어학원",
        "place_name": "송파이지어학원"
    },
    {
        "category_name": "교육,학문 > 학원",
        "place_name": "와이즈만영재교육 잠실보습학원"
    },
    {
        "category_name": "교육,학문 > 학원 > 수학학원",
        "place_name": "대치해법수학교실 잠실관"
    },
    {
        "category_name": "교육,학문 > 학원 > 어학원 > 영어학원",
        "place_name": "제이엠어학원"
    },
    {
        "category_name": "교육,학문 > 학원 > 간호학원",
        "place_name": "이화간호학원"
    },
    {
        "category_name": "교육,학문 > 학원 > 입시학원",
        "place_name": "이투스247학원 송파점"
    },
    {
        "category_name": "교육,학문 > 학원 > 미술학원",
        "place_name": "아트파이브 잠실"
    },
    {
        "category_name": "교육,학문 > 학원",
        "place_name": "디엠패션학원"
    },
    {
        "category_name": "교육,학문 > 학원 > 컴퓨터학원",
        "place_name": "디랩코딩 잠실캠퍼스"
    },
    {
        "category_name": "교육,학문 > 학원 > 간호학원",
        "place_name": "성모간호학원"
    },
    {
        "category_name": "교육,학문 > 학원 > 어학원 > 영어학원",
        "place_name": "가이디잉글리시"
    },
    {
        "category_name": "교육,학문 > 학원 > 어학원 > 영어학원",
        "place_name": "DL영어학원"
    },
    {
        "category_name": "교육,학문 > 학원",
        "place_name": "와이키즈 잠실놀이학원"
    },
    {
        "category_name": "교육,학문 > 학원",
        "place_name": "바디힐필라테스"
    },
    {
        "category_name": "교육,학문 > 학원 > 패션디자인학원",
        "place_name": "에스킴니트디자인"
    },
    {
        "category_name": "교육,학문 > 학원 > 어학원",
        "place_name": "송파이지어학원"
    },
    {
        "category_name": "교육,학문 > 학원",
        "place_name": "와이즈만영재교육 잠실보습학원"
    },
    {
        "category_name": "교육,학문 > 학원 > 수학학원",
        "place_name": "대치해법수학교실 잠실관"
    },
    {
        "category_name": "교육,학문 > 학원 > 어학원 > 영어학원",
        "place_name": "제이엠어학원"
    },
    {
        "category_name": "교육,학문 > 학원 > 간호학원",
        "place_name": "이화간호학원"
    },
    {
        "category_name": "교육,학문 > 학원 > 입시학원",
        "place_name": "이투스247학원 송파점"
    },
    {
        "category_name": "교육,학문 > 학원 > 미술학원",
        "place_name": "아트파이브 잠실"
    },
    {
        "category_name": "교육,학문 > 학원",
        "place_name": "디엠패션학원"
    },
    {
        "category_name": "교육,학문 > 학원 > 컴퓨터학원",
        "place_name": "디랩코딩 잠실캠퍼스"
    },
    {
        "category_name": "교육,학문 > 학원 > 간호학원",
        "place_name": "성모간호학원"
    },
    {
        "category_name": "교육,학문 > 학원 > 어학원 > 영어학원",
        "place_name": "가이디잉글리시"
    },
    {
        "category_name": "교육,학문 > 학원 > 어학원 > 영어학원",
        "place_name": "DL영어학원"
    },
    {
        "category_name": "교육,학문 > 학원",
        "place_name": "와이키즈 잠실놀이학원"
    },
    {
        "category_name": "교육,학문 > 학원",
        "place_name": "바디힐필라테스"
    },
    {
        "category_name": "교육,학문 > 학원 > 패션디자인학원",
        "place_name": "에스킴니트디자인"
    },
    {
        "category_name": "교육,학문 > 학원 > 어학원",
        "place_name": "송파이지어학원"
    },
    {
        "category_name": "교육,학문 > 학원",
        "place_name": "와이즈만영재교육 잠실보습학원"
    },
    {
        "category_name": "교육,학문 > 학원 > 수학학원",
        "place_name": "대치해법수학교실 잠실관"
    },
    {
        "category_name": "교육,학문 > 학원 > 어학원 > 영어학원",
        "place_name": "제이엠어학원"
    },
    {
        "category_name": "교육,학문 > 학원 > 간호학원",
        "place_name": "이화간호학원"
    },
    {
        "category_name": "교육,학문 > 학원 > 입시학원",
        "place_name": "이투스247학원 송파점"
    },
    {
        "category_name": "교육,학문 > 학원 > 미술학원",
        "place_name": "아트파이브 잠실"
    },
    {
        "category_name": "교육,학문 > 학원",
        "place_name": "디엠패션학원"
    },
    {
        "category_name": "교육,학문 > 학원 > 컴퓨터학원",
        "place_name": "디랩코딩 잠실캠퍼스"
    },
    {
        "category_name": "교육,학문 > 학원 > 간호학원",
        "place_name": "성모간호학원"
    },
    {
        "category_name": "교육,학문 > 학원 > 어학원 > 영어학원",
        "place_name": "가이디잉글리시"
    },
    {
        "category_name": "교육,학문 > 학원 > 어학원 > 영어학원",
        "place_name": "DL영어학원"
    },
    {
        "category_name": "교육,학문 > 학원",
        "place_name": "와이키즈 잠실놀이학원"
    },
    {
        "category_name": "교육,학문 > 학원",
        "place_name": "바디힐필라테스"
    },
    {
        "category_name": "교육,학문 > 학원 > 패션디자인학원",
        "place_name": "에스킴니트디자인"
    },
    {
        "category_name": "교육,학문 > 학원 > 어학원",
        "place_name": "송파이지어학원"
    },
    {
        "category_name": "교육,학문 > 학원",
        "place_name": "와이즈만영재교육 잠실보습학원"
    },
    {
        "category_name": "교육,학문 > 학원 > 수학학원",
        "place_name": "대치해법수학교실 잠실관"
    },
    {
        "category_name": "교육,학문 > 학원 > 어학원 > 영어학원",
        "place_name": "제이엠어학원"
    },
    {
        "category_name": "교육,학문 > 학원 > 간호학원",
        "place_name": "이화간호학원"
    },
    {
        "category_name": "교육,학문 > 학원 > 입시학원",
        "place_name": "이투스247학원 송파점"
    },
    {
        "category_name": "교육,학문 > 학원 > 미술학원",
        "place_name": "아트파이브 잠실"
    },
    {
        "category_name": "교육,학문 > 학원",
        "place_name": "디엠패션학원"
    },
    {
        "category_name": "교육,학문 > 학원 > 컴퓨터학원",
        "place_name": "디랩코딩 잠실캠퍼스"
    },
    {
        "category_name": "교육,학문 > 학원 > 간호학원",
        "place_name": "성모간호학원"
    },
    {
        "category_name": "교육,학문 > 학원 > 어학원 > 영어학원",
        "place_name": "가이디잉글리시"
    },
    {
        "category_name": "교육,학문 > 학원 > 어학원 > 영어학원",
        "place_name": "DL영어학원"
    },
    {
        "category_name": "교육,학문 > 학원",
        "place_name": "와이키즈 잠실놀이학원"
    },
    {
        "category_name": "교육,학문 > 학원",
        "place_name": "바디힐필라테스"
    }
]