[
    {
        "category_name": "가정,생활 > 문구,사무용품 > 디자인문구 > 아트박스",
        "place_name": "아트박스 교보문고 잠실점"
    },
    {
        "category_name": "가정,생활 > 문구,사무용품 > 디자인문구 > 카카오프렌즈",
        "place_name": "카카오프렌즈 롯데월드몰 잠실점"
    },
    {
        "category_name": "가정,생활 > 문구,사무용품 > 디자인문구 > 아트박스",
        "place_name": "아트박스 잠실새내점"
    },
    {
        "category_name": "가정,생활 > 문구,사무용품 > 드림디포",
        "place_name": "드림디포 송파점"
    },
    {
        "category_name": "가정,생활 > 문구,사무용품 > 알파",
        "place_name": "알파 삼전점"
    },
    {
        "category_name": "가정,생활 > 문구,사무용품 > 디자인문구",
        "place_name": "도토리숲 롯데월드몰점"
    },
    {
        "category_name": "가정,생활 > 문구,사무용품 > 무인문구점 > 빵꾸똥꾸문구야",
        "place_name": "빵꾸똥꾸문구야 잠실점"
    },
    {
        "category_name": "가정,생활 > 문구,사무용품 > 무인문구점 > 문구야놀자",
        "place_name": "문구야놀자 잠실점"
    },
    {
        "category_name": "가정,생활 > 문구,사무용품 > 드림디포",
        "place_name": "드림디포 석촌중앙점"
    },
    {
        "category_name": "가정,생활 > 문구,사무용품 > 드림디포",
        "place_name": "드림디포 잠실새내점"
    },
    {
        "category_name": "가정,생활 > 문구,사무용품",
        "place_name": "교보핫트랙스 잠실점"
    },
    {
        "category_name": "가정,생활 > 문구,사무용품",
        "place_name": "바른오피스"
    },
    {
        "category_name": "가정,생활 > 문구,사무용품 > 알파",
        "place_name": "알파 올림픽점"
    },
    {
        "category_name": "가정,생활 > 문구,사무용품 > 드림디포",
        "place_name": "드림디포 송파역점"
    },
    {
        "category_name": "가정,생활 > 문구,사무용품",
        "place_name": "대우문구"
    },
    {
        "category_name": "가정,생활 > 문구,사무용품",
        "place_name": "이에스아이시"
    },
    {
        "category_name": "가정,생활 > 문구,사무용품 > 디자인문구",
        "place_name": "시로앤마로 잠실플래그십스토어"
    },
    {
        "category_name": "가정,생활 > 문구,사무용품",
        "place_name": "문보장 3호점"
    },
    {
        "category_name": "가정,생활 > 문구,사무용품 > 알파",
        "place_name": "알파 송파한양점"
    },
    {
        "category_name": "가정,생활 > 문구,사무용품",
        "place_name": "천호문구도매상사"
    },
    {
        "category_name": "가정,생활 > 문구,사무용품",
        "place_name": "예림문구화방"
    },
    {
        "category_name": "가정,생활 > 문구,사무용품",
        "place_name": "지아이엠코리아"
    },
    {
        "category_name": "가정,생활 > 문구,사무용품 > 알파",
        "place_name": "알파 송파점"
    },
    {
        "category_name": "가정,생활 > 문구,사무용품",
        "place_name": "맨션문구"
    },
    {
        "category_name": "가정,생활 > 문구,사무용품",
        "place_name": "코리아에이에스"
    },
    {
        "category_name": "가정,생활 > 문구,사무용품",
        "place_name": "모양"
    },
    {
        "category_name": "가정,생활 > 문구,사무용품 > 무인문구점 > 말랑놀이터",
        "place_name": "말랑놀이터 송파초점"
    },
    {
        "category_name": "가정,생활 > 문구,사무용품",
        "place_name": "소프트잉크"
    },
    {
        "category_name": "가정,생활 > 문구,사무용품",
        "place_name": "파랑새문구"
    },
    {
        "category_name": "가정,생활 > 문구,사무용품",
        "place_name": "선향문구"
    },
    {
        "category_name": "가정,생활 > 문구,사무용품",
        "place_name": "알베르토 굿즈샵"
    },
    {
        "category_name": "가정,생활 > 문구,사무용품",
        "place_name": "동아문구"
    },
    {
        "category_name": "가정,생활 > 문구,사무용품",
        "place_name": "그린오피스 송파점"
    },
    {
        "category_name": "가정,생활 > 문구,사무용품",
        "place_name": "가나안문구"
    },
    {
        "category_name": "가정,생활 > 문구,사무용품",
        "place_name": "문빵꾸"
    },
    {
        "category_name": "가정,생활 > 문구,사무용품",
        "place_name": "수놓다진"
    },
    {
        "category_name": "가정,생활 > 문구,사무용품",
        "place_name": "아이셀"
    },
    {
        "category_name": "가정,생활 > 문구,사무용품 > 디자인문구 > 아트박스",
        "place_name": "아트박스 구의점"
    },
    {
        "category_name": "가정,생활 > 문구,사무용품",
        "place_name": "펀펀스토어 리센츠점"
    },
    {
        "category_name": "가정,생활 > 문구,사무용품",
        "place_name": "마리앤 모리"
    },
    {
        "category_name": "가정,생활 > 문구,사무용품 > 디자인문구 > 아트박스",
        "place_name": "아트박스 대치점"
    },
    {
        "category_name": "가정,생활 > 문구,사무용품",
        "place_name": "똥방구 리센츠점"
    },
    {
        "category_name": "가정,생활 > 문구,사무용품",
        "place_name": "와와문구"
    },
    {
        "category_name": "가정,생활 > 문구,사무용품",
        "place_name": "우정팬시문구"
    },
    {
        "category_name": "가정,생활 > 문구,사무용품",
        "place_name": "다솜문구완구"
    },
    {
        "category_name": "가정,생활 > 문구,사무용품",
        "place_name": "알베르토 굿즈샵"
    },
    {
        "category_name": "가정,생활 > 문구,사무용품",
        "place_name": "동아문구"
    },
    {
        "category_name": "가정,생활 > 문구,사무용품",
        "place_name": "그린오피스 송파점"
    },
    {
        "category_name": "가정,생활 > 문구,사무용품",
        "place_name": "가나안문구"
    },
    {
        "category_name": "가정,생활 > 문구,사무용품",
        "place_name": "문빵꾸"
    },
    {
        "category_name": "가정,생활 > 문구,사무용품",
        "place_name": "수놓다진"
    },
    {
        "category_name": "가정,생활 > 문구,사무용품",
        "place_name": "아이셀"
    },
    {
        "category_name": "가정,생활 > 문구,사무용품 > 디자인문구 > 아트박스",
        "place_name": "아트박스 구의점"
    },
    {
        "category_name": "가정,생활 > 문구,사무용품",
        "place_name": "펀펀스토어 리센츠점"
    },
    {
        "category_name": "가정,생활 > 문구,사무용품",
        "place_name": "마리앤 모리"
    },
    {
        "category_name": "가정,생활 > 문구,사무용품 > 디자인문구 > 아트박스",
        "place_name": "아트박스 대치점"
    },
    {
        "category_name": "가정,생활 > 문구,사무용품",
        "place_name": "똥방구 리센츠점"
    },
    {
        "category_name": "가정,생활 > 문구,사무용품",
        "place_name": "와와문구"
    },
    {
        "category_name": "가정,생활 > 문구,사무용품",
        "place_name": "우정팬시문구"
    },
    {
        "category_name": "가정,생활 > 문구,사무용품",
        "place_name": "다솜문구완구"
    },
    {
        "category_name": "가정,생활 > 문구,사무용품",
        "place_name": "알베르토 굿즈샵"
    },
    {
        "category_name": "가정,생활 > 문구,사무용품",
        "place_name": "동아문구"
    },
    {
        "category_name": "가정,생활 > 문구,사무용품",
        "place_name": "그린오피스 송파점"
    },
    {
        "category_name": "가정,생활 > 문구,사무용품",
        "place_name": "가나안문구"
    },
    {
        "category_name": "가정,생활 > 문구,사무용품",
        "place_name": "문빵꾸"
    },
    {
        "category_name": "가정,생활 > 문구,사무용품",
        "place_name": "수놓다진"
    },
    {
        "category_name": "가정,생활 > 문구,사무용품",
        "place_name": "아이셀"
    },
    {
        "category_name": "가정,생활 > 문구,사무용품 > 디자인문구 > 아트박스",
        "place_name": "아트박스 구의점"
    },
    {
        "category_name": "가정,생활 > 문구,사무용품",
        "place_name": "펀펀스토어 리센츠점"
    },
    {
        "category_name": "가정,생활 > 문구,사무용품",
        "place_name": "마리앤 모리"
    },
    {
        "category_name": "가정,생활 > 문구,사무용품 > 디자인문구 > 아트박스",
        "place_name": "아트박스 대치점"
    },
    {
        "category_name": "가정,생활 > 문구,사무용품",
        "place_name": "똥방구 리센츠점"
    },
    {
        "category_name": "가정,생활 > 문구,사무용품",
        "place_name": "와와문구"
    },
    {
        "category_name": "가정,생활 > 문구,사무용품",
        "place_name": "우정팬시문구"
    },
    {
        "category_name": "가정,생활 > 문구,사무용품",
        "place_name": "다솜문구완구"
    },
    {
        "category_name": "가정,생활 > 문구,사무용품",
        "place_name": "알베르토 굿즈샵"
    },
    {
        "category_name": "가정,생활 > 문구,사무용품",
        "place_name": "동아문구"
    },
    {
        "category_name": "가정,생활 > 문구,사무용품",
        "place_name": "그린오피스 송파점"
    },
    {
        "category_name": "가정,생활 > 문구,사무용품",
        "place_name": "가나안문구"
    },
    {
        "category_name": "가정,생활 > 문구,사무용품",
        "place_name": "문빵꾸"
    },
    {
        "category_name": "가정,생활 > 문구,사무용품",
        "place_name": "수놓다진"
    },
    {
        "category_name": "가정,생활 > 문구,사무용품",
        "place_name": "아이셀"
    },
    {
        "category_name": "가정,생활 > 문구,사무용품 > 디자인문구 > 아트박스",
        "place_name": "아트박스 구의점"
    },
    {
        "category_name": "가정,생활 > 문구,사무용품",
        "place_name": "펀펀스토어 리센츠점"
    },
    {
        "category_name": "가정,생활 > 문구,사무용품",
        "place_name": "마리앤 모리"
    },
    {
        "category_name": "가정,생활 > 문구,사무용품 > 디자인문구 > 아트박스",
        "place_name": "아트박스 대치점"
    },
    {
        "category_name": "가정,생활 > 문구,사무용품",
        "place_name": "똥방구 리센츠점"
    },
    {
        "category_name": "가정,생활 > 문구,사무용품",
        "place_name": "와와문구"
    },
    {
        "category_name": "가정,생활 > 문구,사무용품",
        "place_name": "우정팬시문구"
    },
    {
        "category_name": "가정,생활 > 문구,사무용품",
        "place_name": "다솜문구완구"
    },
    {
        "category_name": "가정,생활 > 문구,사무용품",
        "place_name": "알베르토 굿즈샵"
    },
    {
        "category_name": "가정,생활 > 문구,사무용품",
        "place_name": "동아문구"
    },
    {
        "category_name": "가정,생활 > 문구,사무용품",
        "place_name": "그린오피스 송파점"
    },
    {
        "category_name": "가정,생활 > 문구,사무용품",
        "place_name": "가나안문구"
    },
    {
        "category_name": "가정,생활 > 문구,사무용품",
        "place_name": "문빵꾸"
    },
    {
        "category_name": "가정,생활 > 문구,사무용품",
        "place_name": "수놓다진"
    },
    {
        "category_name": "가정,생활 > 문구,사무용품",
        "place_name": "아이셀"
    },
    {
        "category_name": "가정,생활 > 문구,사무용품 > 디자인문구 > 아트박스",
        "place_name": "아트박스 구의점"
    },
    {
        "category_name": "가정,생활 > 문구,사무용품",
        "place_name": "펀펀스토어 리센츠점"
    },
    {
        "category_name": "가정,생활 > 문구,사무용품",
        "place_name": "마리앤 모리"
    },
    {
        "category_name": "가정,생활 > 문구,사무용품 > 디자인문구 > 아트박스",
        "place_name": "아트박스 대치점"
    },
    {
        "category_name": "가정,생활 > 문구,사무용품",
        "place_name": "똥방구 리센츠점"
    },
    {
        "category_name": "가정,생활 > 문구,사무용품",
        "place_name": "와와문구"
    },
    {
        "category_name": "가정,생활 > 문구,사무용품",
        "place_name": "우정팬시문구"
    },
    {
        "category_name": "가정,생활 > 문구,사무용품",
        "place_name": "다솜문구완구"
    },
    {
        "category_name": "가정,생활 > 문구,사무용품",
        "place_name": "알베르토 굿즈샵"
    },
    {
        "category_name": "가정,생활 > 문구,사무용품",
        "place_name": "동아문구"
    },
    {
        "category_name": "가정,생활 > 문구,사무용품",
        "place_name": "그린오피스 송파점"
    },
    {
        "category_name": "가정,생활 > 문구,사무용품",
        "place_name": "가나안문구"
    },
    {
        "category_name": "가정,생활 > 문구,사무용품",
        "place_name": "문빵꾸"
    },
    {
        "category_name": "가정,생활 > 문구,사무용품",
        "place_name": "수놓다진"
    },
    {
        "category_name": "가정,생활 > 문구,사무용품",
        "place_name": "아이셀"
    },
    {
        "category_name": "가정,생활 > 문구,사무용품 > 디자인문구 > 아트박스",
        "place_name": "아트박스 구의점"
    },
    {
        "category_name": "가정,생활 > 문구,사무용품",
        "place_name": "펀펀스토어 리센츠점"
    },
    {
        "category_name": "가정,생활 > 문구,사무용품",
        "place_name": "마리앤 모리"
    },
    {
        "category_name": "가정,생활 > 문구,사무용품 > 디자인문구 > 아트박스",
        "place_name": "아트박스 대치점"
    },
    {
        "category_name": "가정,생활 > 문구,사무용품",
        "place_name": "똥방구 리센츠점"
    },
    {
        "category_name": "가정,생활 > 문구,사무용품",
        "place_name": "와와문구"
    },
    {
        "category_name": "가정,생활 > 문구,사무용품",
        "place_name": "우정팬시문구"
    },
    {
        "category_name": "가정,생활 > 문구,사무용품",
        "place_name": "다솜문구완구"
    },
    {
        "category_name": "가정,생활 > 문구,사무용품",
        "place_name": "알베르토 굿즈샵"
    },
    {
        "category_name": "가정,생활 > 문구,사무용품",
        "place_name": "동아문구"
    },
    {
        "category_name": "가정,생활 > 문구,사무용품",
        "place_name": "그린오피스 송파점"
    },
    {
        "category_name": "가정,생활 > 문구,사무용품",
        "place_name": "가나안문구"
    },
    {
        "category_name": "가정,생활 > 문구,사무용품",
        "place_name": "문빵꾸"
    },
    {
        "category_name": "가정,생활 > 문구,사무용품",
        "place_name": "수놓다진"
    },
    {
        "category_name": "가정,생활 > 문구,사무용품",
        "place_name": "아이셀"
    },
    {
        "category_name": "가정,생활 > 문구,사무용품 > 디자인문구 > 아트박스",
        "place_name": "아트박스 구의점"
    },
    {
        "category_name": "가정,생활 > 문구,사무용품",
        "place_name": "펀펀스토어 리센츠점"
    },
    {
        "category_name": "가정,생활 > 문구,사무용품",
        "place_name": "마리앤 모리"
    },
    {
        "category_name": "가정,생활 > 문구,사무용품 > 디자인문구 > 아트박스",
        "place_name": "아트박스 대치점"
    },
    {
        "category_name": "가정,생활 > 문구,사무용품",
        "place_name": "똥방구 리센츠점"
    },
    {
        "category_name": "가정,생활 > 문구,사무용품",
        "place_name": "와와문구"
    },
    {
        "category_name": "가정,생활 > 문구,사무용품",
        "place_name": "우정팬시문구"
    },
    {
        "category_name": "가정,생활 > 문구,사무용품",
        "place_name": "다솜문구완구"
    },
    {
        "category_name": "가정,생활 > 문구,사무용품",
        "place_name": "알베르토 굿즈샵"
    },
    {
        "category_name": "가정,생활 > 문구,사무용품",
        "place_name": "동아문구"
    },
    {
        "category_name": "가정,생활 > 문구,사무용품",
        "place_name": "그린오피스 송파점"
    },
    {
        "category_name": "가정,생활 > 문구,사무용품",
        "place_name": "가나안문구"
    },
    {
        "category_name": "가정,생활 > 문구,사무용품",
        "place_name": "문빵꾸"
    },
    {
        "category_name": "가정,생활 > 문구,사무용품",
        "place_name": "수놓다진"
    },
    {
        "category_name": "가정,생활 > 문구,사무용품",
        "place_name": "아이셀"
    },
    {
        "category_name": "가정,생활 > 문구,사무용품 > 디자인문구 > 아트박스",
        "place_name": "아트박스 구의점"
    },
    {
        "category_name": "가정,생활 > 문구,사무용품",
        "place_name": "펀펀스토어 리센츠점"
    },
    {
        "category_name": "가정,생활 > 문구,사무용품",
        "place_name": "마리앤 모리"
    },
    {
        "category_name": "가정,생활 > 문구,사무용품 > 디자인문구 > 아트박스",
        "place_name": "아트박스 대치점"
    },
    {
        "category_name": "가정,생활 > 문구,사무용품",
        "place_name": "똥방구 리센츠점"
    },
    {
        "category_name": "가정,생활 > 문구,사무용품",
        "place_name": "와와문구"
    },
    {
        "category_name": "가정,생활 > 문구,사무용품",
        "place_name": "우정팬시문구"
    },
    {
        "category_name": "가정,생활 > 문구,사무용품",
        "place_name": "다솜문구완구"
    },
    {
        "category_name": "가정,생활 > 문구,사무용품",
        "place_name": "알베르토 굿즈샵"
    },
    {
        "category_name": "가정,생활 > 문구,사무용품",
        "place_name": "동아문구"
    },
    {
        "category_name": "가정,생활 > 문구,사무용품",
        "place_name": "그린오피스 송파점"
    },
    {
        "category_name": "가정,생활 > 문구,사무용품",
        "place_name": "가나안문구"
    },
    {
        "category_name": "가정,생활 > 문구,사무용품",
        "place_name": "문빵꾸"
    },
    {
        "category_name": "가정,생활 > 문구,사무용품",
        "place_name": "수놓다진"
    },
    {
        "category_name": "가정,생활 > 문구,사무용품",
        "place_name": "아이셀"
    },
    {
        "category_name": "가정,생활 > 문구,사무용품 > 디자인문구 > 아트박스",
        "place_name": "아트박스 구의점"
    },
    {
        "category_name": "가정,생활 > 문구,사무용품",
        "place_name": "펀펀스토어 리센츠점"
    },
    {
        "category_name": "가정,생활 > 문구,사무용품",
        "place_name": "마리앤 모리"
    },
    {
        "category_name": "가정,생활 > 문구,사무용품 > 디자인문구 > 아트박스",
        "place_name": "아트박스 대치점"
    },
    {
        "category_name": "가정,생활 > 문구,사무용품",
        "place_name": "똥방구 리센츠점"
    },
    {
        "category_name": "가정,생활 > 문구,사무용품",
        "place_name": "와와문구"
    },
    {
        "category_name": "가정,생활 > 문구,사무용품",
        "place_name": "우정팬시문구"
    },
    {
        "category_name": "가정,생활 > 문구,사무용품",
        "place_name": "다솜문구완구"
    },
    {
        "category_name": "가정,생활 > 문구,사무용품",
        "place_name": "알베르토 굿즈샵"
    },
    {
        "category_name": "가정,생활 > 문구,사무용품",
        "place_name": "동아문구"
    },
    {
        "category_name": "가정,생활 > 문구,사무용품",
        "place_name": "그린오피스 송파점"
    },
    {
        "category_name": "가정,생활 > 문구,사무용품",
        "place_name": "가나안문구"
    },
    {
        "category_name": "가정,생활 > 문구,사무용품",
        "place_name": "문빵꾸"
    },
    {
        "category_name": "가정,생활 > 문구,사무용품",
        "place_name": "수놓다진"
    },
    {
        "category_name": "가정,생활 > 문구,사무용품",
        "place_name": "아이셀"
    },
    {
        "category_name": "가정,생활 > 문구,사무용품 > 디자인문구 > 아트박스",
        "place_name": "아트박스 구의점"
    },
    {
        "category_name": "가정,생활 > 문구,사무용품",
        "place_name": "펀펀스토어 리센츠점"
    },
    {
        "category_name": "가정,생활 > 문구,사무용품",
        "place_name": "마리앤 모리"
    },
    {
        "category_name": "가정,생활 > 문구,사무용품 > 디자인문구 > 아트박스",
        "place_name": "아트박스 대치점"
    },
    {
        "category_name": "가정,생활 > 문구,사무용품",
        "place_name": "똥방구 리센츠점"
    },
    {
        "category_name": "가정,생활 > 문구,사무용품",
        "place_name": "와와문구"
    },
    {
        "category_name": "가정,생활 > 문구,사무용품",
        "place_name": "우정팬시문구"
    },
    {
        "category_name": "가정,생활 > 문구,사무용품",
        "place_name": "다솜문구완구"
    },
    {
        "category_name": "가정,생활 > 문구,사무용품",
        "place_name": "알베르토 굿즈샵"
    },
    {
        "category_name": "가정,생활 > 문구,사무용품",
        "place_name": "동아문구"
    },
    {
        "category_name": "가정,생활 > 문구,사무용품",
        "place_name": "그린오피스 송파점"
    },
    {
        "category_name": "가정,생활 > 문구,사무용품",
        "place_name": "가나안문구"
    },
    {
        "category_name": "가정,생활 > 문구,사무용품",
        "place_name": "문빵꾸"
    },
    {
        "category_name": "가정,생활 > 문구,사무용품",
        "place_name": "수놓다진"
    },
    {
        "category_name": "가정,생활 > 문구,사무용품",
        "place_name": "아이셀"
    },
    {
        "category_name": "가정,생활 > 문구,사무용품 > 디자인문구 > 아트박스",
        "place_name": "아트박스 구의점"
    },
    {
        "category_name": "가정,생활 > 문구,사무용품",
        "place_name": "펀펀스토어 리센츠점"
    },
    {
        "category_name": "가정,생활 > 문구,사무용품",
        "place_name": "마리앤 모리"
    },
    {
        "category_name": "가정,생활 > 문구,사무용품 > 디자인문구 > 아트박스",
        "place_name": "아트박스 대치점"
    },
    {
        "category_name": "가정,생활 > 문구,사무용품",
        "place_name": "똥방구 리센츠점"
    },
    {
        "category_name": "가정,생활 > 문구,사무용품",
        "place_name": "와와문구"
    },
    {
        "category_name": "가정,생활 > 문구,사무용품",
        "place_name": "우정팬시문구"
    },
    {
        "category_name": "가정,생활 > 문구,사무용품",
        "place_name": "다솜문구완구"
    },
    {
        "category_name": "가정,생활 > 문구,사무용품",
        "place_name": "알베르토 굿즈샵"
    },
    {
        "category_name": "가정,생활 > 문구,사무용품",
        "place_name": "동아문구"
    },
    {
        "category_name": "가정,생활 > 문구,사무용품",
        "place_name": "그린오피스 송파점"
    },
    {
        "category_name": "가정,생활 > 문구,사무용품",
        "place_name": "가나안문구"
    },
    {
        "category_name": "가정,생활 > 문구,사무용품",
        "place_name": "문빵꾸"
    },
    {
        "category_name": "가정,생활 > 문구,사무용품",
        "place_name": "수놓다진"
    },
    {
        "category_name": "가정,생활 > 문구,사무용품",
        "place_name": "아이셀"
    },
    {
        "category_name": "가정,생활 > 문구,사무용품 > 디자인문구 > 아트박스",
        "place_name": "아트박스 구의점"
    },
    {
        "category_name": "가정,생활 > 문구,사무용품",
        "place_name": "펀펀스토어 리센츠점"
    },
    {
        "category_name": "가정,생활 > 문구,사무용품",
        "place_name": "마리앤 모리"
    },
    {
        "category_name": "가정,생활 > 문구,사무용품 > 디자인문구 > 아트박스",
        "place_name": "아트박스 대치점"
    },
    {
        "category_name": "가정,생활 > 문구,사무용품",
        "place_name": "똥방구 리센츠점"
    },
    {
        "category_name": "가정,생활 > 문구,사무용품",
        "place_name": "와와문구"
    },
    {
        "category_name": "가정,생활 > 문구,사무용품",
        "place_name": "우정팬시문구"
    },
    {
        "category_name": "가정,생활 > 문구,사무용품",
        "place_name": "다솜문구완구"
    },
    {
        "category_name": "가정,생활 > 문구,사무용품",
        "place_name": "알베르토 굿즈샵"
    },
    {
        "category_name": "가정,생활 > 문구,사무용품",
        "place_name": "동아문구"
    },
    {
        "category_name": "가정,생활 > 문구,사무용품",
        "place_name": "그린오피스 송파점"
    },
    {
        "category_name": "가정,생활 > 문구,사무용품",
        "place_name": "가나안문구"
    },
    {
        "category_name": "가정,생활 > 문구,사무용품",
        "place_name": "문빵꾸"
    },
    {
        "category_name": "가정,생활 > 문구,사무용품",
        "place_name": "수놓다진"
    },
    {
        "category_name": "가정,생활 > 문구,사무용품",
        "place_name": "아이셀"
    },
    {
        "category_name": "가정,생활 > 문구,사무용품 > 디자인문구 > 아트박스",
        "place_name": "아트박스 구의점"
    },
    {
        "category_name": "가정,생활 > 문구,사무용품",
        "place_name": "펀펀스토어 리센츠점"
    },
    {
        "category_name": "가정,생활 > 문구,사무용품",
        "place_name": "마리앤 모리"
    },
    {
        "category_name": "가정,생활 > 문구,사무용품 > 디자인문구 > 아트박스",
        "place_name": "아트박스 대치점"
    },
    {
        "category_name": "가정,생활 > 문구,사무용품",
        "place_name": "똥방구 리센츠점"
    },
    {
        "category_name": "가정,생활 > 문구,사무용품",
        "place_name": "와와문구"
    },
    {
        "category_name": "가정,생활 > 문구,사무용품",
        "place_name": "우정팬시문구"
    },
    {
        "category_name": "가정,생활 > 문구,사무용품",
        "place_name": "다솜문구완구"
    },
    {
        "category_name": "가정,생활 > 문구,사무용품",
        "place_name": "알베르토 굿즈샵"
    },
    {
        "category_name": "가정,생활 > 문구,사무용품",
        "place_name": "동아문구"
    },
    {
        "category_name": "가정,생활 > 문구,사무용품",
        "place_name": "그린오피스 송파점"
    },
    {
        "category_name": "가정,생활 > 문구,사무용품",
        "place_name": "가나안문구"
    },
    {
        "category_name": "가정,생활 > 문구,사무용품",
        "place_name": "문빵꾸"
    },
    {
        "category_name": "가정,생활 > 문구,사무용품",
        "place_name": "수놓다진"
    },
    {
        "category_name": "가정,생활 > 문구,사무용품",
        "place_name": "아이셀"
    },
    {
        "category_name": "가정,생활 > 문구,사무용품 > 디자인문구 > 아트박스",
        "place_name": "아트박스 구의점"
    },
    {
        "category_name": "가정,생활 > 문구,사무용품",
        "place_name": "펀펀스토어 리센츠점"
    },
    {
        "category_name": "가정,생활 > 문구,사무용품",
        "place_name": "마리앤 모리"
    },
    {
        "category_name": "가정,생활 > 문구,사무용품 > 디자인문구 > 아트박스",
        "place_name": "아트박스 대치점"
    },
    {
        "category_name": "가정,생활 > 문구,사무용품",
        "place_name": "똥방구 리센츠점"
    },
    {
        "category_name": "가정,생활 > 문구,사무용품",
        "place_name": "와와문구"
    },
    {
        "category_name": "가정,생활 > 문구,사무용품",
        "place_name": "우정팬시문구"
    },
    {
        "category_name": "가정,생활 > 문구,사무용품",
        "place_name": "다솜문구완구"
    },
    {
        "category_name": "가정,생활 > 문구,사무용품",
        "place_name": "알베르토 굿즈샵"
    },
    {
        "category_name": "가정,생활 > 문구,사무용품",
        "place_name": "동아문구"
    },
    {
        "category_name": "가정,생활 > 문구,사무용품",
        "place_name": "그린오피스 송파점"
    },
    {
        "category_name": "가정,생활 > 문구,사무용품",
        "place_name": "가나안문구"
    },
    {
        "category_name": "가정,생활 > 문구,사무용품",
        "place_name": "문빵꾸"
    },
    {
        "category_name": "가정,생활 > 문구,사무용품",
        "place_name": "수놓다진"
    },
    {
        "category_name": "가정,생활 > 문구,사무용품",
        "place_name": "아이셀"
    },
    {
        "category_name": "가정,생활 > 문구,사무용품 > 디자인문구 > 아트박스",
        "place_name": "아트박스 구의점"
    },
    {
        "category_name": "가정,생활 > 문구,사무용품",
        "place_name": "펀펀스토어 리센츠점"
    },
    {
        "category_name": "가정,생활 > 문구,사무용품",
        "place_name": "마리앤 모리"
    },
    {
        "category_name": "가정,생활 > 문구,사무용품 > 디자인문구 > 아트박스",
        "place_name": "아트박스 대치점"
    },
    {
        "category_name": "가정,생활 > 문구,사무용품",
        "place_name": "똥방구 리센츠점"
    },
    {
        "category_name": "가정,생활 > 문구,사무용품",
        "place_name": "와와문구"
    },
    {
        "category_name": "가정,생활 > 문구,사무용품",
        "place_name": "우정팬시문구"
    },
    {
        "category_name": "가정,생활 > 문구,사무용품",
        "place_name": "다솜문구완구"
    },
    {
        "category_name": "가정,생활 > 문구,사무용품",
        "place_name": "알베르토 굿즈샵"
    },
    {
        "category_name": "가정,생활 > 문구,사무용품",
        "place_name": "동아문구"
    },
    {
        "category_name": "가정,생활 > 문구,사무용품",
        "place_name": "그린오피스 송파점"
    },
    {
        "category_name": "가정,생활 > 문구,사무용품",
        "place_name": "가나안문구"
    },
    {
        "category_name": "가정,생활 > 문구,사무용품",
        "place_name": "문빵꾸"
    },
    {
        "category_name": "가정,생활 > 문구,사무용품",
        "place_name": "수놓다진"
    },
    {
        "category_name": "가정,생활 > 문구,사무용품",
        "place_name": "아이셀"
    },
    {
        "category_name": "가정,생활 > 문구,사무용품 > 디자인문구 > 아트박스",
        "place_name": "아트박스 구의점"
    },
    {
        "category_name": "가정,생활 > 문구,사무용품",
        "place_name": "펀펀스토어 리센츠점"
    },
    {
        "category_name": "가정,생활 > 문구,사무용품",
        "place_name": "마리앤 모리"
    },
    {
        "category_name": "가정,생활 > 문구,사무용품 > 디자인문구 > 아트박스",
        "place_name": "아트박스 대치점"
    },
    {
        "category_name": "가정,생활 > 문구,사무용품",
        "place_name": "똥방구 리센츠점"
    },
    {
        "category_name": "가정,생활 > 문구,사무용품",
        "place_name": "와와문구"
    },
    {
        "category_name": "가정,생활 > 문구,사무용품",
        "place_name": "우정팬시문구"
    },
    {
        "category_name": "가정,생활 > 문구,사무용품",
        "place_name": "다솜문구완구"
    },
    {
        "category_name": "가정,생활 > 문구,사무용품",
        "place_name": "알베르토 굿즈샵"
    },
    {
        "category_name": "가정,생활 > 문구,사무용품",
        "place_name": "동아문구"
    },
    {
        "category_name": "가정,생활 > 문구,사무용품",
        "place_name": "그린오피스 송파점"
    },
    {
        "category_name": "가정,생활 > 문구,사무용품",
        "place_name": "가나안문구"
    },
    {
        "category_name": "가정,생활 > 문구,사무용품",
        "place_name": "문빵꾸"
    },
    {
        "category_name": "가정,생활 > 문구,사무용품",
        "place_name": "수놓다진"
    },
    {
        "category_name": "가정,생활 > 문구,사무용품",
        "place_name": "아이셀"
    },
    {
        "category_name": "가정,생활 > 문구,사무용품 > 디자인문구 > 아트박스",
        "place_name": "아트박스 구의점"
    },
    {
        "category_name": "가정,생활 > 문구,사무용품",
        "place_name": "펀펀스토어 리센츠점"
    },
    {
        "category_name": "가정,생활 > 문구,사무용품",
        "place_name": "마리앤 모리"
    },
    {
        "category_name": "가정,생활 > 문구,사무용품 > 디자인문구 > 아트박스",
        "place_name": "아트박스 대치점"
    },
    {
        "category_name": "가정,생활 > 문구,사무용품",
        "place_name": "똥방구 리센츠점"
    },
    {
        "category_name": "가정,생활 > 문구,사무용품",
        "place_name": "와와문구"
    },
    {
        "category_name": "가정,생활 > 문구,사무용품",
        "place_name": "우정팬시문구"
    },
    {
        "category_name": "가정,생활 > 문구,사무용품",
        "place_name": "다솜문구완구"
    },
    {
        "category_name": "가정,생활 > 문구,사무용품",
        "place_name": "알베르토 굿즈샵"
    },
    {
        "category_name": "가정,생활 > 문구,사무용품",
        "place_name": "동아문구"
    },
    {
        "category_name": "가정,생활 > 문구,사무용품",
        "place_name": "그린오피스 송파점"
    },
    {
        "category_name": "가정,생활 > 문구,사무용품",
        "place_name": "가나안문구"
    },
    {
        "category_name": "가정,생활 > 문구,사무용품",
        "place_name": "문빵꾸"
    },
    {
        "category_name": "가정,생활 > 문구,사무용품",
        "place_name": "수놓다진"
    },
    {
        "category_name": "가정,생활 > 문구,사무용품",
        "place_name": "아이셀"
    },
    {
        "category_name": "가정,생활 > 문구,사무용품 > 디자인문구 > 아트박스",
        "place_name": "아트박스 구의점"
    },
    {
        "category_name": "가정,생활 > 문구,사무용품",
        "place_name": "펀펀스토어 리센츠점"
    },
    {
        "category_name": "가정,생활 > 문구,사무용품",
        "place_name": "마리앤 모리"
    },
    {
        "category_name": "가정,생활 > 문구,사무용품 > 디자인문구 > 아트박스",
        "place_name": "아트박스 대치점"
    },
    {
        "category_name": "가정,생활 > 문구,사무용품",
        "place_name": "똥방구 리센츠점"
    },
    {
        "category_name": "가정,생활 > 문구,사무용품",
        "place_name": "와와문구"
    },
    {
        "category_name": "가정,생활 > 문구,사무용품",
        "place_name": "우정팬시문구"
    },
    {
        "category_name": "가정,생활 > 문구,사무용품",
        "place_name": "다솜문구완구"
    },
    {
        "category_name": "가정,생활 > 문구,사무용품",
        "place_name": "알베르토 굿즈샵"
    },
    {
        "category_name": "가정,생활 > 문구,사무용품",
        "place_name": "동아문구"
    },
    {
        "category_name": "가정,생활 > 문구,사무용품",
        "place_name": "그린오피스 송파점"
    },
    {
        "category_name": "가정,생활 > 문구,사무용품",
        "place_name": "가나안문구"
    },
    {
        "category_name": "가정,생활 > 문구,사무용품",
        "place_name": "문빵꾸"
    },
    {
        "category_name": "가정,생활 > 문구,사무용품",
        "place_name": "수놓다진"
    },
    {
        "category_name": "가정,생활 > 문구,사무용품",
        "place_name": "아이셀"
    },
    {
        "category_name": "가정,생활 > 문구,사무용품 > 디자인문구 > 아트박스",
        "place_name": "아트박스 구의점"
    },
    {
        "category_name": "가정,생활 > 문구,사무용품",
        "place_name": "펀펀스토어 리센츠점"
    },
    {
        "category_name": "가정,생활 > 문구,사무용품",
        "place_name": "마리앤 모리"
    },
    {
        "category_name": "가정,생활 > 문구,사무용품 > 디자인문구 > 아트박스",
        "place_name": "아트박스 대치점"
    },
    {
        "category_name": "가정,생활 > 문구,사무용품",
        "place_name": "똥방구 리센츠점"
    },
    {
        "category_name": "가정,생활 > 문구,사무용품",
        "place_name": "와와문구"
    },
    {
        "category_name": "가정,생활 > 문구,사무용품",
        "place_name": "우정팬시문구"
    },
    {
        "category_name": "가정,생활 > 문구,사무용품",
        "place_name": "다솜문구완구"
    },
    {
        "category_name": "가정,생활 > 문구,사무용품",
        "place_name": "알베르토 굿즈샵"
    },
    {
        "category_name": "가정,생활 > 문구,사무용품",
        "place_name": "동아문구"
    },
    {
        "category_name": "가정,생활 > 문구,사무용품",
        "place_name": "그린오피스 송파점"
    },
    {
        "category_name": "가정,생활 > 문구,사무용품",
        "place_name": "가나안문구"
    },
    {
        "category_name": "가정,생활 > 문구,사무용품",
        "place_name": "문빵꾸"
    },
    {
        "category_name": "가정,생활 > 문구,사무용품",
        "place_name": "수놓다진"
    },
    {
        "category_name": "가정,생활 > 문구,사무용품",
        "place_name": "아이셀"
    },
    {
        "category_name": "가정,생활 > 문구,사무용품 > 디자인문구 > 아트박스",
        "place_name": "아트박스 구의점"
    },
    {
        "category_name": "가정,생활 > 문구,사무용품",
        "place_name": "펀펀스토어 리센츠점"
    },
    {
        "category_name": "가정,생활 > 문구,사무용품",
        "place_name": "마리앤 모리"
    },
    {
        "category_name": "가정,생활 > 문구,사무용품 > 디자인문구 > 아트박스",
        "place_name": "아트박스 대치점"
    },
    {
        "category_name": "가정,생활 > 문구,사무용품",
        "place_name": "똥방구 리센츠점"
    },
    {
        "category_name": "가정,생활 > 문구,사무용품",
        "place_name": "와와문구"
    },
    {
        "category_name": "가정,생활 > 문구,사무용품",
        "place_name": "우정팬시문구"
    },
    {
        "category_name": "가정,생활 > 문구,사무용품",
        "place_name": "다솜문구완구"
    },
    {
        "category_name": "가정,생활 > 문구,사무용품",
        "place_name": "알베르토 굿즈샵"
    },
    {
        "category_name": "가정,생활 > 문구,사무용품",
        "place_name": "동아문구"
    },
    {
        "category_name": "가정,생활 > 문구,사무용품",
        "place_name": "그린오피스 송파점"
    },
    {
        "category_name": "가정,생활 > 문구,사무용품",
        "place_name": "가나안문구"
    },
    {
        "category_name": "가정,생활 > 문구,사무용품",
        "place_name": "문빵꾸"
    },
    {
        "category_name": "가정,생활 > 문구,사무용품",
        "place_name": "수놓다진"
    },
    {
        "category_name": "가정,생활 > 문구,사무용품",
        "place_name": "아이셀"
    },
    {
        "category_name": "가정,생활 > 문구,사무용품 > 디자인문구 > 아트박스",
        "place_name": "아트박스 구의점"
    },
    {
        "category_name": "가정,생활 > 문구,사무용품",
        "place_name": "펀펀스토어 리센츠점"
    },
    {
        "category_name": "가정,생활 > 문구,사무용품",
        "place_name": "마리앤 모리"
    },
    {
        "category_name": "가정,생활 > 문구,사무용품 > 디자인문구 > 아트박스",
        "place_name": "아트박스 대치점"
    },
    {
        "category_name": "가정,생활 > 문구,사무용품",
        "place_name": "똥방구 리센츠점"
    },
    {
        "category_name": "가정,생활 > 문구,사무용품",
        "place_name": "와와문구"
    },
    {
        "category_name": "가정,생활 > 문구,사무용품",
        "place_name": "우정팬시문구"
    },
    {
        "category_name": "가정,생활 > 문구,사무용품",
        "place_name": "다솜문구완구"
    },
    {
        "category_name": "가정,생활 > 문구,사무용품",
        "place_name": "알베르토 굿즈샵"
    },
    {
        "category_name": "가정,생활 > 문구,사무용품",
        "place_name": "동아문구"
    },
    {
        "category_name": "가정,생활 > 문구,사무용품",
        "place_name": "그린오피스 송파점"
    },
    {
        "category_name": "가정,생활 > 문구,사무용품",
        "place_name": "가나안문구"
    },
    {
        "category_name": "가정,생활 > 문구,사무용품",
        "place_name": "문빵꾸"
    },
    {
        "category_name": "가정,생활 > 문구,사무용품",
        "place_name": "수놓다진"
    },
    {
        "category_name": "가정,생활 > 문구,사무용품",
        "place_name": "아이셀"
    },
    {
        "category_name": "가정,생활 > 문구,사무용품 > 디자인문구 > 아트박스",
        "place_name": "아트박스 구의점"
    },
    {
        "category_name": "가정,생활 > 문구,사무용품",
        "place_name": "펀펀스토어 리센츠점"
    },
    {
        "category_name": "가정,생활 > 문구,사무용품",
        "place_name": "마리앤 모리"
    },
    {
        "category_name": "가정,생활 > 문구,사무용품 > 디자인문구 > 아트박스",
        "place_name": "아트박스 대치점"
    },
    {
        "category_name": "가정,생활 > 문구,사무용품",
        "place_name": "똥방구 리센츠점"
    },
    {
        "category_name": "가정,생활 > 문구,사무용품",
        "place_name": "와와문구"
    },
    {
        "category_name": "가정,생활 > 문구,사무용품",
        "place_name": "우정팬시문구"
    },
    {
        "category_name": "가정,생활 > 문구,사무용품",
        "place_name": "다솜문구완구"
    },
    {
        "category_name": "가정,생활 > 문구,사무용품",
        "place_name": "알베르토 굿즈샵"
    },
    {
        "category_name": "가정,생활 > 문구,사무용품",
        "place_name": "동아문구"
    },
    {
        "category_name": "가정,생활 > 문구,사무용품",
        "place_name": "그린오피스 송파점"
    },
    {
        "category_name": "가정,생활 > 문구,사무용품",
        "place_name": "가나안문구"
    },
    {
        "category_name": "가정,생활 > 문구,사무용품",
        "place_name": "문빵꾸"
    },
    {
        "category_name": "가정,생활 > 문구,사무용품",
        "place_name": "수놓다진"
    },
    {
        "category_name": "가정,생활 > 문구,사무용품",
        "place_name": "아이셀"
    },
    {
        "category_name": "가정,생활 > 문구,사무용품 > 디자인문구 > 아트박스",
        "place_name": "아트박스 구의점"
    },
    {
        "category_name": "가정,생활 > 문구,사무용품",
        "place_name": "펀펀스토어 리센츠점"
    },
    {
        "category_name": "가정,생활 > 문구,사무용품",
        "place_name": "마리앤 모리"
    },
    {
        "category_name": "가정,생활 > 문구,사무용품 > 디자인문구 > 아트박스",
        "place_name": "아트박스 대치점"
    },
    {
        "category_name": "가정,생활 > 문구,사무용품",
        "place_name": "똥방구 리센츠점"
    },
    {
        "category_name": "가정,생활 > 문구,사무용품",
        "place_name": "와와문구"
    },
    {
        "category_name": "가정,생활 > 문구,사무용품",
        "place_name": "우정팬시문구"
    },
    {
        "category_name": "가정,생활 > 문구,사무용품",
        "place_name": "다솜문구완구"
    },
    {
        "category_name": "가정,생활 > 문구,사무용품",
        "place_name": "알베르토 굿즈샵"
    },
    {
        "category_name": "가정,생활 > 문구,사무용품",
        "place_name": "동아문구"
    },
    {
        "category_name": "가정,생활 > 문구,사무용품",
        "place_name": "그린오피스 송파점"
    },
    {
        "category_name": "가정,생활 > 문구,사무용품",
        "place_name": "가나안문구"
    },
    {
        "category_name": "가정,생활 > 문구,사무용품",
        "place_name": "문빵꾸"
    },
    {
        "category_name": "가정,생활 > 문구,사무용품",
        "place_name": "수놓다진"
    },
    {
        "category_name": "가정,생활 > 문구,사무용품",
        "place_name": "아이셀"
    },
    {
        "category_name": "가정,생활 > 문구,사무용품 > 디자인문구 > 아트박스",
        "place_name": "아트박스 구의점"
    },
    {
        "category_name": "가정,생활 > 문구,사무용품",
        "place_name": "펀펀스토어 리센츠점"
    },
    {
        "category_name": "가정,생활 > 문구,사무용품",
        "place_name": "마리앤 모리"
    },
    {
        "category_name": "가정,생활 > 문구,사무용품 > 디자인문구 > 아트박스",
        "place_name": "아트박스 대치점"
    },
    {
        "category_name": "가정,생활 > 문구,사무용품",
        "place_name": "똥방구 리센츠점"
    },
    {
        "category_name": "가정,생활 > 문구,사무용품",
        "place_name": "와와문구"
    },
    {
        "category_name": "가정,생활 > 문구,사무용품",
        "place_name": "우정팬시문구"
    },
    {
        "category_name": "가정,생활 > 문구,사무용품",
        "place_name": "다솜문구완구"
    },
    {
        "category_name": "가정,생활 > 문구,사무용품",
        "place_name": "알베르토 굿즈샵"
    },
    {
        "category_name": "가정,생활 > 문구,사무용품",
        "place_name": "동아문구"
    },
    {
        "category_name": "가정,생활 > 문구,사무용품",
        "place_name": "그린오피스 송파점"
    },
    {
        "category_name": "가정,생활 > 문구,사무용품",
        "place_name": "가나안문구"
    },
    {
        "category_name": "가정,생활 > 문구,사무용품",
        "place_name": "문빵꾸"
    },
    {
        "category_name": "가정,생활 > 문구,사무용품",
        "place_name": "수놓다진"
    },
    {
        "category_name": "가정,생활 > 문구,사무용품",
        "place_name": "아이셀"
    },
    {
        "category_name": "가정,생활 > 문구,사무용품 > 디자인문구 > 아트박스",
        "place_name": "아트박스 구의점"
    },
    {
        "category_name": "가정,생활 > 문구,사무용품",
        "place_name": "펀펀스토어 리센츠점"
    },
    {
        "category_name": "가정,생활 > 문구,사무용품",
        "place_name": "마리앤 모리"
    },
    {
        "category_name": "가정,생활 > 문구,사무용품 > 디자인문구 > 아트박스",
        "place_name": "아트박스 대치점"
    },
    {
        "category_name": "가정,생활 > 문구,사무용품",
        "place_name": "똥방구 리센츠점"
    },
    {
        "category_name": "가정,생활 > 문구,사무용품",
        "place_name": "와와문구"
    },
    {
        "category_name": "가정,생활 > 문구,사무용품",
        "place_name": "우정팬시문구"
    },
    {
        "category_name": "가정,생활 > 문구,사무용품",
        "place_name": "다솜문구완구"
    },
    {
        "category_name": "가정,생활 > 문구,사무용품",
        "place_name": "알베르토 굿즈샵"
    },
    {
        "category_name": "가정,생활 > 문구,사무용품",
        "place_name": "동아문구"
    },
    {
        "category_name": "가정,생활 > 문구,사무용품",
        "place_name": "그린오피스 송파점"
    },
    {
        "category_name": "가정,생활 > 문구,사무용품",
        "place_name": "가나안문구"
    },
    {
        "category_name": "가정,생활 > 문구,사무용품",
        "place_name": "문빵꾸"
    },
    {
        "category_name": "가정,생활 > 문구,사무용품",
        "place_name": "수놓다진"
    },
    {
        "category_name": "가정,생활 > 문구,사무용품",
        "place_name": "아이셀"
    },
    {
        "category_name": "가정,생활 > 문구,사무용품 > 디자인문구 > 아트박스",
        "place_name": "아트박스 구의점"
    },
    {
        "category_name": "가정,생활 > 문구,사무용품",
        "place_name": "펀펀스토어 리센츠점"
    },
    {
        "category_name": "가정,생활 > 문구,사무용품",
        "place_name": "마리앤 모리"
    },
    {
        "category_name": "가정,생활 > 문구,사무용품 > 디자인문구 > 아트박스",
        "place_name": "아트박스 대치점"
    },
    {
        "category_name": "가정,생활 > 문구,사무용품",
        "place_name": "똥방구 리센츠점"
    },
    {
        "category_name": "가정,생활 > 문구,사무용품",
        "place_name": "와와문구"
    },
    {
        "category_name": "가정,생활 > 문구,사무용품",
        "place_name": "우정팬시문구"
    },
    {
        "category_name": "가정,생활 > 문구,사무용품",
        "place_name": "다솜문구완구"
    },
    {
        "category_name": "가정,생활 > 문구,사무용품",
        "place_name": "알베르토 굿즈샵"
    },
    {
        "category_name": "가정,생활 > 문구,사무용품",
        "place_name": "동아문구"
    },
    {
        "category_name": "가정,생활 > 문구,사무용품",
        "place_name": "그린오피스 송파점"
    },
    {
        "category_name": "가정,생활 > 문구,사무용품",
        "place_name": "가나안문구"
    },
    {
        "category_name": "가정,생활 > 문구,사무용품",
        "place_name": "문빵꾸"
    },
    {
        "category_name": "가정,생활 > 문구,사무용품",
        "place_name": "수놓다진"
    },
    {
        "category_name": "가정,생활 > 문구,사무용품",
        "place_name": "아이셀"
    },
    {
        "category_name": "가정,생활 > 문구,사무용품 > 디자인문구 > 아트박스",
        "place_name": "아트박스 구의점"
    },
    {
        "category_name": "가정,생활 > 문구,사무용품",
        "place_name": "펀펀스토어 리센츠점"
    },
    {
        "category_name": "가정,생활 > 문구,사무용품",
        "place_name": "마리앤 모리"
    },
    {
        "category_name": "가정,생활 > 문구,사무용품 > 디자인문구 > 아트박스",
        "place_name": "아트박스 대치점"
    },
    {
        "category_name": "가정,생활 > 문구,사무용품",
        "place_name": "똥방구 리센츠점"
    },
    {
        "category_name": "가정,생활 > 문구,사무용품",
        "place_name": "와와문구"
    },
    {
        "category_name": "가정,생활 > 문구,사무용품",
        "place_name": "우정팬시문구"
    },
    {
        "category_name": "가정,생활 > 문구,사무용품",
        "place_name": "다솜문구완구"
    },
    {
        "category_name": "가정,생활 > 문구,사무용품",
        "place_name": "알베르토 굿즈샵"
    },
    {
        "category_name": "가정,생활 > 문구,사무용품",
        "place_name": "동아문구"
    },
    {
        "category_name": "가정,생활 > 문구,사무용품",
        "place_name": "그린오피스 송파점"
    },
    {
        "category_name": "가정,생활 > 문구,사무용품",
        "place_name": "가나안문구"
    },
    {
        "category_name": "가정,생활 > 문구,사무용품",
        "place_name": "문빵꾸"
    },
    {
        "category_name": "가정,생활 > 문구,사무용품",
        "place_name": "수놓다진"
    },
    {
        "category_name": "가정,생활 > 문구,사무용품",
        "place_name": "아이셀"
    },
    {
        "category_name": "가정,생활 > 문구,사무용품 > 디자인문구 > 아트박스",
        "place_name": "아트박스 구의점"
    },
    {
        "category_name": "가정,생활 > 문구,사무용품",
        "place_name": "펀펀스토어 리센츠점"
    },
    {
        "category_name": "가정,생활 > 문구,사무용품",
        "place_name": "마리앤 모리"
    },
    {
        "category_name": "가정,생활 > 문구,사무용품 > 디자인문구 > 아트박스",
        "place_name": "아트박스 대치점"
    },
    {
        "category_name": "가정,생활 > 문구,사무용품",
        "place_name": "똥방구 리센츠점"
    },
    {
        "category_name": "가정,생활 > 문구,사무용품",
        "place_name": "와와문구"
    },
    {
        "category_name": "가정,생활 > 문구,사무용품",
        "place_name": "우정팬시문구"
    },
    {
        "category_name": "가정,생활 > 문구,사무용품",
        "place_name": "다솜문구완구"
    },
    {
        "category_name": "가정,생활 > 문구,사무용품",
        "place_name": "알베르토 굿즈샵"
    },
    {
        "category_name": "가정,생활 > 문구,사무용품",
        "place_name": "동아문구"
    },
    {
        "category_name": "가정,생활 > 문구,사무용품",
        "place_name": "그린오피스 송파점"
    },
    {
        "category_name": "가정,생활 > 문구,사무용품",
        "place_name": "가나안문구"
    },
    {
        "category_name": "가정,생활 > 문구,사무용품",
        "place_name": "문빵꾸"
    },
    {
        "category_name": "가정,생활 > 문구,사무용품",
        "place_name": "수놓다진"
    },
    {
        "category_name": "가정,생활 > 문구,사무용품",
        "place_name": "아이셀"
    },
    {
        "category_name": "가정,생활 > 문구,사무용품 > 디자인문구 > 아트박스",
        "place_name": "아트박스 구의점"
    },
    {
        "category_name": "가정,생활 > 문구,사무용품",
        "place_name": "펀펀스토어 리센츠점"
    },
    {
        "category_name": "가정,생활 > 문구,사무용품",
        "place_name": "마리앤 모리"
    },
    {
        "category_name": "가정,생활 > 문구,사무용품 > 디자인문구 > 아트박스",
        "place_name": "아트박스 대치점"
    },
    {
        "category_name": "가정,생활 > 문구,사무용품",
        "place_name": "똥방구 리센츠점"
    },
    {
        "category_name": "가정,생활 > 문구,사무용품",
        "place_name": "와와문구"
    },
    {
        "category_name": "가정,생활 > 문구,사무용품",
        "place_name": "우정팬시문구"
    },
    {
        "category_name": "가정,생활 > 문구,사무용품",
        "place_name": "다솜문구완구"
    },
    {
        "category_name": "가정,생활 > 문구,사무용품",
        "place_name": "알베르토 굿즈샵"
    },
    {
        "category_name": "가정,생활 > 문구,사무용품",
        "place_name": "동아문구"
    },
    {
        "category_name": "가정,생활 > 문구,사무용품",
        "place_name": "그린오피스 송파점"
    },
    {
        "category_name": "가정,생활 > 문구,사무용품",
        "place_name": "가나안문구"
    },
    {
        "category_name": "가정,생활 > 문구,사무용품",
        "place_name": "문빵꾸"
    },
    {
        "category_name": "가정,생활 > 문구,사무용품",
        "place_name": "수놓다진"
    },
    {
        "category_name": "가정,생활 > 문구,사무용품",
        "place_name": "아이셀"
    },
    {
        "category_name": "가정,생활 > 문구,사무용품 > 디자인문구 > 아트박스",
        "place_name": "아트박스 구의점"
    },
    {
        "category_name": "가정,생활 > 문구,사무용품",
        "place_name": "펀펀스토어 리센츠점"
    },
    {
        "category_name": "가정,생활 > 문구,사무용품",
        "place_name": "마리앤 모리"
    },
    {
        "category_name": "가정,생활 > 문구,사무용품 > 디자인문구 > 아트박스",
        "place_name": "아트박스 대치점"
    },
    {
        "category_name": "가정,생활 > 문구,사무용품",
        "place_name": "똥방구 리센츠점"
    },
    {
        "category_name": "가정,생활 > 문구,사무용품",
        "place_name": "와와문구"
    },
    {
        "category_name": "가정,생활 > 문구,사무용품",
        "place_name": "우정팬시문구"
    },
    {
        "category_name": "가정,생활 > 문구,사무용품",
        "place_name": "다솜문구완구"
    },
    {
        "category_name": "가정,생활 > 문구,사무용품",
        "place_name": "알베르토 굿즈샵"
    },
    {
        "category_name": "가정,생활 > 문구,사무용품",
        "place_name": "동아문구"
    },
    {
        "category_name": "가정,생활 > 문구,사무용품",
        "place_name": "그린오피스 송파점"
    },
    {
        "category_name": "가정,생활 > 문구,사무용품",
        "place_name": "가나안문구"
    },
    {
        "category_name": "가정,생활 > 문구,사무용품",
        "place_name": "문빵꾸"
    },
    {
        "category_name": "가정,생활 > 문구,사무용품",
        "place_name": "수놓다진"
    },
    {
        "category_name": "가정,생활 > 문구,사무용품",
        "place_name": "아이셀"
    },
    {
        "category_name": "가정,생활 > 문구,사무용품 > 디자인문구 > 아트박스",
        "place_name": "아트박스 구의점"
    },
    {
        "category_name": "가정,생활 > 문구,사무용품",
        "place_name": "펀펀스토어 리센츠점"
    },
    {
        "category_name": "가정,생활 > 문구,사무용품",
        "place_name": "마리앤 모리"
    },
    {
        "category_name": "가정,생활 > 문구,사무용품 > 디자인문구 > 아트박스",
        "place_name": "아트박스 대치점"
    },
    {
        "category_name": "가정,생활 > 문구,사무용품",
        "place_name": "똥방구 리센츠점"
    },
    {
        "category_name": "가정,생활 > 문구,사무용품",
        "place_name": "와와문구"
    },
    {
        "category_name": "가정,생활 > 문구,사무용품",
        "place_name": "우정팬시문구"
    },
    {
        "category_name": "가정,생활 > 문구,사무용품",
        "place_name": "다솜문구완구"
    },
    {
        "category_name": "가정,생활 > 문구,사무용품",
        "place_name": "알베르토 굿즈샵"
    },
    {
        "category_name": "가정,생활 > 문구,사무용품",
        "place_name": "동아문구"
    },
    {
        "category_name": "가정,생활 > 문구,사무용품",
        "place_name": "그린오피스 송파점"
    },
    {
        "category_name": "가정,생활 > 문구,사무용품",
        "place_name": "가나안문구"
    },
    {
        "category_name": "가정,생활 > 문구,사무용품",
        "place_name": "문빵꾸"
    },
    {
        "category_name": "가정,생활 > 문구,사무용품",
        "place_name": "수놓다진"
    },
    {
        "category_name": "가정,생활 > 문구,사무용품",
        "place_name": "아이셀"
    },
    {
        "category_name": "가정,생활 > 문구,사무용품 > 디자인문구 > 아트박스",
        "place_name": "아트박스 구의점"
    },
    {
        "category_name": "가정,생활 > 문구,사무용품",
        "place_name": "펀펀스토어 리센츠점"
    },
    {
        "category_name": "가정,생활 > 문구,사무용품",
        "place_name": "마리앤 모리"
    },
    {
        "category_name": "가정,생활 > 문구,사무용품 > 디자인문구 > 아트박스",
        "place_name": "아트박스 대치점"
    },
    {
        "category_name": "가정,생활 > 문구,사무용품",
        "place_name": "똥방구 리센츠점"
    },
    {
        "category_name": "가정,생활 > 문구,사무용품",
        "place_name": "와와문구"
    },
    {
        "category_name": "가정,생활 > 문구,사무용품",
        "place_name": "우정팬시문구"
    },
    {
        "category_name": "가정,생활 > 문구,사무용품",
        "place_name": "다솜문구완구"
    },
    {
        "category_name": "가정,생활 > 문구,사무용품",
        "place_name": "알베르토 굿즈샵"
    },
    {
        "category_name": "가정,생활 > 문구,사무용품",
        "place_name": "동아문구"
    },
    {
        "category_name": "가정,생활 > 문구,사무용품",
        "place_name": "그린오피스 송파점"
    },
    {
        "category_name": "가정,생활 > 문구,사무용품",
        "place_name": "가나안문구"
    },
    {
        "category_name": "가정,생활 > 문구,사무용품",
        "place_name": "문빵꾸"
    },
    {
        "category_name": "가정,생활 > 문구,사무용품",
        "place_name": "수놓다진"
    },
    {
        "category_name": "가정,생활 > 문구,사무용품",
        "place_name": "아이셀"
    },
    {
        "category_name": "가정,생활 > 문구,사무용품 > 디자인문구 > 아트박스",
        "place_name": "아트박스 구의점"
    },
    {
        "category_name": "가정,생활 > 문구,사무용품",
        "place_name": "펀펀스토어 리센츠점"
    },
    {
        "category_name": "가정,생활 > 문구,사무용품",
        "place_name": "마리앤 모리"
    },
    {
        "category_name": "가정,생활 > 문구,사무용품 > 디자인문구 > 아트박스",
        "place_name": "아트박스 대치점"
    },
    {
        "category_name": "가정,생활 > 문구,사무용품",
        "place_name": "똥방구 리센츠점"
    },
    {
        "category_name": "가정,생활 > 문구,사무용품",
        "place_name": "와와문구"
    },
    {
        "category_name": "가정,생활 > 문구,사무용품",
        "place_name": "우정팬시문구"
    },
    {
        "category_name": "가정,생활 > 문구,사무용품",
        "place_name": "다솜문구완구"
    },
    {
        "category_name": "가정,생활 > 문구,사무용품",
        "place_name": "알베르토 굿즈샵"
    },
    {
        "category_name": "가정,생활 > 문구,사무용품",
        "place_name": "동아문구"
    },
    {
        "category_name": "가정,생활 > 문구,사무용품",
        "place_name": "그린오피스 송파점"
    },
    {
        "category_name": "가정,생활 > 문구,사무용품",
        "place_name": "가나안문구"
    },
    {
        "category_name": "가정,생활 > 문구,사무용품",
        "place_name": "문빵꾸"
    },
    {
        "category_name": "가정,생활 > 문구,사무용품",
        "place_name": "수놓다진"
    },
    {
        "category_name": "가정,생활 > 문구,사무용품",
        "place_name": "아이셀"
    },
    {
        "category_name": "가정,생활 > 문구,사무용품 > 디자인문구 > 아트박스",
        "place_name": "아트박스 구의점"
    },
    {
        "category_name": "가정,생활 > 문구,사무용품",
        "place_name": "펀펀스토어 리센츠점"
    },
    {
        "category_name": "가정,생활 > 문구,사무용품",
        "place_name": "마리앤 모리"
    },
    {
        "category_name": "가정,생활 > 문구,사무용품 > 디자인문구 > 아트박스",
        "place_name": "아트박스 대치점"
    },
    {
        "category_name": "가정,생활 > 문구,사무용품",
        "place_name": "똥방구 리센츠점"
    },
    {
        "category_name": "가정,생활 > 문구,사무용품",
        "place_name": "와와문구"
    },
    {
        "category_name": "가정,생활 > 문구,사무용품",
        "place_name": "우정팬시문구"
    },
    {
        "category_name": "가정,생활 > 문구,사무용품",
        "place_name": "다솜문구완구"
    },
    {
        "category_name": "가정,생활 > 문구,사무용품",
        "place_name": "알베르토 굿즈샵"
    },
    {
        "category_name": "가정,생활 > 문구,사무용품",
        "place_name": "동아문구"
    },
    {
        "category_name": "가정,생활 > 문구,사무용품",
        "place_name": "그린오피스 송파점"
    },
    {
        "category_name": "가정,생활 > 문구,사무용품",
        "place_name": "가나안문구"
    },
    {
        "category_name": "가정,생활 > 문구,사무용품",
        "place_name": "문빵꾸"
    },
    {
        "category_name": "가정,생활 > 문구,사무용품",
        "place_name": "수놓다진"
    },
    {
        "category_name": "가정,생활 > 문구,사무용품",
        "place_name": "아이셀"
    },
    {
        "category_name": "가정,생활 > 문구,사무용품 > 디자인문구 > 아트박스",
        "place_name": "아트박스 구의점"
    },
    {
        "category_name": "가정,생활 > 문구,사무용품",
        "place_name": "펀펀스토어 리센츠점"
    },
    {
        "category_name": "가정,생활 > 문구,사무용품",
        "place_name": "마리앤 모리"
    },
    {
        "category_name": "가정,생활 > 문구,사무용품 > 디자인문구 > 아트박스",
        "place_name": "아트박스 대치점"
    },
    {
        "category_name": "가정,생활 > 문구,사무용품",
        "place_name": "똥방구 리센츠점"
    },
    {
        "category_name": "가정,생활 > 문구,사무용품",
        "place_name": "와와문구"
    },
    {
        "category_name": "가정,생활 > 문구,사무용품",
        "place_name": "우정팬시문구"
    },
    {
        "category_name": "가정,생활 > 문구,사무용품",
        "place_name": "다솜문구완구"
    },
    {
        "category_name": "가정,생활 > 문구,사무용품",
        "place_name": "알베르토 굿즈샵"
    },
    {
        "category_name": "가정,생활 > 문구,사무용품",
        "place_name": "동아문구"
    },
    {
        "category_name": "가정,생활 > 문구,사무용품",
        "place_name": "그린오피스 송파점"
    },
    {
        "category_name": "가정,생활 > 문구,사무용품",
        "place_name": "가나안문구"
    },
    {
        "category_name": "가정,생활 > 문구,사무용품",
        "place_name": "문빵꾸"
    },
    {
        "category_name": "가정,생활 > 문구,사무용품",
        "place_name": "수놓다진"
    },
    {
        "category_name": "가정,생활 > 문구,사무용품",
        "place_name": "아이셀"
    },
    {
        "category_name": "가정,생활 > 문구,사무용품 > 디자인문구 > 아트박스",
        "place_name": "아트박스 구의점"
    },
    {
        "category_name": "가정,생활 > 문구,사무용품",
        "place_name": "펀펀스토어 리센츠점"
    },
    {
        "category_name": "가정,생활 > 문구,사무용품",
        "place_name": "마리앤 모리"
    },
    {
        "category_name": "가정,생활 > 문구,사무용품 > 디자인문구 > 아트박스",
        "place_name": "아트박스 대치점"
    },
    {
        "category_name": "가정,생활 > 문구,사무용품",
        "place_name": "똥방구 리센츠점"
    },
    {
        "category_name": "가정,생활 > 문구,사무용품",
        "place_name": "와와문구"
    },
    {
        "category_name": "가정,생활 > 문구,사무용품",
        "place_name": "우정팬시문구"
    },
    {
        "category_name": "가정,생활 > 문구,사무용품",
        "place_name": "다솜문구완구"
    },
    {
        "category_name": "가정,생활 > 문구,사무용품",
        "place_name": "알베르토 굿즈샵"
    },
    {
        "category_name": "가정,생활 > 문구,사무용품",
        "place_name": "동아문구"
    },
    {
        "category_name": "가정,생활 > 문구,사무용품",
        "place_name": "그린오피스 송파점"
    },
    {
        "category_name": "가정,생활 > 문구,사무용품",
        "place_name": "가나안문구"
    },
    {
        "category_name": "가정,생활 > 문구,사무용품",
        "place_name": "문빵꾸"
    },
    {
        "category_name": "가정,생활 > 문구,사무용품",
        "place_name": "수놓다진"
    },
    {
        "category_name": "가정,생활 > 문구,사무용품",
        "place_name": "아이셀"
    },
    {
        "category_name": "가정,생활 > 문구,사무용품 > 디자인문구 > 아트박스",
        "place_name": "아트박스 구의점"
    },
    {
        "category_name": "가정,생활 > 문구,사무용품",
        "place_name": "펀펀스토어 리센츠점"
    },
    {
        "category_name": "가정,생활 > 문구,사무용품",
        "place_name": "마리앤 모리"
    },
    {
        "category_name": "가정,생활 > 문구,사무용품 > 디자인문구 > 아트박스",
        "place_name": "아트박스 대치점"
    },
    {
        "category_name": "가정,생활 > 문구,사무용품",
        "place_name": "똥방구 리센츠점"
    },
    {
        "category_name": "가정,생활 > 문구,사무용품",
        "place_name": "와와문구"
    },
    {
        "category_name": "가정,생활 > 문구,사무용품",
        "place_name": "우정팬시문구"
    },
    {
        "category_name": "가정,생활 > 문구,사무용품",
        "place_name": "다솜문구완구"
    },
    {
        "category_name": "가정,생활 > 문구,사무용품",
        "place_name": "알베르토 굿즈샵"
    },
    {
        "category_name": "가정,생활 > 문구,사무용품",
        "place_name": "동아문구"
    },
    {
        "category_name": "가정,생활 > 문구,사무용품",
        "place_name": "그린오피스 송파점"
    },
    {
        "category_name": "가정,생활 > 문구,사무용품",
        "place_name": "가나안문구"
    },
    {
        "category_name": "가정,생활 > 문구,사무용품",
        "place_name": "문빵꾸"
    },
    {
        "category_name": "가정,생활 > 문구,사무용품",
        "place_name": "수놓다진"
    },
    {
        "category_name": "가정,생활 > 문구,사무용품",
        "place_name": "아이셀"
    },
    {
        "category_name": "가정,생활 > 문구,사무용품 > 디자인문구 > 아트박스",
        "place_name": "아트박스 구의점"
    },
    {
        "category_name": "가정,생활 > 문구,사무용품",
        "place_name": "펀펀스토어 리센츠점"
    },
    {
        "category_name": "가정,생활 > 문구,사무용품",
        "place_name": "마리앤 모리"
    },
    {
        "category_name": "가정,생활 > 문구,사무용품 > 디자인문구 > 아트박스",
        "place_name": "아트박스 대치점"
    },
    {
        "category_name": "가정,생활 > 문구,사무용품",
        "place_name": "똥방구 리센츠점"
    },
    {
        "category_name": "가정,생활 > 문구,사무용품",
        "place_name": "와와문구"
    },
    {
        "category_name": "가정,생활 > 문구,사무용품",
        "place_name": "우정팬시문구"
    },
    {
        "category_name": "가정,생활 > 문구,사무용품",
        "place_name": "다솜문구완구"
    },
    {
        "category_name": "가정,생활 > 문구,사무용품",
        "place_name": "알베르토 굿즈샵"
    },
    {
        "category_name": "가정,생활 > 문구,사무용품",
        "place_name": "동아문구"
    },
    {
        "category_name": "가정,생활 > 문구,사무용품",
        "place_name": "그린오피스 송파점"
    },
    {
        "category_name": "가정,생활 > 문구,사무용품",
        "place_name": "가나안문구"
    },
    {
        "category_name": "가정,생활 > 문구,사무용품",
        "place_name": "문빵꾸"
    },
    {
        "category_name": "가정,생활 > 문구,사무용품",
        "place_name": "수놓다진"
    },
    {
        "category_name": "가정,생활 > 문구,사무용품",
        "place_name": "아이셀"
    },
    {
        "category_name": "가정,생활 > 문구,사무용품 > 디자인문구 > 아트박스",
        "place_name": "아트박스 구의점"
    },
    {
        "category_name": "가정,생활 > 문구,사무용품",
        "place_name": "펀펀스토어 리센츠점"
    },
    {
        "category_name": "가정,생활 > 문구,사무용품",
        "place_name": "마리앤 모리"
    },
    {
        "category_name": "가정,생활 > 문구,사무용품 > 디자인문구 > 아트박스",
        "place_name": "아트박스 대치점"
    },
    {
        "category_name": "가정,생활 > 문구,사무용품",
        "place_name": "똥방구 리센츠점"
    },
    {
        "category_name": "가정,생활 > 문구,사무용품",
        "place_name": "와와문구"
    },
    {
        "category_name": "가정,생활 > 문구,사무용품",
        "place_name": "우정팬시문구"
    },
    {
        "category_name": "가정,생활 > 문구,사무용품",
        "place_name": "다솜문구완구"
    },
    {
        "category_name": "가정,생활 > 문구,사무용품",
        "place_name": "알베르토 굿즈샵"
    },
    {
        "category_name": "가정,생활 > 문구,사무용품",
        "place_name": "동아문구"
    },
    {
        "category_name": "가정,생활 > 문구,사무용품",
        "place_name": "그린오피스 송파점"
    },
    {
        "category_name": "가정,생활 > 문구,사무용품",
        "place_name": "가나안문구"
    },
    {
        "category_name": "가정,생활 > 문구,사무용품",
        "place_name": "문빵꾸"
    },
    {
        "category_name": "가정,생활 > 문구,사무용품",
        "place_name": "수놓다진"
    },
    {
        "category_name": "가정,생활 > 문구,사무용품",
        "place_name": "아이셀"
    },
    {
        "category_name": "가정,생활 > 문구,사무용품 > 디자인문구 > 아트박스",
        "place_name": "아트박스 구의점"
    },
    {
        "category_name": "가정,생활 > 문구,사무용품",
        "place_name": "펀펀스토어 리센츠점"
    },
    {
        "category_name": "가정,생활 > 문구,사무용품",
        "place_name": "마리앤 모리"
    },
    {
        "category_name": "가정,생활 > 문구,사무용품 > 디자인문구 > 아트박스",
        "place_name": "아트박스 대치점"
    },
    {
        "category_name": "가정,생활 > 문구,사무용품",
        "place_name": "똥방구 리센츠점"
    },
    {
        "category_name": "가정,생활 > 문구,사무용품",
        "place_name": "와와문구"
    },
    {
        "category_name": "가정,생활 > 문구,사무용품",
        "place_name": "우정팬시문구"
    },
    {
        "category_name": "가정,생활 > 문구,사무용품",
        "place_name": "다솜문구완구"
    },
    {
        "category_name": "가정,생활 > 문구,사무용품",
        "place_name": "알베르토 굿즈샵"
    },
    {
        "category_name": "가정,생활 > 문구,사무용품",
        "place_name": "동아문구"
    },
    {
        "category_name": "가정,생활 > 문구,사무용품",
        "place_name": "그린오피스 송파점"
    },
    {
        "category_name": "가정,생활 > 문구,사무용품",
        "place_name": "가나안문구"
    },
    {
        "category_name": "가정,생활 > 문구,사무용품",
        "place_name": "문빵꾸"
    },
    {
        "category_name": "가정,생활 > 문구,사무용품",
        "place_name": "수놓다진"
    },
    {
        "category_name": "가정,생활 > 문구,사무용품",
        "place_name": "아이셀"
    },
    {
        "category_name": "가정,생활 > 문구,사무용품 > 디자인문구 > 아트박스",
        "place_name": "아트박스 구의점"
    },
    {
        "category_name": "가정,생활 > 문구,사무용품",
        "place_name": "펀펀스토어 리센츠점"
    },
    {
        "category_name": "가정,생활 > 문구,사무용품",
        "place_name": "마리앤 모리"
    },
    {
        "category_name": "가정,생활 > 문구,사무용품 > 디자인문구 > 아트박스",
        "place_name": "아트박스 대치점"
    },
    {
        "category_name": "가정,생활 > 문구,사무용품",
        "place_name": "똥방구 리센츠점"
    },
    {
        "category_name": "가정,생활 > 문구,사무용품",
        "place_name": "와와문구"
    },
    {
        "category_name": "가정,생활 > 문구,사무용품",
        "place_name": "우정팬시문구"
    },
    {
        "category_name": "가정,생활 > 문구,사무용품",
        "place_name": "다솜문구완구"
    },
    {
        "category_name": "가정,생활 > 문구,사무용품",
        "place_name": "알베르토 굿즈샵"
    },
    {
        "category_name": "가정,생활 > 문구,사무용품",
        "place_name": "동아문구"
    },
    {
        "category_name": "가정,생활 > 문구,사무용품",
        "place_name": "그린오피스 송파점"
    },
    {
        "category_name": "가정,생활 > 문구,사무용품",
        "place_name": "가나안문구"
    },
    {
        "category_name": "가정,생활 > 문구,사무용품",
        "place_name": "문빵꾸"
    },
    {
        "category_name": "가정,생활 > 문구,사무용품",
        "place_name": "수놓다진"
    },
    {
        "category_name": "가정,생활 > 문구,사무용품",
        "place_name": "아이셀"
    },
    {
        "category_name": "가정,생활 > 문구,사무용품 > 디자인문구 > 아트박스",
        "place_name": "아트박스 구의점"
    },
    {
        "category_name": "가정,생활 > 문구,사무용품",
        "place_name": "펀펀스토어 리센츠점"
    },
    {
        "category_name": "가정,생활 > 문구,사무용품",
        "place_name": "마리앤 모리"
    },
    {
        "category_name": "가정,생활 > 문구,사무용품 > 디자인문구 > 아트박스",
        "place_name": "아트박스 대치점"
    },
    {
        "category_name": "가정,생활 > 문구,사무용품",
        "place_name": "똥방구 리센츠점"
    },
    {
        "category_name": "가정,생활 > 문구,사무용품",
        "place_name": "와와문구"
    },
    {
        "category_name": "가정,생활 > 문구,사무용품",
        "place_name": "우정팬시문구"
    },
    {
        "category_name": "가정,생활 > 문구,사무용품",
        "place_name": "다솜문구완구"
    },
    {
        "category_name": "가정,생활 > 문구,사무용품",
        "place_name": "알베르토 굿즈샵"
    },
    {
        "category_name": "가정,생활 > 문구,사무용품",
        "place_name": "동아문구"
    },
    {
        "category_name": "가정,생활 > 문구,사무용품",
        "place_name": "그린오피스 송파점"
    },
    {
        "category_name": "가정,생활 > 문구,사무용품",
        "place_name": "가나안문구"
    },
    {
        "category_name": "가정,생활 > 문구,사무용품",
        "place_name": "문빵꾸"
    },
    {
        "category_name": "가정,생활 > 문구,사무용품",
        "place_name": "수놓다진"
    },
    {
        "category_name": "가정,생활 > 문구,사무용품",
        "place_name": "아이셀"
    },
    {
        "category_name": "가정,생활 > 문구,사무용품 > 디자인문구 > 아트박스",
        "place_name": "아트박스 구의점"
    },
    {
        "category_name": "가정,생활 > 문구,사무용품",
        "place_name": "펀펀스토어 리센츠점"
    },
    {
        "category_name": "가정,생활 > 문구,사무용품",
        "place_name": "마리앤 모리"
    },
    {
        "category_name": "가정,생활 > 문구,사무용품 > 디자인문구 > 아트박스",
        "place_name": "아트박스 대치점"
    },
    {
        "category_name": "가정,생활 > 문구,사무용품",
        "place_name": "똥방구 리센츠점"
    },
    {
        "category_name": "가정,생활 > 문구,사무용품",
        "place_name": "와와문구"
    },
    {
        "category_name": "가정,생활 > 문구,사무용품",
        "place_name": "우정팬시문구"
    },
    {
        "category_name": "가정,생활 > 문구,사무용품",
        "place_name": "다솜문구완구"
    }
]