[
    {
        "category_name": "의료,건강 > 병원 > 정형외과",
        "place_name": "미래본병원"
    },
    {
        "category_name": "의료,건강 > 병원",
        "place_name": "한솔병원"
    },
    {
        "category_name": "의료,건강 > 병원 > 이비인후과",
        "place_name": "잠실하나이비인후과의원"
    },
    {
        "category_name": "의료,건강 > 병원 > 비뇨기과",
        "place_name": "골드만비뇨의학과의원 잠실점"
    },
    {
        "category_name": "의료,건강 > 병원 > 산부인과",
        "place_name": "차 여성의학연구소 잠실"
    },
    {
        "category_name": "의료,건강 > 병원 > 산부인과",
        "place_name": "고은빛산부인과의원"
    },
    {
        "category_name": "의료,건강 > 병원 > 이비인후과",
        "place_name": "서울드림이비인후과의원"
    },
    {
        "category_name": "의료,건강 > 병원 > 안과",
        "place_name": "BGN 밝은눈 안과의원 잠실롯데타워점"
    },
    {
        "category_name": "의료,건강 > 병원 > 피부과",
        "place_name": "유앤아이의원 잠실점"
    },
    {
        "category_name": "의료,건강 > 병원 > 피부과",
        "place_name": "리엔장의원 잠실점"
    },
    {
        "category_name": "의료,건강 > 병원 > 안과",
        "place_name": "잠실SU연세안과의원"
    },
    {
        "category_name": "의료,건강 > 병원 > 비뇨기과",
        "place_name": "잠실서울비뇨의학과의원"
    },
    {
        "category_name": "의료,건강 > 병원 > 피부과",
        "place_name": "닥터에버스의원 잠실점"
    },
    {
        "category_name": "의료,건강 > 병원 > 한의원",
        "place_name": "예본한의원"
    },
    {
        "category_name": "의료,건강 > 병원 > 비뇨기과",
        "place_name": "베스탑비뇨기과의원 잠실점"
    },
    {
        "category_name": "의료,건강 > 병원 > 유방외과",
        "place_name": "잠실연세하와유외과의원"
    },
    {
        "category_name": "의료,건강 > 병원 > 치과",
        "place_name": "서울디테일구강내과치과의원"
    },
    {
        "category_name": "의료,건강 > 병원 > 한방병원",
        "place_name": "포레메디한방병원"
    },
    {
        "category_name": "의료,건강 > 병원 > 치과",
        "place_name": "스탠다드치과 잠실본점"
    },
    {
        "category_name": "의료,건강 > 병원 > 정형외과",
        "place_name": "연세우리병원"
    },
    {
        "category_name": "의료,건강 > 병원 > 피부과",
        "place_name": "뷰티라운지의원"
    },
    {
        "category_name": "의료,건강 > 병원 > 내과",
        "place_name": "세온내과의원"
    },
    {
        "category_name": "의료,건강 > 병원 > 정형외과",
        "place_name": "강남본정형외과의원"
    },
    {
        "category_name": "의료,건강 > 병원 > 산부인과",
        "place_name": "미래연여성의원"
    },
    {
        "category_name": "의료,건강 > 병원 > 한의원",
        "place_name": "잠실맥한의원"
    },
    {
        "category_name": "의료,건강 > 병원 > 한의원",
        "place_name": "하늘나무한의원"
    },
    {
        "category_name": "의료,건강 > 병원 > 산부인과",
        "place_name": "프리샤산부인과의원"
    },
    {
        "category_name": "의료,건강 > 병원 > 신경과",
        "place_name": "에이스신경과의원"
    },
    {
        "category_name": "의료,건강 > 병원 > 피부과",
        "place_name": "스마트의원"
    },
    {
        "category_name": "의료,건강 > 병원 > 정형외과",
        "place_name": "강철병원"
    },
    {
        "category_name": "의료,건강 > 병원 > 내과",
        "place_name": "다미내과의원"
    },
    {
        "category_name": "의료,건강 > 병원 > 내과",
        "place_name": "윤석중내과의원"
    },
    {
        "category_name": "의료,건강 > 병원 > 정신건강의학과",
        "place_name": "잠실하늘정신건강의학과의원"
    },
    {
        "category_name": "의료,건강 > 병원 > 정형외과",
        "place_name": "잠실튼튼본의원"
    },
    {
        "category_name": "의료,건강 > 병원 > 피부과",
        "place_name": "홍피부과의원"
    },
    {
        "category_name": "의료,건강 > 병원 > 재활의학과",
        "place_name": "국가대표재활의학과의원"
    },
    {
        "category_name": "의료,건강 > 병원 > 일반의원",
        "place_name": "뉴리즈의원"
    },
    {
        "category_name": "의료,건강 > 병원 > 피부과",
        "place_name": "에스준의원"
    },
    {
        "category_name": "의료,건강 > 병원 > 한의원",
        "place_name": "누베베한의원 잠실점"
    },
    {
        "category_name": "의료,건강 > 병원 > 안과",
        "place_name": "아이유안과의원"
    },
    {
        "category_name": "의료,건강 > 병원 > 정형외과",
        "place_name": "성모SK마취통증의학과의원"
    },
    {
        "category_name": "의료,건강 > 병원 > 외과",
        "place_name": "베리굿외과의원"
    },
    {
        "category_name": "의료,건강 > 병원 > 내과",
        "place_name": "삼성정내과의원"
    },
    {
        "category_name": "의료,건강 > 병원 > 정형외과",
        "place_name": "힘찬병원 강남점"
    },
    {
        "category_name": "의료,건강 > 병원 > 노인,요양병원",
        "place_name": "스테이온요양병원"
    },
    {
        "category_name": "의료,건강 > 병원 > 내과",
        "place_name": "다미내과의원"
    },
    {
        "category_name": "의료,건강 > 병원 > 내과",
        "place_name": "윤석중내과의원"
    },
    {
        "category_name": "의료,건강 > 병원 > 정신건강의학과",
        "place_name": "잠실하늘정신건강의학과의원"
    },
    {
        "category_name": "의료,건강 > 병원 > 정형외과",
        "place_name": "잠실튼튼본의원"
    },
    {
        "category_name": "의료,건강 > 병원 > 피부과",
        "place_name": "홍피부과의원"
    },
    {
        "category_name": "의료,건강 > 병원 > 재활의학과",
        "place_name": "국가대표재활의학과의원"
    },
    {
        "category_name": "의료,건강 > 병원 > 일반의원",
        "place_name": "뉴리즈의원"
    },
    {
        "category_name": "의료,건강 > 병원 > 피부과",
        "place_name": "에스준의원"
    },
    {
        "category_name": "의료,건강 > 병원 > 한의원",
        "place_name": "누베베한의원 잠실점"
    },
    {
        "category_name": "의료,건강 > 병원 > 안과",
        "place_name": "아이유안과의원"
    },
    {
        "category_name": "의료,건강 > 병원 > 정형외과",
        "place_name": "성모SK마취통증의학과의원"
    },
    {
        "category_name": "의료,건강 > 병원 > 외과",
        "place_name": "베리굿외과의원"
    },
    {
        "category_name": "의료,건강 > 병원 > 내과",
        "place_name": "삼성정내과의원"
    },
    {
        "category_name": "의료,건강 > 병원 > 정형외과",
        "place_name": "힘찬병원 강남점"
    },
    {
        "category_name": "의료,건강 > 병원 > 노인,요양병원",
        "place_name": "스테이온요양병원"
    },
    {
        "category_name": "의료,건강 > 병원 > 내과",
        "place_name": "다미내과의원"
    },
    {
        "category_name": "의료,건강 > 병원 > 내과",
        "place_name": "윤석중내과의원"
    },
    {
        "category_name": "의료,건강 > 병원 > 정신건강의학과",
        "place_name": "잠실하늘정신건강의학과의원"
    },
    {
        "category_name": "의료,건강 > 병원 > 정형외과",
        "place_name": "잠실튼튼본의원"
    },
    {
        "category_name": "의료,건강 > 병원 > 피부과",
        "place_name": "홍피부과의원"
    },
    {
        "category_name": "의료,건강 > 병원 > 재활의학과",
        "place_name": "국가대표재활의학과의원"
    },
    {
        "category_name": "의료,건강 > 병원 > 일반의원",
        "place_name": "뉴리즈의원"
    },
    {
        "category_name": "의료,건강 > 병원 > 피부과",
        "place_name": "에스준의원"
    },
    {
        "category_name": "의료,건강 > 병원 > 한의원",
        "place_name": "누베베한의원 잠실점"
    },
    {
        "category_name": "의료,건강 > 병원 > 안과",
        "place_name": "아이유안과의원"
    },
    {
        "category_name": "의료,건강 > 병원 > 정형외과",
        "place_name": "성모SK마취통증의학과의원"
    },
    {
        "category_name": "의료,건강 > 병원 > 외과",
        "place_name": "베리굿외과의원"
    },
    {
        "category_name": "의료,건강 > 병원 > 내과",
        "place_name": "삼성정내과의원"
    },
    {
        "category_name": "의료,건강 > 병원 > 정형외과",
        "place_name": "힘찬병원 강남점"
    },
    {
        "category_name": "의료,건강 > 병원 > 노인,요양병원",
        "place_name": "스테이온요양병원"
    },
    {
        "category_name": "의료,건강 > 병원 > 내과",
        "place_name": "다미내과의원"
    },
    {
        "category_name": "의료,건강 > 병원 > 내과",
        "place_name": "윤석중내과의원"
    },
    {
        "category_name": "의료,건강 > 병원 > 정신건강의학과",
        "place_name": "잠실하늘정신건강의학과의원"
    },
    {
        "category_name": "의료,건강 > 병원 > 정형외과",
        "place_name": "잠실튼튼본의원"
    },
    {
        "category_name": "의료,건강 > 병원 > 피부과",
        "place_name": "홍피부과의원"
    },
    {
        "category_name": "의료,건강 > 병원 > 재활의학과",
        "place_name": "국가대표재활의학과의원"
    },
    {
        "category_name": "의료,건강 > 병원 > 일반의원",
        "place_name": "뉴리즈의원"
    },
    {
        "category_name": "의료,건강 > 병원 > 피부과",
        "place_name": "에스준의원"
    },
    {
        "category_name": "의료,건강 > 병원 > 한의원",
        "place_name": "누베베한의원 잠실점"
    },
    {
        "category_name": "의료,건강 > 병원 > 안과",
        "place_name": "아이유안과의원"
    },
    {
        "category_name": "의료,건강 > 병원 > 정형외과",
        "place_name": "성모SK마취통증의학과의원"
    },
    {
        "category_name": "의료,건강 > 병원 > 외과",
        "place_name": "베리굿외과의원"
    },
    {
        "category_name": "의료,건강 > 병원 > 내과",
        "place_name": "삼성정내과의원"
    },
    {
        "category_name": "의료,건강 > 병원 > 정형외과",
        "place_name": "힘찬병원 강남점"
    },
    {
        "category_name": "의료,건강 > 병원 > 노인,요양병원",
        "place_name": "스테이온요양병원"
    },
    {
        "category_name": "의료,건강 > 병원 > 내과",
        "place_name": "다미내과의원"
    },
    {
        "category_name": "의료,건강 > 병원 > 내과",
        "place_name": "윤석중내과의원"
    },
    {
        "category_name": "의료,건강 > 병원 > 정신건강의학과",
        "place_name": "잠실하늘정신건강의학과의원"
    },
    {
        "category_name": "의료,건강 > 병원 > 정형외과",
        "place_name": "잠실튼튼본의원"
    },
    {
        "category_name": "의료,건강 > 병원 > 피부과",
        "place_name": "홍피부과의원"
    },
    {
        "category_name": "의료,건강 > 병원 > 재활의학과",
        "place_name": "국가대표재활의학과의원"
    },
    {
        "category_name": "의료,건강 > 병원 > 일반의원",
        "place_name": "뉴리즈의원"
    },
    {
        "category_name": "의료,건강 > 병원 > 피부과",
        "place_name": "에스준의원"
    },
    {
        "category_name": "의료,건강 > 병원 > 한의원",
        "place_name": "누베베한의원 잠실점"
    },
    {
        "category_name": "의료,건강 > 병원 > 안과",
        "place_name": "아이유안과의원"
    },
    {
        "category_name": "의료,건강 > 병원 > 정형외과",
        "place_name": "성모SK마취통증의학과의원"
    },
    {
        "category_name": "의료,건강 > 병원 > 외과",
        "place_name": "베리굿외과의원"
    },
    {
        "category_name": "의료,건강 > 병원 > 내과",
        "place_name": "삼성정내과의원"
    },
    {
        "category_name": "의료,건강 > 병원 > 정형외과",
        "place_name": "힘찬병원 강남점"
    },
    {
        "category_name": "의료,건강 > 병원 > 노인,요양병원",
        "place_name": "스테이온요양병원"
    },
    {
        "category_name": "의료,건강 > 병원 > 내과",
        "place_name": "다미내과의원"
    },
    {
        "category_name": "의료,건강 > 병원 > 내과",
        "place_name": "윤석중내과의원"
    },
    {
        "category_name": "의료,건강 > 병원 > 정신건강의학과",
        "place_name": "잠실하늘정신건강의학과의원"
    },
    {
        "category_name": "의료,건강 > 병원 > 정형외과",
        "place_name": "잠실튼튼본의원"
    },
    {
        "category_name": "의료,건강 > 병원 > 피부과",
        "place_name": "홍피부과의원"
    },
    {
        "category_name": "의료,건강 > 병원 > 재활의학과",
        "place_name": "국가대표재활의학과의원"
    },
    {
        "category_name": "의료,건강 > 병원 > 일반의원",
        "place_name": "뉴리즈의원"
    },
    {
        "category_name": "의료,건강 > 병원 > 피부과",
        "place_name": "에스준의원"
    },
    {
        "category_name": "의료,건강 > 병원 > 한의원",
        "place_name": "누베베한의원 잠실점"
    },
    {
        "category_name": "의료,건강 > 병원 > 안과",
        "place_name": "아이유안과의원"
    },
    {
        "category_name": "의료,건강 > 병원 > 정형외과",
        "place_name": "성모SK마취통증의학과의원"
    },
    {
        "category_name": "의료,건강 > 병원 > 외과",
        "place_name": "베리굿외과의원"
    },
    {
        "category_name": "의료,건강 > 병원 > 내과",
        "place_name": "삼성정내과의원"
    },
    {
        "category_name": "의료,건강 > 병원 > 정형외과",
        "place_name": "힘찬병원 강남점"
    },
    {
        "category_name": "의료,건강 > 병원 > 노인,요양병원",
        "place_name": "스테이온요양병원"
    },
    {
        "category_name": "의료,건강 > 병원 > 내과",
        "place_name": "다미내과의원"
    },
    {
        "category_name": "의료,건강 > 병원 > 내과",
        "place_name": "윤석중내과의원"
    },
    {
        "category_name": "의료,건강 > 병원 > 정신건강의학과",
        "place_name": "잠실하늘정신건강의학과의원"
    },
    {
        "category_name": "의료,건강 > 병원 > 정형외과",
        "place_name": "잠실튼튼본의원"
    },
    {
        "category_name": "의료,건강 > 병원 > 피부과",
        "place_name": "홍피부과의원"
    },
    {
        "category_name": "의료,건강 > 병원 > 재활의학과",
        "place_name": "국가대표재활의학과의원"
    },
    {
        "category_name": "의료,건강 > 병원 > 일반의원",
        "place_name": "뉴리즈의원"
    },
    {
        "category_name": "의료,건강 > 병원 > 피부과",
        "place_name": "에스준의원"
    },
    {
        "category_name": "의료,건강 > 병원 > 한의원",
        "place_name": "누베베한의원 잠실점"
    },
    {
        "category_name": "의료,건강 > 병원 > 안과",
        "place_name": "아이유안과의원"
    },
    {
        "category_name": "의료,건강 > 병원 > 정형외과",
        "place_name": "성모SK마취통증의학과의원"
    },
    {
        "category_name": "의료,건강 > 병원 > 외과",
        "place_name": "베리굿외과의원"
    },
    {
        "category_name": "의료,건강 > 병원 > 내과",
        "place_name": "삼성정내과의원"
    },
    {
        "category_name": "의료,건강 > 병원 > 정형외과",
        "place_name": "힘찬병원 강남점"
    },
    {
        "category_name": "의료,건강 > 병원 > 노인,요양병원",
        "place_name": "스테이온요양병원"
    },
    {
        "category_name": "의료,건강 > 병원 > 내과",
        "place_name": "다미내과의원"
    },
    {
        "category_name": "의료,건강 > 병원 > 내과",
        "place_name": "윤석중내과의원"
    },
    {
        "category_name": "의료,건강 > 병원 > 정신건강의학과",
        "place_name": "잠실하늘정신건강의학과의원"
    },
    {
        "category_name": "의료,건강 > 병원 > 정형외과",
        "place_name": "잠실튼튼본의원"
    },
    {
        "category_name": "의료,건강 > 병원 > 피부과",
        "place_name": "홍피부과의원"
    },
    {
        "category_name": "의료,건강 > 병원 > 재활의학과",
        "place_name": "국가대표재활의학과의원"
    },
    {
        "category_name": "의료,건강 > 병원 > 일반의원",
        "place_name": "뉴리즈의원"
    },
    {
        "category_name": "의료,건강 > 병원 > 피부과",
        "place_name": "에스준의원"
    },
    {
        "category_name": "의료,건강 > 병원 > 한의원",
        "place_name": "누베베한의원 잠실점"
    },
    {
        "category_name": "의료,건강 > 병원 > 안과",
        "place_name": "아이유안과의원"
    },
    {
        "category_name": "의료,건강 > 병원 > 정형외과",
        "place_name": "성모SK마취통증의학과의원"
    },
    {
        "category_name": "의료,건강 > 병원 > 외과",
        "place_name": "베리굿외과의원"
    },
    {
        "category_name": "의료,건강 > 병원 > 내과",
        "place_name": "삼성정내과의원"
    },
    {
        "category_name": "의료,건강 > 병원 > 정형외과",
        "place_name": "힘찬병원 강남점"
    },
    {
        "category_name": "의료,건강 > 병원 > 노인,요양병원",
        "place_name": "스테이온요양병원"
    },
    {
        "category_name": "의료,건강 > 병원 > 내과",
        "place_name": "다미내과의원"
    },
    {
        "category_name": "의료,건강 > 병원 > 내과",
        "place_name": "윤석중내과의원"
    },
    {
        "category_name": "의료,건강 > 병원 > 정신건강의학과",
        "place_name": "잠실하늘정신건강의학과의원"
    },
    {
        "category_name": "의료,건강 > 병원 > 정형외과",
        "place_name": "잠실튼튼본의원"
    },
    {
        "category_name": "의료,건강 > 병원 > 피부과",
        "place_name": "홍피부과의원"
    },
    {
        "category_name": "의료,건강 > 병원 > 재활의학과",
        "place_name": "국가대표재활의학과의원"
    },
    {
        "category_name": "의료,건강 > 병원 > 일반의원",
        "place_name": "뉴리즈의원"
    },
    {
        "category_name": "의료,건강 > 병원 > 피부과",
        "place_name": "에스준의원"
    },
    {
        "category_name": "의료,건강 > 병원 > 한의원",
        "place_name": "누베베한의원 잠실점"
    },
    {
        "category_name": "의료,건강 > 병원 > 안과",
        "place_name": "아이유안과의원"
    },
    {
        "category_name": "의료,건강 > 병원 > 정형외과",
        "place_name": "성모SK마취통증의학과의원"
    },
    {
        "category_name": "의료,건강 > 병원 > 외과",
        "place_name": "베리굿외과의원"
    },
    {
        "category_name": "의료,건강 > 병원 > 내과",
        "place_name": "삼성정내과의원"
    },
    {
        "category_name": "의료,건강 > 병원 > 정형외과",
        "place_name": "힘찬병원 강남점"
    },
    {
        "category_name": "의료,건강 > 병원 > 노인,요양병원",
        "place_name": "스테이온요양병원"
    },
    {
        "category_name": "의료,건강 > 병원 > 내과",
        "place_name": "다미내과의원"
    },
    {
        "category_name": "의료,건강 > 병원 > 내과",
        "place_name": "윤석중내과의원"
    },
    {
        "category_name": "의료,건강 > 병원 > 정신건강의학과",
        "place_name": "잠실하늘정신건강의학과의원"
    },
    {
        "category_name": "의료,건강 > 병원 > 정형외과",
        "place_name": "잠실튼튼본의원"
    },
    {
        "category_name": "의료,건강 > 병원 > 피부과",
        "place_name": "홍피부과의원"
    },
    {
        "category_name": "의료,건강 > 병원 > 재활의학과",
        "place_name": "국가대표재활의학과의원"
    },
    {
        "category_name": "의료,건강 > 병원 > 일반의원",
        "place_name": "뉴리즈의원"
    },
    {
        "category_name": "의료,건강 > 병원 > 피부과",
        "place_name": "에스준의원"
    },
    {
        "category_name": "의료,건강 > 병원 > 한의원",
        "place_name": "누베베한의원 잠실점"
    },
    {
        "category_name": "의료,건강 > 병원 > 안과",
        "place_name": "아이유안과의원"
    },
    {
        "category_name": "의료,건강 > 병원 > 정형외과",
        "place_name": "성모SK마취통증의학과의원"
    },
    {
        "category_name": "의료,건강 > 병원 > 외과",
        "place_name": "베리굿외과의원"
    },
    {
        "category_name": "의료,건강 > 병원 > 내과",
        "place_name": "삼성정내과의원"
    },
    {
        "category_name": "의료,건강 > 병원 > 정형외과",
        "place_name": "힘찬병원 강남점"
    },
    {
        "category_name": "의료,건강 > 병원 > 노인,요양병원",
        "place_name": "스테이온요양병원"
    },
    {
        "category_name": "의료,건강 > 병원 > 내과",
        "place_name": "다미내과의원"
    },
    {
        "category_name": "의료,건강 > 병원 > 내과",
        "place_name": "윤석중내과의원"
    },
    {
        "category_name": "의료,건강 > 병원 > 정신건강의학과",
        "place_name": "잠실하늘정신건강의학과의원"
    },
    {
        "category_name": "의료,건강 > 병원 > 정형외과",
        "place_name": "잠실튼튼본의원"
    },
    {
        "category_name": "의료,건강 > 병원 > 피부과",
        "place_name": "홍피부과의원"
    },
    {
        "category_name": "의료,건강 > 병원 > 재활의학과",
        "place_name": "국가대표재활의학과의원"
    },
    {
        "category_name": "의료,건강 > 병원 > 일반의원",
        "place_name": "뉴리즈의원"
    },
    {
        "category_name": "의료,건강 > 병원 > 피부과",
        "place_name": "에스준의원"
    },
    {
        "category_name": "의료,건강 > 병원 > 한의원",
        "place_name": "누베베한의원 잠실점"
    },
    {
        "category_name": "의료,건강 > 병원 > 안과",
        "place_name": "아이유안과의원"
    },
    {
        "category_name": "의료,건강 > 병원 > 정형외과",
        "place_name": "성모SK마취통증의학과의원"
    },
    {
        "category_name": "의료,건강 > 병원 > 외과",
        "place_name": "베리굿외과의원"
    },
    {
        "category_name": "의료,건강 > 병원 > 내과",
        "place_name": "삼성정내과의원"
    },
    {
        "category_name": "의료,건강 > 병원 > 정형외과",
        "place_name": "힘찬병원 강남점"
    },
    {
        "category_name": "의료,건강 > 병원 > 노인,요양병원",
        "place_name": "스테이온요양병원"
    },
    {
        "category_name": "의료,건강 > 병원 > 내과",
        "place_name": "다미내과의원"
    },
    {
        "category_name": "의료,건강 > 병원 > 내과",
        "place_name": "윤석중내과의원"
    },
    {
        "category_name": "의료,건강 > 병원 > 정신건강의학과",
        "place_name": "잠실하늘정신건강의학과의원"
    },
    {
        "category_name": "의료,건강 > 병원 > 정형외과",
        "place_name": "잠실튼튼본의원"
    },
    {
        "category_name": "의료,건강 > 병원 > 피부과",
        "place_name": "홍피부과의원"
    },
    {
        "category_name": "의료,건강 > 병원 > 재활의학과",
        "place_name": "국가대표재활의학과의원"
    },
    {
        "category_name": "의료,건강 > 병원 > 일반의원",
        "place_name": "뉴리즈의원"
    },
    {
        "category_name": "의료,건강 > 병원 > 피부과",
        "place_name": "에스준의원"
    },
    {
        "category_name": "의료,건강 > 병원 > 한의원",
        "place_name": "누베베한의원 잠실점"
    },
    {
        "category_name": "의료,건강 > 병원 > 안과",
        "place_name": "아이유안과의원"
    },
    {
        "category_name": "의료,건강 > 병원 > 정형외과",
        "place_name": "성모SK마취통증의학과의원"
    },
    {
        "category_name": "의료,건강 > 병원 > 외과",
        "place_name": "베리굿외과의원"
    },
    {
        "category_name": "의료,건강 > 병원 > 내과",
        "place_name": "삼성정내과의원"
    },
    {
        "category_name": "의료,건강 > 병원 > 정형외과",
        "place_name": "힘찬병원 강남점"
    },
    {
        "category_name": "의료,건강 > 병원 > 노인,요양병원",
        "place_name": "스테이온요양병원"
    },
    {
        "category_name": "의료,건강 > 병원 > 내과",
        "place_name": "다미내과의원"
    },
    {
        "category_name": "의료,건강 > 병원 > 내과",
        "place_name": "윤석중내과의원"
    },
    {
        "category_name": "의료,건강 > 병원 > 정신건강의학과",
        "place_name": "잠실하늘정신건강의학과의원"
    },
    {
        "category_name": "의료,건강 > 병원 > 정형외과",
        "place_name": "잠실튼튼본의원"
    },
    {
        "category_name": "의료,건강 > 병원 > 피부과",
        "place_name": "홍피부과의원"
    },
    {
        "category_name": "의료,건강 > 병원 > 재활의학과",
        "place_name": "국가대표재활의학과의원"
    },
    {
        "category_name": "의료,건강 > 병원 > 일반의원",
        "place_name": "뉴리즈의원"
    },
    {
        "category_name": "의료,건강 > 병원 > 피부과",
        "place_name": "에스준의원"
    },
    {
        "category_name": "의료,건강 > 병원 > 한의원",
        "place_name": "누베베한의원 잠실점"
    },
    {
        "category_name": "의료,건강 > 병원 > 안과",
        "place_name": "아이유안과의원"
    },
    {
        "category_name": "의료,건강 > 병원 > 정형외과",
        "place_name": "성모SK마취통증의학과의원"
    },
    {
        "category_name": "의료,건강 > 병원 > 외과",
        "place_name": "베리굿외과의원"
    },
    {
        "category_name": "의료,건강 > 병원 > 내과",
        "place_name": "삼성정내과의원"
    },
    {
        "category_name": "의료,건강 > 병원 > 정형외과",
        "place_name": "힘찬병원 강남점"
    },
    {
        "category_name": "의료,건강 > 병원 > 노인,요양병원",
        "place_name": "스테이온요양병원"
    },
    {
        "category_name": "의료,건강 > 병원 > 내과",
        "place_name": "다미내과의원"
    },
    {
        "category_name": "의료,건강 > 병원 > 내과",
        "place_name": "윤석중내과의원"
    },
    {
        "category_name": "의료,건강 > 병원 > 정신건강의학과",
        "place_name": "잠실하늘정신건강의학과의원"
    },
    {
        "category_name": "의료,건강 > 병원 > 정형외과",
        "place_name": "잠실튼튼본의원"
    },
    {
        "category_name": "의료,건강 > 병원 > 피부과",
        "place_name": "홍피부과의원"
    },
    {
        "category_name": "의료,건강 > 병원 > 재활의학과",
        "place_name": "국가대표재활의학과의원"
    },
    {
        "category_name": "의료,건강 > 병원 > 일반의원",
        "place_name": "뉴리즈의원"
    },
    {
        "category_name": "의료,건강 > 병원 > 피부과",
        "place_name": "에스준의원"
    },
    {
        "category_name": "의료,건강 > 병원 > 한의원",
        "place_name": "누베베한의원 잠실점"
    },
    {
        "category_name": "의료,건강 > 병원 > 안과",
        "place_name": "아이유안과의원"
    },
    {
        "category_name": "의료,건강 > 병원 > 정형외과",
        "place_name": "성모SK마취통증의학과의원"
    },
    {
        "category_name": "의료,건강 > 병원 > 외과",
        "place_name": "베리굿외과의원"
    },
    {
        "category_name": "의료,건강 > 병원 > 내과",
        "place_name": "삼성정내과의원"
    },
    {
        "category_name": "의료,건강 > 병원 > 정형외과",
        "place_name": "힘찬병원 강남점"
    },
    {
        "category_name": "의료,건강 > 병원 > 노인,요양병원",
        "place_name": "스테이온요양병원"
    },
    {
        "category_name": "의료,건강 > 병원 > 내과",
        "place_name": "다미내과의원"
    },
    {
        "category_name": "의료,건강 > 병원 > 내과",
        "place_name": "윤석중내과의원"
    },
    {
        "category_name": "의료,건강 > 병원 > 정신건강의학과",
        "place_name": "잠실하늘정신건강의학과의원"
    },
    {
        "category_name": "의료,건강 > 병원 > 정형외과",
        "place_name": "잠실튼튼본의원"
    },
    {
        "category_name": "의료,건강 > 병원 > 피부과",
        "place_name": "홍피부과의원"
    },
    {
        "category_name": "의료,건강 > 병원 > 재활의학과",
        "place_name": "국가대표재활의학과의원"
    },
    {
        "category_name": "의료,건강 > 병원 > 일반의원",
        "place_name": "뉴리즈의원"
    },
    {
        "category_name": "의료,건강 > 병원 > 피부과",
        "place_name": "에스준의원"
    },
    {
        "category_name": "의료,건강 > 병원 > 한의원",
        "place_name": "누베베한의원 잠실점"
    },
    {
        "category_name": "의료,건강 > 병원 > 안과",
        "place_name": "아이유안과의원"
    },
    {
        "category_name": "의료,건강 > 병원 > 정형외과",
        "place_name": "성모SK마취통증의학과의원"
    },
    {
        "category_name": "의료,건강 > 병원 > 외과",
        "place_name": "베리굿외과의원"
    },
    {
        "category_name": "의료,건강 > 병원 > 내과",
        "place_name": "삼성정내과의원"
    },
    {
        "category_name": "의료,건강 > 병원 > 정형외과",
        "place_name": "힘찬병원 강남점"
    },
    {
        "category_name": "의료,건강 > 병원 > 노인,요양병원",
        "place_name": "스테이온요양병원"
    },
    {
        "category_name": "의료,건강 > 병원 > 내과",
        "place_name": "다미내과의원"
    },
    {
        "category_name": "의료,건강 > 병원 > 내과",
        "place_name": "윤석중내과의원"
    },
    {
        "category_name": "의료,건강 > 병원 > 정신건강의학과",
        "place_name": "잠실하늘정신건강의학과의원"
    },
    {
        "category_name": "의료,건강 > 병원 > 정형외과",
        "place_name": "잠실튼튼본의원"
    },
    {
        "category_name": "의료,건강 > 병원 > 피부과",
        "place_name": "홍피부과의원"
    },
    {
        "category_name": "의료,건강 > 병원 > 재활의학과",
        "place_name": "국가대표재활의학과의원"
    },
    {
        "category_name": "의료,건강 > 병원 > 일반의원",
        "place_name": "뉴리즈의원"
    },
    {
        "category_name": "의료,건강 > 병원 > 피부과",
        "place_name": "에스준의원"
    },
    {
        "category_name": "의료,건강 > 병원 > 한의원",
        "place_name": "누베베한의원 잠실점"
    },
    {
        "category_name": "의료,건강 > 병원 > 안과",
        "place_name": "아이유안과의원"
    },
    {
        "category_name": "의료,건강 > 병원 > 정형외과",
        "place_name": "성모SK마취통증의학과의원"
    },
    {
        "category_name": "의료,건강 > 병원 > 외과",
        "place_name": "베리굿외과의원"
    },
    {
        "category_name": "의료,건강 > 병원 > 내과",
        "place_name": "삼성정내과의원"
    },
    {
        "category_name": "의료,건강 > 병원 > 정형외과",
        "place_name": "힘찬병원 강남점"
    },
    {
        "category_name": "의료,건강 > 병원 > 노인,요양병원",
        "place_name": "스테이온요양병원"
    },
    {
        "category_name": "의료,건강 > 병원 > 내과",
        "place_name": "다미내과의원"
    },
    {
        "category_name": "의료,건강 > 병원 > 내과",
        "place_name": "윤석중내과의원"
    },
    {
        "category_name": "의료,건강 > 병원 > 정신건강의학과",
        "place_name": "잠실하늘정신건강의학과의원"
    },
    {
        "category_name": "의료,건강 > 병원 > 정형외과",
        "place_name": "잠실튼튼본의원"
    },
    {
        "category_name": "의료,건강 > 병원 > 피부과",
        "place_name": "홍피부과의원"
    },
    {
        "category_name": "의료,건강 > 병원 > 재활의학과",
        "place_name": "국가대표재활의학과의원"
    },
    {
        "category_name": "의료,건강 > 병원 > 일반의원",
        "place_name": "뉴리즈의원"
    },
    {
        "category_name": "의료,건강 > 병원 > 피부과",
        "place_name": "에스준의원"
    },
    {
        "category_name": "의료,건강 > 병원 > 한의원",
        "place_name": "누베베한의원 잠실점"
    },
    {
        "category_name": "의료,건강 > 병원 > 안과",
        "place_name": "아이유안과의원"
    },
    {
        "category_name": "의료,건강 > 병원 > 정형외과",
        "place_name": "성모SK마취통증의학과의원"
    },
    {
        "category_name": "의료,건강 > 병원 > 외과",
        "place_name": "베리굿외과의원"
    },
    {
        "category_name": "의료,건강 > 병원 > 내과",
        "place_name": "삼성정내과의원"
    },
    {
        "category_name": "의료,건강 > 병원 > 정형외과",
        "place_name": "힘찬병원 강남점"
    },
    {
        "category_name": "의료,건강 > 병원 > 노인,요양병원",
        "place_name": "스테이온요양병원"
    },
    {
        "category_name": "의료,건강 > 병원 > 내과",
        "place_name": "다미내과의원"
    },
    {
        "category_name": "의료,건강 > 병원 > 내과",
        "place_name": "윤석중내과의원"
    },
    {
        "category_name": "의료,건강 > 병원 > 정신건강의학과",
        "place_name": "잠실하늘정신건강의학과의원"
    },
    {
        "category_name": "의료,건강 > 병원 > 정형외과",
        "place_name": "잠실튼튼본의원"
    },
    {
        "category_name": "의료,건강 > 병원 > 피부과",
        "place_name": "홍피부과의원"
    },
    {
        "category_name": "의료,건강 > 병원 > 재활의학과",
        "place_name": "국가대표재활의학과의원"
    },
    {
        "category_name": "의료,건강 > 병원 > 일반의원",
        "place_name": "뉴리즈의원"
    },
    {
        "category_name": "의료,건강 > 병원 > 피부과",
        "place_name": "에스준의원"
    },
    {
        "category_name": "의료,건강 > 병원 > 한의원",
        "place_name": "누베베한의원 잠실점"
    },
    {
        "category_name": "의료,건강 > 병원 > 안과",
        "place_name": "아이유안과의원"
    },
    {
        "category_name": "의료,건강 > 병원 > 정형외과",
        "place_name": "성모SK마취통증의학과의원"
    },
    {
        "category_name": "의료,건강 > 병원 > 외과",
        "place_name": "베리굿외과의원"
    },
    {
        "category_name": "의료,건강 > 병원 > 내과",
        "place_name": "삼성정내과의원"
    },
    {
        "category_name": "의료,건강 > 병원 > 정형외과",
        "place_name": "힘찬병원 강남점"
    },
    {
        "category_name": "의료,건강 > 병원 > 노인,요양병원",
        "place_name": "스테이온요양병원"
    },
    {
        "category_name": "의료,건강 > 병원 > 내과",
        "place_name": "다미내과의원"
    },
    {
        "category_name": "의료,건강 > 병원 > 내과",
        "place_name": "윤석중내과의원"
    },
    {
        "category_name": "의료,건강 > 병원 > 정신건강의학과",
        "place_name": "잠실하늘정신건강의학과의원"
    },
    {
        "category_name": "의료,건강 > 병원 > 정형외과",
        "place_name": "잠실튼튼본의원"
    },
    {
        "category_name": "의료,건강 > 병원 > 피부과",
        "place_name": "홍피부과의원"
    },
    {
        "category_name": "의료,건강 > 병원 > 재활의학과",
        "place_name": "국가대표재활의학과의원"
    },
    {
        "category_name": "의료,건강 > 병원 > 일반의원",
        "place_name": "뉴리즈의원"
    },
    {
        "category_name": "의료,건강 > 병원 > 피부과",
        "place_name": "에스준의원"
    },
    {
        "category_name": "의료,건강 > 병원 > 한의원",
        "place_name": "누베베한의원 잠실점"
    },
    {
        "category_name": "의료,건강 > 병원 > 안과",
        "place_name": "아이유안과의원"
    },
    {
        "category_name": "의료,건강 > 병원 > 정형외과",
        "place_name": "성모SK마취통증의학과의원"
    },
    {
        "category_name": "의료,건강 > 병원 > 외과",
        "place_name": "베리굿외과의원"
    },
    {
        "category_name": "의료,건강 > 병원 > 내과",
        "place_name": "삼성정내과의원"
    },
    {
        "category_name": "의료,건강 > 병원 > 정형외과",
        "place_name": "힘찬병원 강남점"
    },
    {
        "category_name": "의료,건강 > 병원 > 노인,요양병원",
        "place_name": "스테이온요양병원"
    },
    {
        "category_name": "의료,건강 > 병원 > 내과",
        "place_name": "다미내과의원"
    },
    {
        "category_name": "의료,건강 > 병원 > 내과",
        "place_name": "윤석중내과의원"
    },
    {
        "category_name": "의료,건강 > 병원 > 정신건강의학과",
        "place_name": "잠실하늘정신건강의학과의원"
    },
    {
        "category_name": "의료,건강 > 병원 > 정형외과",
        "place_name": "잠실튼튼본의원"
    },
    {
        "category_name": "의료,건강 > 병원 > 피부과",
        "place_name": "홍피부과의원"
    },
    {
        "category_name": "의료,건강 > 병원 > 재활의학과",
        "place_name": "국가대표재활의학과의원"
    },
    {
        "category_name": "의료,건강 > 병원 > 일반의원",
        "place_name": "뉴리즈의원"
    },
    {
        "category_name": "의료,건강 > 병원 > 피부과",
        "place_name": "에스준의원"
    },
    {
        "category_name": "의료,건강 > 병원 > 한의원",
        "place_name": "누베베한의원 잠실점"
    },
    {
        "category_name": "의료,건강 > 병원 > 안과",
        "place_name": "아이유안과의원"
    },
    {
        "category_name": "의료,건강 > 병원 > 정형외과",
        "place_name": "성모SK마취통증의학과의원"
    },
    {
        "category_name": "의료,건강 > 병원 > 외과",
        "place_name": "베리굿외과의원"
    },
    {
        "category_name": "의료,건강 > 병원 > 내과",
        "place_name": "삼성정내과의원"
    },
    {
        "category_name": "의료,건강 > 병원 > 정형외과",
        "place_name": "힘찬병원 강남점"
    },
    {
        "category_name": "의료,건강 > 병원 > 노인,요양병원",
        "place_name": "스테이온요양병원"
    },
    {
        "category_name": "의료,건강 > 병원 > 내과",
        "place_name": "다미내과의원"
    },
    {
        "category_name": "의료,건강 > 병원 > 내과",
        "place_name": "윤석중내과의원"
    },
    {
        "category_name": "의료,건강 > 병원 > 정신건강의학과",
        "place_name": "잠실하늘정신건강의학과의원"
    },
    {
        "category_name": "의료,건강 > 병원 > 정형외과",
        "place_name": "잠실튼튼본의원"
    },
    {
        "category_name": "의료,건강 > 병원 > 피부과",
        "place_name": "홍피부과의원"
    },
    {
        "category_name": "의료,건강 > 병원 > 재활의학과",
        "place_name": "국가대표재활의학과의원"
    },
    {
        "category_name": "의료,건강 > 병원 > 일반의원",
        "place_name": "뉴리즈의원"
    },
    {
        "category_name": "의료,건강 > 병원 > 피부과",
        "place_name": "에스준의원"
    },
    {
        "category_name": "의료,건강 > 병원 > 한의원",
        "place_name": "누베베한의원 잠실점"
    },
    {
        "category_name": "의료,건강 > 병원 > 안과",
        "place_name": "아이유안과의원"
    },
    {
        "category_name": "의료,건강 > 병원 > 정형외과",
        "place_name": "성모SK마취통증의학과의원"
    },
    {
        "category_name": "의료,건강 > 병원 > 외과",
        "place_name": "베리굿외과의원"
    },
    {
        "category_name": "의료,건강 > 병원 > 내과",
        "place_name": "삼성정내과의원"
    },
    {
        "category_name": "의료,건강 > 병원 > 정형외과",
        "place_name": "힘찬병원 강남점"
    },
    {
        "category_name": "의료,건강 > 병원 > 노인,요양병원",
        "place_name": "스테이온요양병원"
    },
    {
        "category_name": "의료,건강 > 병원 > 내과",
        "place_name": "다미내과의원"
    },
    {
        "category_name": "의료,건강 > 병원 > 내과",
        "place_name": "윤석중내과의원"
    },
    {
        "category_name": "의료,건강 > 병원 > 정신건강의학과",
        "place_name": "잠실하늘정신건강의학과의원"
    },
    {
        "category_name": "의료,건강 > 병원 > 정형외과",
        "place_name": "잠실튼튼본의원"
    },
    {
        "category_name": "의료,건강 > 병원 > 피부과",
        "place_name": "홍피부과의원"
    },
    {
        "category_name": "의료,건강 > 병원 > 재활의학과",
        "place_name": "국가대표재활의학과의원"
    },
    {
        "category_name": "의료,건강 > 병원 > 일반의원",
        "place_name": "뉴리즈의원"
    },
    {
        "category_name": "의료,건강 > 병원 > 피부과",
        "place_name": "에스준의원"
    },
    {
        "category_name": "의료,건강 > 병원 > 한의원",
        "place_name": "누베베한의원 잠실점"
    },
    {
        "category_name": "의료,건강 > 병원 > 안과",
        "place_name": "아이유안과의원"
    },
    {
        "category_name": "의료,건강 > 병원 > 정형외과",
        "place_name": "성모SK마취통증의학과의원"
    },
    {
        "category_name": "의료,건강 > 병원 > 외과",
        "place_name": "베리굿외과의원"
    },
    {
        "category_name": "의료,건강 > 병원 > 내과",
        "place_name": "삼성정내과의원"
    },
    {
        "category_name": "의료,건강 > 병원 > 정형외과",
        "place_name": "힘찬병원 강남점"
    },
    {
        "category_name": "의료,건강 > 병원 > 노인,요양병원",
        "place_name": "스테이온요양병원"
    },
    {
        "category_name": "의료,건강 > 병원 > 내과",
        "place_name": "다미내과의원"
    },
    {
        "category_name": "의료,건강 > 병원 > 내과",
        "place_name": "윤석중내과의원"
    },
    {
        "category_name": "의료,건강 > 병원 > 정신건강의학과",
        "place_name": "잠실하늘정신건강의학과의원"
    },
    {
        "category_name": "의료,건강 > 병원 > 정형외과",
        "place_name": "잠실튼튼본의원"
    },
    {
        "category_name": "의료,건강 > 병원 > 피부과",
        "place_name": "홍피부과의원"
    },
    {
        "category_name": "의료,건강 > 병원 > 재활의학과",
        "place_name": "국가대표재활의학과의원"
    },
    {
        "category_name": "의료,건강 > 병원 > 일반의원",
        "place_name": "뉴리즈의원"
    },
    {
        "category_name": "의료,건강 > 병원 > 피부과",
        "place_name": "에스준의원"
    },
    {
        "category_name": "의료,건강 > 병원 > 한의원",
        "place_name": "누베베한의원 잠실점"
    },
    {
        "category_name": "의료,건강 > 병원 > 안과",
        "place_name": "아이유안과의원"
    },
    {
        "category_name": "의료,건강 > 병원 > 정형외과",
        "place_name": "성모SK마취통증의학과의원"
    },
    {
        "category_name": "의료,건강 > 병원 > 외과",
        "place_name": "베리굿외과의원"
    },
    {
        "category_name": "의료,건강 > 병원 > 내과",
        "place_name": "삼성정내과의원"
    },
    {
        "category_name": "의료,건강 > 병원 > 정형외과",
        "place_name": "힘찬병원 강남점"
    },
    {
        "category_name": "의료,건강 > 병원 > 노인,요양병원",
        "place_name": "스테이온요양병원"
    },
    {
        "category_name": "의료,건강 > 병원 > 내과",
        "place_name": "다미내과의원"
    },
    {
        "category_name": "의료,건강 > 병원 > 내과",
        "place_name": "윤석중내과의원"
    },
    {
        "category_name": "의료,건강 > 병원 > 정신건강의학과",
        "place_name": "잠실하늘정신건강의학과의원"
    },
    {
        "category_name": "의료,건강 > 병원 > 정형외과",
        "place_name": "잠실튼튼본의원"
    },
    {
        "category_name": "의료,건강 > 병원 > 피부과",
        "place_name": "홍피부과의원"
    },
    {
        "category_name": "의료,건강 > 병원 > 재활의학과",
        "place_name": "국가대표재활의학과의원"
    },
    {
        "category_name": "의료,건강 > 병원 > 일반의원",
        "place_name": "뉴리즈의원"
    },
    {
        "category_name": "의료,건강 > 병원 > 피부과",
        "place_name": "에스준의원"
    },
    {
        "category_name": "의료,건강 > 병원 > 한의원",
        "place_name": "누베베한의원 잠실점"
    },
    {
        "category_name": "의료,건강 > 병원 > 안과",
        "place_name": "아이유안과의원"
    },
    {
        "category_name": "의료,건강 > 병원 > 정형외과",
        "place_name": "성모SK마취통증의학과의원"
    },
    {
        "category_name": "의료,건강 > 병원 > 외과",
        "place_name": "베리굿외과의원"
    },
    {
        "category_name": "의료,건강 > 병원 > 내과",
        "place_name": "삼성정내과의원"
    },
    {
        "category_name": "의료,건강 > 병원 > 정형외과",
        "place_name": "힘찬병원 강남점"
    },
    {
        "category_name": "의료,건강 > 병원 > 노인,요양병원",
        "place_name": "스테이온요양병원"
    },
    {
        "category_name": "의료,건강 > 병원 > 내과",
        "place_name": "다미내과의원"
    },
    {
        "category_name": "의료,건강 > 병원 > 내과",
        "place_name": "윤석중내과의원"
    },
    {
        "category_name": "의료,건강 > 병원 > 정신건강의학과",
        "place_name": "잠실하늘정신건강의학과의원"
    },
    {
        "category_name": "의료,건강 > 병원 > 정형외과",
        "place_name": "잠실튼튼본의원"
    },
    {
        "category_name": "의료,건강 > 병원 > 피부과",
        "place_name": "홍피부과의원"
    },
    {
        "category_name": "의료,건강 > 병원 > 재활의학과",
        "place_name": "국가대표재활의학과의원"
    },
    {
        "category_name": "의료,건강 > 병원 > 일반의원",
        "place_name": "뉴리즈의원"
    },
    {
        "category_name": "의료,건강 > 병원 > 피부과",
        "place_name": "에스준의원"
    },
    {
        "category_name": "의료,건강 > 병원 > 한의원",
        "place_name": "누베베한의원 잠실점"
    },
    {
        "category_name": "의료,건강 > 병원 > 안과",
        "place_name": "아이유안과의원"
    },
    {
        "category_name": "의료,건강 > 병원 > 정형외과",
        "place_name": "성모SK마취통증의학과의원"
    },
    {
        "category_name": "의료,건강 > 병원 > 외과",
        "place_name": "베리굿외과의원"
    },
    {
        "category_name": "의료,건강 > 병원 > 내과",
        "place_name": "삼성정내과의원"
    },
    {
        "category_name": "의료,건강 > 병원 > 정형외과",
        "place_name": "힘찬병원 강남점"
    },
    {
        "category_name": "의료,건강 > 병원 > 노인,요양병원",
        "place_name": "스테이온요양병원"
    },
    {
        "category_name": "의료,건강 > 병원 > 내과",
        "place_name": "다미내과의원"
    },
    {
        "category_name": "의료,건강 > 병원 > 내과",
        "place_name": "윤석중내과의원"
    },
    {
        "category_name": "의료,건강 > 병원 > 정신건강의학과",
        "place_name": "잠실하늘정신건강의학과의원"
    },
    {
        "category_name": "의료,건강 > 병원 > 정형외과",
        "place_name": "잠실튼튼본의원"
    },
    {
        "category_name": "의료,건강 > 병원 > 피부과",
        "place_name": "홍피부과의원"
    },
    {
        "category_name": "의료,건강 > 병원 > 재활의학과",
        "place_name": "국가대표재활의학과의원"
    },
    {
        "category_name": "의료,건강 > 병원 > 일반의원",
        "place_name": "뉴리즈의원"
    },
    {
        "category_name": "의료,건강 > 병원 > 피부과",
        "place_name": "에스준의원"
    },
    {
        "category_name": "의료,건강 > 병원 > 한의원",
        "place_name": "누베베한의원 잠실점"
    },
    {
        "category_name": "의료,건강 > 병원 > 안과",
        "place_name": "아이유안과의원"
    },
    {
        "category_name": "의료,건강 > 병원 > 정형외과",
        "place_name": "성모SK마취통증의학과의원"
    },
    {
        "category_name": "의료,건강 > 병원 > 외과",
        "place_name": "베리굿외과의원"
    },
    {
        "category_name": "의료,건강 > 병원 > 내과",
        "place_name": "삼성정내과의원"
    },
    {
        "category_name": "의료,건강 > 병원 > 정형외과",
        "place_name": "힘찬병원 강남점"
    },
    {
        "category_name": "의료,건강 > 병원 > 노인,요양병원",
        "place_name": "스테이온요양병원"
    },
    {
        "category_name": "의료,건강 > 병원 > 내과",
        "place_name": "다미내과의원"
    },
    {
        "category_name": "의료,건강 > 병원 > 내과",
        "place_name": "윤석중내과의원"
    },
    {
        "category_name": "의료,건강 > 병원 > 정신건강의학과",
        "place_name": "잠실하늘정신건강의학과의원"
    },
    {
        "category_name": "의료,건강 > 병원 > 정형외과",
        "place_name": "잠실튼튼본의원"
    },
    {
        "category_name": "의료,건강 > 병원 > 피부과",
        "place_name": "홍피부과의원"
    },
    {
        "category_name": "의료,건강 > 병원 > 재활의학과",
        "place_name": "국가대표재활의학과의원"
    },
    {
        "category_name": "의료,건강 > 병원 > 일반의원",
        "place_name": "뉴리즈의원"
    },
    {
        "category_name": "의료,건강 > 병원 > 피부과",
        "place_name": "에스준의원"
    },
    {
        "category_name": "의료,건강 > 병원 > 한의원",
        "place_name": "누베베한의원 잠실점"
    },
    {
        "category_name": "의료,건강 > 병원 > 안과",
        "place_name": "아이유안과의원"
    },
    {
        "category_name": "의료,건강 > 병원 > 정형외과",
        "place_name": "성모SK마취통증의학과의원"
    },
    {
        "category_name": "의료,건강 > 병원 > 외과",
        "place_name": "베리굿외과의원"
    },
    {
        "category_name": "의료,건강 > 병원 > 내과",
        "place_name": "삼성정내과의원"
    },
    {
        "category_name": "의료,건강 > 병원 > 정형외과",
        "place_name": "힘찬병원 강남점"
    },
    {
        "category_name": "의료,건강 > 병원 > 노인,요양병원",
        "place_name": "스테이온요양병원"
    },
    {
        "category_name": "의료,건강 > 병원 > 내과",
        "place_name": "다미내과의원"
    },
    {
        "category_name": "의료,건강 > 병원 > 내과",
        "place_name": "윤석중내과의원"
    },
    {
        "category_name": "의료,건강 > 병원 > 정신건강의학과",
        "place_name": "잠실하늘정신건강의학과의원"
    },
    {
        "category_name": "의료,건강 > 병원 > 정형외과",
        "place_name": "잠실튼튼본의원"
    },
    {
        "category_name": "의료,건강 > 병원 > 피부과",
        "place_name": "홍피부과의원"
    },
    {
        "category_name": "의료,건강 > 병원 > 재활의학과",
        "place_name": "국가대표재활의학과의원"
    },
    {
        "category_name": "의료,건강 > 병원 > 일반의원",
        "place_name": "뉴리즈의원"
    },
    {
        "category_name": "의료,건강 > 병원 > 피부과",
        "place_name": "에스준의원"
    },
    {
        "category_name": "의료,건강 > 병원 > 한의원",
        "place_name": "누베베한의원 잠실점"
    },
    {
        "category_name": "의료,건강 > 병원 > 안과",
        "place_name": "아이유안과의원"
    },
    {
        "category_name": "의료,건강 > 병원 > 정형외과",
        "place_name": "성모SK마취통증의학과의원"
    },
    {
        "category_name": "의료,건강 > 병원 > 외과",
        "place_name": "베리굿외과의원"
    },
    {
        "category_name": "의료,건강 > 병원 > 내과",
        "place_name": "삼성정내과의원"
    },
    {
        "category_name": "의료,건강 > 병원 > 정형외과",
        "place_name": "힘찬병원 강남점"
    },
    {
        "category_name": "의료,건강 > 병원 > 노인,요양병원",
        "place_name": "스테이온요양병원"
    },
    {
        "category_name": "의료,건강 > 병원 > 내과",
        "place_name": "다미내과의원"
    },
    {
        "category_name": "의료,건강 > 병원 > 내과",
        "place_name": "윤석중내과의원"
    },
    {
        "category_name": "의료,건강 > 병원 > 정신건강의학과",
        "place_name": "잠실하늘정신건강의학과의원"
    },
    {
        "category_name": "의료,건강 > 병원 > 정형외과",
        "place_name": "잠실튼튼본의원"
    },
    {
        "category_name": "의료,건강 > 병원 > 피부과",
        "place_name": "홍피부과의원"
    },
    {
        "category_name": "의료,건강 > 병원 > 재활의학과",
        "place_name": "국가대표재활의학과의원"
    },
    {
        "category_name": "의료,건강 > 병원 > 일반의원",
        "place_name": "뉴리즈의원"
    },
    {
        "category_name": "의료,건강 > 병원 > 피부과",
        "place_name": "에스준의원"
    },
    {
        "category_name": "의료,건강 > 병원 > 한의원",
        "place_name": "누베베한의원 잠실점"
    },
    {
        "category_name": "의료,건강 > 병원 > 안과",
        "place_name": "아이유안과의원"
    },
    {
        "category_name": "의료,건강 > 병원 > 정형외과",
        "place_name": "성모SK마취통증의학과의원"
    },
    {
        "category_name": "의료,건강 > 병원 > 외과",
        "place_name": "베리굿외과의원"
    },
    {
        "category_name": "의료,건강 > 병원 > 내과",
        "place_name": "삼성정내과의원"
    },
    {
        "category_name": "의료,건강 > 병원 > 정형외과",
        "place_name": "힘찬병원 강남점"
    },
    {
        "category_name": "의료,건강 > 병원 > 노인,요양병원",
        "place_name": "스테이온요양병원"
    },
    {
        "category_name": "의료,건강 > 병원 > 내과",
        "place_name": "다미내과의원"
    },
    {
        "category_name": "의료,건강 > 병원 > 내과",
        "place_name": "윤석중내과의원"
    },
    {
        "category_name": "의료,건강 > 병원 > 정신건강의학과",
        "place_name": "잠실하늘정신건강의학과의원"
    },
    {
        "category_name": "의료,건강 > 병원 > 정형외과",
        "place_name": "잠실튼튼본의원"
    },
    {
        "category_name": "의료,건강 > 병원 > 피부과",
        "place_name": "홍피부과의원"
    },
    {
        "category_name": "의료,건강 > 병원 > 재활의학과",
        "place_name": "국가대표재활의학과의원"
    },
    {
        "category_name": "의료,건강 > 병원 > 일반의원",
        "place_name": "뉴리즈의원"
    },
    {
        "category_name": "의료,건강 > 병원 > 피부과",
        "place_name": "에스준의원"
    },
    {
        "category_name": "의료,건강 > 병원 > 한의원",
        "place_name": "누베베한의원 잠실점"
    },
    {
        "category_name": "의료,건강 > 병원 > 안과",
        "place_name": "아이유안과의원"
    },
    {
        "category_name": "의료,건강 > 병원 > 정형외과",
        "place_name": "성모SK마취통증의학과의원"
    },
    {
        "category_name": "의료,건강 > 병원 > 외과",
        "place_name": "베리굿외과의원"
    },
    {
        "category_name": "의료,건강 > 병원 > 내과",
        "place_name": "삼성정내과의원"
    },
    {
        "category_name": "의료,건강 > 병원 > 정형외과",
        "place_name": "힘찬병원 강남점"
    },
    {
        "category_name": "의료,건강 > 병원 > 노인,요양병원",
        "place_name": "스테이온요양병원"
    },
    {
        "category_name": "의료,건강 > 병원 > 내과",
        "place_name": "다미내과의원"
    },
    {
        "category_name": "의료,건강 > 병원 > 내과",
        "place_name": "윤석중내과의원"
    },
    {
        "category_name": "의료,건강 > 병원 > 정신건강의학과",
        "place_name": "잠실하늘정신건강의학과의원"
    },
    {
        "category_name": "의료,건강 > 병원 > 정형외과",
        "place_name": "잠실튼튼본의원"
    },
    {
        "category_name": "의료,건강 > 병원 > 피부과",
        "place_name": "홍피부과의원"
    },
    {
        "category_name": "의료,건강 > 병원 > 재활의학과",
        "place_name": "국가대표재활의학과의원"
    },
    {
        "category_name": "의료,건강 > 병원 > 일반의원",
        "place_name": "뉴리즈의원"
    },
    {
        "category_name": "의료,건강 > 병원 > 피부과",
        "place_name": "에스준의원"
    },
    {
        "category_name": "의료,건강 > 병원 > 한의원",
        "place_name": "누베베한의원 잠실점"
    },
    {
        "category_name": "의료,건강 > 병원 > 안과",
        "place_name": "아이유안과의원"
    },
    {
        "category_name": "의료,건강 > 병원 > 정형외과",
        "place_name": "성모SK마취통증의학과의원"
    },
    {
        "category_name": "의료,건강 > 병원 > 외과",
        "place_name": "베리굿외과의원"
    },
    {
        "category_name": "의료,건강 > 병원 > 내과",
        "place_name": "삼성정내과의원"
    },
    {
        "category_name": "의료,건강 > 병원 > 정형외과",
        "place_name": "힘찬병원 강남점"
    },
    {
        "category_name": "의료,건강 > 병원 > 노인,요양병원",
        "place_name": "스테이온요양병원"
    },
    {
        "category_name": "의료,건강 > 병원 > 내과",
        "place_name": "다미내과의원"
    },
    {
        "category_name": "의료,건강 > 병원 > 내과",
        "place_name": "윤석중내과의원"
    },
    {
        "category_name": "의료,건강 > 병원 > 정신건강의학과",
        "place_name": "잠실하늘정신건강의학과의원"
    },
    {
        "category_name": "의료,건강 > 병원 > 정형외과",
        "place_name": "잠실튼튼본의원"
    },
    {
        "category_name": "의료,건강 > 병원 > 피부과",
        "place_name": "홍피부과의원"
    },
    {
        "category_name": "의료,건강 > 병원 > 재활의학과",
        "place_name": "국가대표재활의학과의원"
    },
    {
        "category_name": "의료,건강 > 병원 > 일반의원",
        "place_name": "뉴리즈의원"
    },
    {
        "category_name": "의료,건강 > 병원 > 피부과",
        "place_name": "에스준의원"
    },
    {
        "category_name": "의료,건강 > 병원 > 한의원",
        "place_name": "누베베한의원 잠실점"
    },
    {
        "category_name": "의료,건강 > 병원 > 안과",
        "place_name": "아이유안과의원"
    },
    {
        "category_name": "의료,건강 > 병원 > 정형외과",
        "place_name": "성모SK마취통증의학과의원"
    },
    {
        "category_name": "의료,건강 > 병원 > 외과",
        "place_name": "베리굿외과의원"
    },
    {
        "category_name": "의료,건강 > 병원 > 내과",
        "place_name": "삼성정내과의원"
    },
    {
        "category_name": "의료,건강 > 병원 > 정형외과",
        "place_name": "힘찬병원 강남점"
    },
    {
        "category_name": "의료,건강 > 병원 > 노인,요양병원",
        "place_name": "스테이온요양병원"
    },
    {
        "category_name": "의료,건강 > 병원 > 내과",
        "place_name": "다미내과의원"
    },
    {
        "category_name": "의료,건강 > 병원 > 내과",
        "place_name": "윤석중내과의원"
    },
    {
        "category_name": "의료,건강 > 병원 > 정신건강의학과",
        "place_name": "잠실하늘정신건강의학과의원"
    },
    {
        "category_name": "의료,건강 > 병원 > 정형외과",
        "place_name": "잠실튼튼본의원"
    },
    {
        "category_name": "의료,건강 > 병원 > 피부과",
        "place_name": "홍피부과의원"
    },
    {
        "category_name": "의료,건강 > 병원 > 재활의학과",
        "place_name": "국가대표재활의학과의원"
    },
    {
        "category_name": "의료,건강 > 병원 > 일반의원",
        "place_name": "뉴리즈의원"
    },
    {
        "category_name": "의료,건강 > 병원 > 피부과",
        "place_name": "에스준의원"
    },
    {
        "category_name": "의료,건강 > 병원 > 한의원",
        "place_name": "누베베한의원 잠실점"
    },
    {
        "category_name": "의료,건강 > 병원 > 안과",
        "place_name": "아이유안과의원"
    },
    {
        "category_name": "의료,건강 > 병원 > 정형외과",
        "place_name": "성모SK마취통증의학과의원"
    },
    {
        "category_name": "의료,건강 > 병원 > 외과",
        "place_name": "베리굿외과의원"
    },
    {
        "category_name": "의료,건강 > 병원 > 내과",
        "place_name": "삼성정내과의원"
    },
    {
        "category_name": "의료,건강 > 병원 > 정형외과",
        "place_name": "힘찬병원 강남점"
    },
    {
        "category_name": "의료,건강 > 병원 > 노인,요양병원",
        "place_name": "스테이온요양병원"
    },
    {
        "category_name": "의료,건강 > 병원 > 내과",
        "place_name": "다미내과의원"
    },
    {
        "category_name": "의료,건강 > 병원 > 내과",
        "place_name": "윤석중내과의원"
    },
    {
        "category_name": "의료,건강 > 병원 > 정신건강의학과",
        "place_name": "잠실하늘정신건강의학과의원"
    },
    {
        "category_name": "의료,건강 > 병원 > 정형외과",
        "place_name": "잠실튼튼본의원"
    },
    {
        "category_name": "의료,건강 > 병원 > 피부과",
        "place_name": "홍피부과의원"
    },
    {
        "category_name": "의료,건강 > 병원 > 재활의학과",
        "place_name": "국가대표재활의학과의원"
    },
    {
        "category_name": "의료,건강 > 병원 > 일반의원",
        "place_name": "뉴리즈의원"
    },
    {
        "category_name": "의료,건강 > 병원 > 피부과",
        "place_name": "에스준의원"
    },
    {
        "category_name": "의료,건강 > 병원 > 한의원",
        "place_name": "누베베한의원 잠실점"
    },
    {
        "category_name": "의료,건강 > 병원 > 안과",
        "place_name": "아이유안과의원"
    },
    {
        "category_name": "의료,건강 > 병원 > 정형외과",
        "place_name": "성모SK마취통증의학과의원"
    },
    {
        "category_name": "의료,건강 > 병원 > 외과",
        "place_name": "베리굿외과의원"
    },
    {
        "category_name": "의료,건강 > 병원 > 내과",
        "place_name": "삼성정내과의원"
    },
    {
        "category_name": "의료,건강 > 병원 > 정형외과",
        "place_name": "힘찬병원 강남점"
    },
    {
        "category_name": "의료,건강 > 병원 > 노인,요양병원",
        "place_name": "스테이온요양병원"
    },
    {
        "category_name": "의료,건강 > 병원 > 내과",
        "place_name": "다미내과의원"
    },
    {
        "category_name": "의료,건강 > 병원 > 내과",
        "place_name": "윤석중내과의원"
    },
    {
        "category_name": "의료,건강 > 병원 > 정신건강의학과",
        "place_name": "잠실하늘정신건강의학과의원"
    },
    {
        "category_name": "의료,건강 > 병원 > 정형외과",
        "place_name": "잠실튼튼본의원"
    },
    {
        "category_name": "의료,건강 > 병원 > 피부과",
        "place_name": "홍피부과의원"
    },
    {
        "category_name": "의료,건강 > 병원 > 재활의학과",
        "place_name": "국가대표재활의학과의원"
    },
    {
        "category_name": "의료,건강 > 병원 > 일반의원",
        "place_name": "뉴리즈의원"
    },
    {
        "category_name": "의료,건강 > 병원 > 피부과",
        "place_name": "에스준의원"
    },
    {
        "category_name": "의료,건강 > 병원 > 한의원",
        "place_name": "누베베한의원 잠실점"
    },
    {
        "category_name": "의료,건강 > 병원 > 안과",
        "place_name": "아이유안과의원"
    },
    {
        "category_name": "의료,건강 > 병원 > 정형외과",
        "place_name": "성모SK마취통증의학과의원"
    },
    {
        "category_name": "의료,건강 > 병원 > 외과",
        "place_name": "베리굿외과의원"
    },
    {
        "category_name": "의료,건강 > 병원 > 내과",
        "place_name": "삼성정내과의원"
    },
    {
        "category_name": "의료,건강 > 병원 > 정형외과",
        "place_name": "힘찬병원 강남점"
    },
    {
        "category_name": "의료,건강 > 병원 > 노인,요양병원",
        "place_name": "스테이온요양병원"
    },
    {
        "category_name": "의료,건강 > 병원 > 내과",
        "place_name": "다미내과의원"
    },
    {
        "category_name": "의료,건강 > 병원 > 내과",
        "place_name": "윤석중내과의원"
    },
    {
        "category_name": "의료,건강 > 병원 > 정신건강의학과",
        "place_name": "잠실하늘정신건강의학과의원"
    },
    {
        "category_name": "의료,건강 > 병원 > 정형외과",
        "place_name": "잠실튼튼본의원"
    },
    {
        "category_name": "의료,건강 > 병원 > 피부과",
        "place_name": "홍피부과의원"
    },
    {
        "category_name": "의료,건강 > 병원 > 재활의학과",
        "place_name": "국가대표재활의학과의원"
    },
    {
        "category_name": "의료,건강 > 병원 > 일반의원",
        "place_name": "뉴리즈의원"
    },
    {
        "category_name": "의료,건강 > 병원 > 피부과",
        "place_name": "에스준의원"
    },
    {
        "category_name": "의료,건강 > 병원 > 한의원",
        "place_name": "누베베한의원 잠실점"
    },
    {
        "category_name": "의료,건강 > 병원 > 안과",
        "place_name": "아이유안과의원"
    },
    {
        "category_name": "의료,건강 > 병원 > 정형외과",
        "place_name": "성모SK마취통증의학과의원"
    },
    {
        "category_name": "의료,건강 > 병원 > 외과",
        "place_name": "베리굿외과의원"
    },
    {
        "category_name": "의료,건강 > 병원 > 내과",
        "place_name": "삼성정내과의원"
    },
    {
        "category_name": "의료,건강 > 병원 > 정형외과",
        "place_name": "힘찬병원 강남점"
    },
    {
        "category_name": "의료,건강 > 병원 > 노인,요양병원",
        "place_name": "스테이온요양병원"
    },
    {
        "category_name": "의료,건강 > 병원 > 내과",
        "place_name": "다미내과의원"
    },
    {
        "category_name": "의료,건강 > 병원 > 내과",
        "place_name": "윤석중내과의원"
    },
    {
        "category_name": "의료,건강 > 병원 > 정신건강의학과",
        "place_name": "잠실하늘정신건강의학과의원"
    },
    {
        "category_name": "의료,건강 > 병원 > 정형외과",
        "place_name": "잠실튼튼본의원"
    },
    {
        "category_name": "의료,건강 > 병원 > 피부과",
        "place_name": "홍피부과의원"
    },
    {
        "category_name": "의료,건강 > 병원 > 재활의학과",
        "place_name": "국가대표재활의학과의원"
    },
    {
        "category_name": "의료,건강 > 병원 > 일반의원",
        "place_name": "뉴리즈의원"
    },
    {
        "category_name": "의료,건강 > 병원 > 피부과",
        "place_name": "에스준의원"
    },
    {
        "category_name": "의료,건강 > 병원 > 한의원",
        "place_name": "누베베한의원 잠실점"
    },
    {
        "category_name": "의료,건강 > 병원 > 안과",
        "place_name": "아이유안과의원"
    },
    {
        "category_name": "의료,건강 > 병원 > 정형외과",
        "place_name": "성모SK마취통증의학과의원"
    },
    {
        "category_name": "의료,건강 > 병원 > 외과",
        "place_name": "베리굿외과의원"
    },
    {
        "category_name": "의료,건강 > 병원 > 내과",
        "place_name": "삼성정내과의원"
    },
    {
        "category_name": "의료,건강 > 병원 > 정형외과",
        "place_name": "힘찬병원 강남점"
    },
    {
        "category_name": "의료,건강 > 병원 > 노인,요양병원",
        "place_name": "스테이온요양병원"
    },
    {
        "category_name": "의료,건강 > 병원 > 내과",
        "place_name": "다미내과의원"
    },
    {
        "category_name": "의료,건강 > 병원 > 내과",
        "place_name": "윤석중내과의원"
    },
    {
        "category_name": "의료,건강 > 병원 > 정신건강의학과",
        "place_name": "잠실하늘정신건강의학과의원"
    },
    {
        "category_name": "의료,건강 > 병원 > 정형외과",
        "place_name": "잠실튼튼본의원"
    },
    {
        "category_name": "의료,건강 > 병원 > 피부과",
        "place_name": "홍피부과의원"
    },
    {
        "category_name": "의료,건강 > 병원 > 재활의학과",
        "place_name": "국가대표재활의학과의원"
    },
    {
        "category_name": "의료,건강 > 병원 > 일반의원",
        "place_name": "뉴리즈의원"
    },
    {
        "category_name": "의료,건강 > 병원 > 피부과",
        "place_name": "에스준의원"
    },
    {
        "category_name": "의료,건강 > 병원 > 한의원",
        "place_name": "누베베한의원 잠실점"
    },
    {
        "category_name": "의료,건강 > 병원 > 안과",
        "place_name": "아이유안과의원"
    },
    {
        "category_name": "의료,건강 > 병원 > 정형외과",
        "place_name": "성모SK마취통증의학과의원"
    },
    {
        "category_name": "의료,건강 > 병원 > 외과",
        "place_name": "베리굿외과의원"
    },
    {
        "category_name": "의료,건강 > 병원 > 내과",
        "place_name": "삼성정내과의원"
    },
    {
        "category_name": "의료,건강 > 병원 > 정형외과",
        "place_name": "힘찬병원 강남점"
    },
    {
        "category_name": "의료,건강 > 병원 > 노인,요양병원",
        "place_name": "스테이온요양병원"
    },
    {
        "category_name": "의료,건강 > 병원 > 내과",
        "place_name": "다미내과의원"
    },
    {
        "category_name": "의료,건강 > 병원 > 내과",
        "place_name": "윤석중내과의원"
    },
    {
        "category_name": "의료,건강 > 병원 > 정신건강의학과",
        "place_name": "잠실하늘정신건강의학과의원"
    },
    {
        "category_name": "의료,건강 > 병원 > 정형외과",
        "place_name": "잠실튼튼본의원"
    },
    {
        "category_name": "의료,건강 > 병원 > 피부과",
        "place_name": "홍피부과의원"
    },
    {
        "category_name": "의료,건강 > 병원 > 재활의학과",
        "place_name": "국가대표재활의학과의원"
    },
    {
        "category_name": "의료,건강 > 병원 > 일반의원",
        "place_name": "뉴리즈의원"
    },
    {
        "category_name": "의료,건강 > 병원 > 피부과",
        "place_name": "에스준의원"
    },
    {
        "category_name": "의료,건강 > 병원 > 한의원",
        "place_name": "누베베한의원 잠실점"
    },
    {
        "category_name": "의료,건강 > 병원 > 안과",
        "place_name": "아이유안과의원"
    },
    {
        "category_name": "의료,건강 > 병원 > 정형외과",
        "place_name": "성모SK마취통증의학과의원"
    },
    {
        "category_name": "의료,건강 > 병원 > 외과",
        "place_name": "베리굿외과의원"
    },
    {
        "category_name": "의료,건강 > 병원 > 내과",
        "place_name": "삼성정내과의원"
    },
    {
        "category_name": "의료,건강 > 병원 > 정형외과",
        "place_name": "힘찬병원 강남점"
    },
    {
        "category_name": "의료,건강 > 병원 > 노인,요양병원",
        "place_name": "스테이온요양병원"
    },
    {
        "category_name": "의료,건강 > 병원 > 내과",
        "place_name": "다미내과의원"
    },
    {
        "category_name": "의료,건강 > 병원 > 내과",
        "place_name": "윤석중내과의원"
    },
    {
        "category_name": "의료,건강 > 병원 > 정신건강의학과",
        "place_name": "잠실하늘정신건강의학과의원"
    },
    {
        "category_name": "의료,건강 > 병원 > 정형외과",
        "place_name": "잠실튼튼본의원"
    },
    {
        "category_name": "의료,건강 > 병원 > 피부과",
        "place_name": "홍피부과의원"
    },
    {
        "category_name": "의료,건강 > 병원 > 재활의학과",
        "place_name": "국가대표재활의학과의원"
    },
    {
        "category_name": "의료,건강 > 병원 > 일반의원",
        "place_name": "뉴리즈의원"
    },
    {
        "category_name": "의료,건강 > 병원 > 피부과",
        "place_name": "에스준의원"
    },
    {
        "category_name": "의료,건강 > 병원 > 한의원",
        "place_name": "누베베한의원 잠실점"
    },
    {
        "category_name": "의료,건강 > 병원 > 안과",
        "place_name": "아이유안과의원"
    },
    {
        "category_name": "의료,건강 > 병원 > 정형외과",
        "place_name": "성모SK마취통증의학과의원"
    },
    {
        "category_name": "의료,건강 > 병원 > 외과",
        "place_name": "베리굿외과의원"
    },
    {
        "category_name": "의료,건강 > 병원 > 내과",
        "place_name": "삼성정내과의원"
    },
    {
        "category_name": "의료,건강 > 병원 > 정형외과",
        "place_name": "힘찬병원 강남점"
    },
    {
        "category_name": "의료,건강 > 병원 > 노인,요양병원",
        "place_name": "스테이온요양병원"
    },
    {
        "category_name": "의료,건강 > 병원 > 내과",
        "place_name": "다미내과의원"
    },
    {
        "category_name": "의료,건강 > 병원 > 내과",
        "place_name": "윤석중내과의원"
    },
    {
        "category_name": "의료,건강 > 병원 > 정신건강의학과",
        "place_name": "잠실하늘정신건강의학과의원"
    },
    {
        "category_name": "의료,건강 > 병원 > 정형외과",
        "place_name": "잠실튼튼본의원"
    },
    {
        "category_name": "의료,건강 > 병원 > 피부과",
        "place_name": "홍피부과의원"
    },
    {
        "category_name": "의료,건강 > 병원 > 재활의학과",
        "place_name": "국가대표재활의학과의원"
    },
    {
        "category_name": "의료,건강 > 병원 > 일반의원",
        "place_name": "뉴리즈의원"
    },
    {
        "category_name": "의료,건강 > 병원 > 피부과",
        "place_name": "에스준의원"
    },
    {
        "category_name": "의료,건강 > 병원 > 한의원",
        "place_name": "누베베한의원 잠실점"
    },
    {
        "category_name": "의료,건강 > 병원 > 안과",
        "place_name": "아이유안과의원"
    },
    {
        "category_name": "의료,건강 > 병원 > 정형외과",
        "place_name": "성모SK마취통증의학과의원"
    },
    {
        "category_name": "의료,건강 > 병원 > 외과",
        "place_name": "베리굿외과의원"
    },
    {
        "category_name": "의료,건강 > 병원 > 내과",
        "place_name": "삼성정내과의원"
    },
    {
        "category_name": "의료,건강 > 병원 > 정형외과",
        "place_name": "힘찬병원 강남점"
    },
    {
        "category_name": "의료,건강 > 병원 > 노인,요양병원",
        "place_name": "스테이온요양병원"
    },
    {
        "category_name": "의료,건강 > 병원 > 내과",
        "place_name": "다미내과의원"
    },
    {
        "category_name": "의료,건강 > 병원 > 내과",
        "place_name": "윤석중내과의원"
    },
    {
        "category_name": "의료,건강 > 병원 > 정신건강의학과",
        "place_name": "잠실하늘정신건강의학과의원"
    },
    {
        "category_name": "의료,건강 > 병원 > 정형외과",
        "place_name": "잠실튼튼본의원"
    },
    {
        "category_name": "의료,건강 > 병원 > 피부과",
        "place_name": "홍피부과의원"
    },
    {
        "category_name": "의료,건강 > 병원 > 재활의학과",
        "place_name": "국가대표재활의학과의원"
    },
    {
        "category_name": "의료,건강 > 병원 > 일반의원",
        "place_name": "뉴리즈의원"
    },
    {
        "category_name": "의료,건강 > 병원 > 피부과",
        "place_name": "에스준의원"
    },
    {
        "category_name": "의료,건강 > 병원 > 한의원",
        "place_name": "누베베한의원 잠실점"
    },
    {
        "category_name": "의료,건강 > 병원 > 안과",
        "place_name": "아이유안과의원"
    },
    {
        "category_name": "의료,건강 > 병원 > 정형외과",
        "place_name": "성모SK마취통증의학과의원"
    },
    {
        "category_name": "의료,건강 > 병원 > 외과",
        "place_name": "베리굿외과의원"
    },
    {
        "category_name": "의료,건강 > 병원 > 내과",
        "place_name": "삼성정내과의원"
    },
    {
        "category_name": "의료,건강 > 병원 > 정형외과",
        "place_name": "힘찬병원 강남점"
    },
    {
        "category_name": "의료,건강 > 병원 > 노인,요양병원",
        "place_name": "스테이온요양병원"
    },
    {
        "category_name": "의료,건강 > 병원 > 내과",
        "place_name": "다미내과의원"
    },
    {
        "category_name": "의료,건강 > 병원 > 내과",
        "place_name": "윤석중내과의원"
    },
    {
        "category_name": "의료,건강 > 병원 > 정신건강의학과",
        "place_name": "잠실하늘정신건강의학과의원"
    },
    {
        "category_name": "의료,건강 > 병원 > 정형외과",
        "place_name": "잠실튼튼본의원"
    },
    {
        "category_name": "의료,건강 > 병원 > 피부과",
        "place_name": "홍피부과의원"
    },
    {
        "category_name": "의료,건강 > 병원 > 재활의학과",
        "place_name": "국가대표재활의학과의원"
    },
    {
        "category_name": "의료,건강 > 병원 > 일반의원",
        "place_name": "뉴리즈의원"
    },
    {
        "category_name": "의료,건강 > 병원 > 피부과",
        "place_name": "에스준의원"
    },
    {
        "category_name": "의료,건강 > 병원 > 한의원",
        "place_name": "누베베한의원 잠실점"
    },
    {
        "category_name": "의료,건강 > 병원 > 안과",
        "place_name": "아이유안과의원"
    },
    {
        "category_name": "의료,건강 > 병원 > 정형외과",
        "place_name": "성모SK마취통증의학과의원"
    },
    {
        "category_name": "의료,건강 > 병원 > 외과",
        "place_name": "베리굿외과의원"
    },
    {
        "category_name": "의료,건강 > 병원 > 내과",
        "place_name": "삼성정내과의원"
    },
    {
        "category_name": "의료,건강 > 병원 > 정형외과",
        "place_name": "힘찬병원 강남점"
    },
    {
        "category_name": "의료,건강 > 병원 > 노인,요양병원",
        "place_name": "스테이온요양병원"
    },
    {
        "category_name": "의료,건강 > 약국",
        "place_name": "잠실365약국"
    },
    {
        "category_name": "의료,건강 > 약국",
        "place_name": "키즈플러스약국"
    },
    {
        "category_name": "의료,건강 > 약국",
        "place_name": "라온약국"
    },
    {
        "category_name": "의료,건강 > 약국",
        "place_name": "환승센터약국"
    },
    {
        "category_name": "의료,건강 > 약국",
        "place_name": "온누리캐슬프라자약국"
    },
    {
        "category_name": "의료,건강 > 약국",
        "place_name": "에벤에셀약국"
    },
    {
        "category_name": "의료,건강 > 약국",
        "place_name": "스타약국"
    },
    {
        "category_name": "의료,건강 > 약국",
        "place_name": "메디팜양의약국"
    },
    {
        "category_name": "의료,건강 > 약국",
        "place_name": "지하철약국"
    },
    {
        "category_name": "의료,건강 > 약국",
        "place_name": "시그니처약국"
    },
    {
        "category_name": "의료,건강 > 약국",
        "place_name": "잠실착한약국"
    },
    {
        "category_name": "의료,건강 > 약국",
        "place_name": "갤러리약국"
    },
    {
        "category_name": "의료,건강 > 약국",
        "place_name": "잠실 선약국"
    },
    {
        "category_name": "의료,건강 > 약국",
        "place_name": "알파약국"
    },
    {
        "category_name": "의료,건강 > 약국",
        "place_name": "삼성수약국"
    },
    {
        "category_name": "의료,건강 > 약국",
        "place_name": "호수약국"
    },
    {
        "category_name": "의료,건강 > 약국",
        "place_name": "한결약국"
    },
    {
        "category_name": "의료,건강 > 약국",
        "place_name": "월드중앙약국"
    },
    {
        "category_name": "의료,건강 > 약국",
        "place_name": "잠실미소약국"
    },
    {
        "category_name": "의료,건강 > 약국",
        "place_name": "해오름약국"
    },
    {
        "category_name": "의료,건강 > 약국",
        "place_name": "바다약국"
    },
    {
        "category_name": "의료,건강 > 약국",
        "place_name": "3층하나약국"
    },
    {
        "category_name": "의료,건강 > 약국",
        "place_name": "온누리솔약국"
    },
    {
        "category_name": "의료,건강 > 약국",
        "place_name": "시온약국"
    },
    {
        "category_name": "의료,건강 > 약국",
        "place_name": "메디팜석촌약국"
    },
    {
        "category_name": "의료,건강 > 약국",
        "place_name": "장미미소약국"
    },
    {
        "category_name": "의료,건강 > 약국",
        "place_name": "공감약국"
    },
    {
        "category_name": "의료,건강 > 약국",
        "place_name": "참약국"
    },
    {
        "category_name": "의료,건강 > 약국",
        "place_name": "스타온누리약국"
    },
    {
        "category_name": "의료,건강 > 약국",
        "place_name": "상일약국"
    },
    {
        "category_name": "의료,건강 > 약국",
        "place_name": "석촌솔약국"
    },
    {
        "category_name": "의료,건강 > 한약국,한약방",
        "place_name": "송파한약국"
    },
    {
        "category_name": "의료,건강 > 약국",
        "place_name": "석촌미소약국"
    },
    {
        "category_name": "의료,건강 > 약국",
        "place_name": "코끼리약국"
    },
    {
        "category_name": "의료,건강 > 약국",
        "place_name": "맥스약국"
    },
    {
        "category_name": "의료,건강 > 약국",
        "place_name": "호원약국"
    },
    {
        "category_name": "의료,건강 > 약국",
        "place_name": "태평양약국"
    },
    {
        "category_name": "의료,건강 > 약국",
        "place_name": "봄약국"
    },
    {
        "category_name": "의료,건강 > 약국",
        "place_name": "잠실새내365약국"
    },
    {
        "category_name": "의료,건강 > 약국",
        "place_name": "잠실수약국"
    },
    {
        "category_name": "의료,건강 > 약국",
        "place_name": "단비온누리약국"
    },
    {
        "category_name": "의료,건강 > 약국",
        "place_name": "친절한약국"
    },
    {
        "category_name": "의료,건강 > 약국",
        "place_name": "리센츠약국"
    },
    {
        "category_name": "의료,건강 > 약국",
        "place_name": "푸른약국"
    },
    {
        "category_name": "의료,건강 > 약국",
        "place_name": "비타민약국"
    },
    {
        "category_name": "의료,건강 > 약국",
        "place_name": "석촌솔약국"
    },
    {
        "category_name": "의료,건강 > 한약국,한약방",
        "place_name": "송파한약국"
    },
    {
        "category_name": "의료,건강 > 약국",
        "place_name": "석촌미소약국"
    },
    {
        "category_name": "의료,건강 > 약국",
        "place_name": "코끼리약국"
    },
    {
        "category_name": "의료,건강 > 약국",
        "place_name": "맥스약국"
    },
    {
        "category_name": "의료,건강 > 약국",
        "place_name": "호원약국"
    },
    {
        "category_name": "의료,건강 > 약국",
        "place_name": "태평양약국"
    },
    {
        "category_name": "의료,건강 > 약국",
        "place_name": "봄약국"
    },
    {
        "category_name": "의료,건강 > 약국",
        "place_name": "잠실새내365약국"
    },
    {
        "category_name": "의료,건강 > 약국",
        "place_name": "잠실수약국"
    },
    {
        "category_name": "의료,건강 > 약국",
        "place_name": "단비온누리약국"
    },
    {
        "category_name": "의료,건강 > 약국",
        "place_name": "친절한약국"
    },
    {
        "category_name": "의료,건강 > 약국",
        "place_name": "리센츠약국"
    },
    {
        "category_name": "의료,건강 > 약국",
        "place_name": "푸른약국"
    },
    {
        "category_name": "의료,건강 > 약국",
        "place_name": "비타민약국"
    },
    {
        "category_name": "의료,건강 > 약국",
        "place_name": "석촌솔약국"
    },
    {
        "category_name": "의료,건강 > 한약국,한약방",
        "place_name": "송파한약국"
    },
    {
        "category_name": "의료,건강 > 약국",
        "place_name": "석촌미소약국"
    },
    {
        "category_name": "의료,건강 > 약국",
        "place_name": "코끼리약국"
    },
    {
        "category_name": "의료,건강 > 약국",
        "place_name": "맥스약국"
    },
    {
        "category_name": "의료,건강 > 약국",
        "place_name": "호원약국"
    },
    {
        "category_name": "의료,건강 > 약국",
        "place_name": "태평양약국"
    },
    {
        "category_name": "의료,건강 > 약국",
        "place_name": "봄약국"
    },
    {
        "category_name": "의료,건강 > 약국",
        "place_name": "잠실새내365약국"
    },
    {
        "category_name": "의료,건강 > 약국",
        "place_name": "잠실수약국"
    },
    {
        "category_name": "의료,건강 > 약국",
        "place_name": "단비온누리약국"
    },
    {
        "category_name": "의료,건강 > 약국",
        "place_name": "친절한약국"
    },
    {
        "category_name": "의료,건강 > 약국",
        "place_name": "리센츠약국"
    },
    {
        "category_name": "의료,건강 > 약국",
        "place_name": "푸른약국"
    },
    {
        "category_name": "의료,건강 > 약국",
        "place_name": "비타민약국"
    },
    {
        "category_name": "의료,건강 > 약국",
        "place_name": "석촌솔약국"
    },
    {
        "category_name": "의료,건강 > 한약국,한약방",
        "place_name": "송파한약국"
    },
    {
        "category_name": "의료,건강 > 약국",
        "place_name": "석촌미소약국"
    },
    {
        "category_name": "의료,건강 > 약국",
        "place_name": "코끼리약국"
    },
    {
        "category_name": "의료,건강 > 약국",
        "place_name": "맥스약국"
    },
    {
        "category_name": "의료,건강 > 약국",
        "place_name": "호원약국"
    },
    {
        "category_name": "의료,건강 > 약국",
        "place_name": "태평양약국"
    },
    {
        "category_name": "의료,건강 > 약국",
        "place_name": "봄약국"
    },
    {
        "category_name": "의료,건강 > 약국",
        "place_name": "잠실새내365약국"
    },
    {
        "category_name": "의료,건강 > 약국",
        "place_name": "잠실수약국"
    },
    {
        "category_name": "의료,건강 > 약국",
        "place_name": "단비온누리약국"
    },
    {
        "category_name": "의료,건강 > 약국",
        "place_name": "친절한약국"
    },
    {
        "category_name": "의료,건강 > 약국",
        "place_name": "리센츠약국"
    },
    {
        "category_name": "의료,건강 > 약국",
        "place_name": "푸른약국"
    },
    {
        "category_name": "의료,건강 > 약국",
        "place_name": "비타민약국"
    },
    {
        "category_name": "의료,건강 > 약국",
        "place_name": "석촌솔약국"
    },
    {
        "category_name": "의료,건강 > 한약국,한약방",
        "place_name": "송파한약국"
    },
    {
        "category_name": "의료,건강 > 약국",
        "place_name": "석촌미소약국"
    },
    {
        "category_name": "의료,건강 > 약국",
        "place_name": "코끼리약국"
    },
    {
        "category_name": "의료,건강 > 약국",
        "place_name": "맥스약국"
    },
    {
        "category_name": "의료,건강 > 약국",
        "place_name": "호원약국"
    },
    {
        "category_name": "의료,건강 > 약국",
        "place_name": "태평양약국"
    },
    {
        "category_name": "의료,건강 > 약국",
        "place_name": "봄약국"
    },
    {
        "category_name": "의료,건강 > 약국",
        "place_name": "잠실새내365약국"
    },
    {
        "category_name": "의료,건강 > 약국",
        "place_name": "잠실수약국"
    },
    {
        "category_name": "의료,건강 > 약국",
        "place_name": "단비온누리약국"
    },
    {
        "category_name": "의료,건강 > 약국",
        "place_name": "친절한약국"
    },
    {
        "category_name": "의료,건강 > 약국",
        "place_name": "리센츠약국"
    },
    {
        "category_name": "의료,건강 > 약국",
        "place_name": "푸른약국"
    },
    {
        "category_name": "의료,건강 > 약국",
        "place_name": "비타민약국"
    },
    {
        "category_name": "의료,건강 > 약국",
        "place_name": "석촌솔약국"
    },
    {
        "category_name": "의료,건강 > 한약국,한약방",
        "place_name": "송파한약국"
    },
    {
        "category_name": "의료,건강 > 약국",
        "place_name": "석촌미소약국"
    },
    {
        "category_name": "의료,건강 > 약국",
        "place_name": "코끼리약국"
    },
    {
        "category_name": "의료,건강 > 약국",
        "place_name": "맥스약국"
    },
    {
        "category_name": "의료,건강 > 약국",
        "place_name": "호원약국"
    },
    {
        "category_name": "의료,건강 > 약국",
        "place_name": "태평양약국"
    },
    {
        "category_name": "의료,건강 > 약국",
        "place_name": "봄약국"
    },
    {
        "category_name": "의료,건강 > 약국",
        "place_name": "잠실새내365약국"
    },
    {
        "category_name": "의료,건강 > 약국",
        "place_name": "잠실수약국"
    },
    {
        "category_name": "의료,건강 > 약국",
        "place_name": "단비온누리약국"
    },
    {
        "category_name": "의료,건강 > 약국",
        "place_name": "친절한약국"
    },
    {
        "category_name": "의료,건강 > 약국",
        "place_name": "리센츠약국"
    },
    {
        "category_name": "의료,건강 > 약국",
        "place_name": "푸른약국"
    },
    {
        "category_name": "의료,건강 > 약국",
        "place_name": "비타민약국"
    },
    {
        "category_name": "의료,건강 > 약국",
        "place_name": "석촌솔약국"
    },
    {
        "category_name": "의료,건강 > 한약국,한약방",
        "place_name": "송파한약국"
    },
    {
        "category_name": "의료,건강 > 약국",
        "place_name": "석촌미소약국"
    },
    {
        "category_name": "의료,건강 > 약국",
        "place_name": "코끼리약국"
    },
    {
        "category_name": "의료,건강 > 약국",
        "place_name": "맥스약국"
    },
    {
        "category_name": "의료,건강 > 약국",
        "place_name": "호원약국"
    },
    {
        "category_name": "의료,건강 > 약국",
        "place_name": "태평양약국"
    },
    {
        "category_name": "의료,건강 > 약국",
        "place_name": "봄약국"
    },
    {
        "category_name": "의료,건강 > 약국",
        "place_name": "잠실새내365약국"
    },
    {
        "category_name": "의료,건강 > 약국",
        "place_name": "잠실수약국"
    },
    {
        "category_name": "의료,건강 > 약국",
        "place_name": "단비온누리약국"
    },
    {
        "category_name": "의료,건강 > 약국",
        "place_name": "친절한약국"
    },
    {
        "category_name": "의료,건강 > 약국",
        "place_name": "리센츠약국"
    },
    {
        "category_name": "의료,건강 > 약국",
        "place_name": "푸른약국"
    },
    {
        "category_name": "의료,건강 > 약국",
        "place_name": "비타민약국"
    },
    {
        "category_name": "의료,건강 > 약국",
        "place_name": "석촌솔약국"
    },
    {
        "category_name": "의료,건강 > 한약국,한약방",
        "place_name": "송파한약국"
    },
    {
        "category_name": "의료,건강 > 약국",
        "place_name": "석촌미소약국"
    },
    {
        "category_name": "의료,건강 > 약국",
        "place_name": "코끼리약국"
    },
    {
        "category_name": "의료,건강 > 약국",
        "place_name": "맥스약국"
    },
    {
        "category_name": "의료,건강 > 약국",
        "place_name": "호원약국"
    },
    {
        "category_name": "의료,건강 > 약국",
        "place_name": "태평양약국"
    },
    {
        "category_name": "의료,건강 > 약국",
        "place_name": "봄약국"
    },
    {
        "category_name": "의료,건강 > 약국",
        "place_name": "잠실새내365약국"
    },
    {
        "category_name": "의료,건강 > 약국",
        "place_name": "잠실수약국"
    },
    {
        "category_name": "의료,건강 > 약국",
        "place_name": "단비온누리약국"
    },
    {
        "category_name": "의료,건강 > 약국",
        "place_name": "친절한약국"
    },
    {
        "category_name": "의료,건강 > 약국",
        "place_name": "리센츠약국"
    },
    {
        "category_name": "의료,건강 > 약국",
        "place_name": "푸른약국"
    },
    {
        "category_name": "의료,건강 > 약국",
        "place_name": "비타민약국"
    },
    {
        "category_name": "의료,건강 > 약국",
        "place_name": "석촌솔약국"
    },
    {
        "category_name": "의료,건강 > 한약국,한약방",
        "place_name": "송파한약국"
    },
    {
        "category_name": "의료,건강 > 약국",
        "place_name": "석촌미소약국"
    },
    {
        "category_name": "의료,건강 > 약국",
        "place_name": "코끼리약국"
    },
    {
        "category_name": "의료,건강 > 약국",
        "place_name": "맥스약국"
    },
    {
        "category_name": "의료,건강 > 약국",
        "place_name": "호원약국"
    },
    {
        "category_name": "의료,건강 > 약국",
        "place_name": "태평양약국"
    },
    {
        "category_name": "의료,건강 > 약국",
        "place_name": "봄약국"
    },
    {
        "category_name": "의료,건강 > 약국",
        "place_name": "잠실새내365약국"
    },
    {
        "category_name": "의료,건강 > 약국",
        "place_name": "잠실수약국"
    },
    {
        "category_name": "의료,건강 > 약국",
        "place_name": "단비온누리약국"
    },
    {
        "category_name": "의료,건강 > 약국",
        "place_name": "친절한약국"
    },
    {
        "category_name": "의료,건강 > 약국",
        "place_name": "리센츠약국"
    },
    {
        "category_name": "의료,건강 > 약국",
        "place_name": "푸른약국"
    },
    {
        "category_name": "의료,건강 > 약국",
        "place_name": "비타민약국"
    },
    {
        "category_name": "의료,건강 > 약국",
        "place_name": "석촌솔약국"
    },
    {
        "category_name": "의료,건강 > 한약국,한약방",
        "place_name": "송파한약국"
    },
    {
        "category_name": "의료,건강 > 약국",
        "place_name": "석촌미소약국"
    },
    {
        "category_name": "의료,건강 > 약국",
        "place_name": "코끼리약국"
    },
    {
        "category_name": "의료,건강 > 약국",
        "place_name": "맥스약국"
    },
    {
        "category_name": "의료,건강 > 약국",
        "place_name": "호원약국"
    },
    {
        "category_name": "의료,건강 > 약국",
        "place_name": "태평양약국"
    },
    {
        "category_name": "의료,건강 > 약국",
        "place_name": "봄약국"
    },
    {
        "category_name": "의료,건강 > 약국",
        "place_name": "잠실새내365약국"
    },
    {
        "category_name": "의료,건강 > 약국",
        "place_name": "잠실수약국"
    },
    {
        "category_name": "의료,건강 > 약국",
        "place_name": "단비온누리약국"
    },
    {
        "category_name": "의료,건강 > 약국",
        "place_name": "친절한약국"
    },
    {
        "category_name": "의료,건강 > 약국",
        "place_name": "리센츠약국"
    },
    {
        "category_name": "의료,건강 > 약국",
        "place_name": "푸른약국"
    },
    {
        "category_name": "의료,건강 > 약국",
        "place_name": "비타민약국"
    },
    {
        "category_name": "의료,건강 > 약국",
        "place_name": "석촌솔약국"
    },
    {
        "category_name": "의료,건강 > 한약국,한약방",
        "place_name": "송파한약국"
    },
    {
        "category_name": "의료,건강 > 약국",
        "place_name": "석촌미소약국"
    },
    {
        "category_name": "의료,건강 > 약국",
        "place_name": "코끼리약국"
    },
    {
        "category_name": "의료,건강 > 약국",
        "place_name": "맥스약국"
    },
    {
        "category_name": "의료,건강 > 약국",
        "place_name": "호원약국"
    },
    {
        "category_name": "의료,건강 > 약국",
        "place_name": "태평양약국"
    },
    {
        "category_name": "의료,건강 > 약국",
        "place_name": "봄약국"
    },
    {
        "category_name": "의료,건강 > 약국",
        "place_name": "잠실새내365약국"
    },
    {
        "category_name": "의료,건강 > 약국",
        "place_name": "잠실수약국"
    },
    {
        "category_name": "의료,건강 > 약국",
        "place_name": "단비온누리약국"
    },
    {
        "category_name": "의료,건강 > 약국",
        "place_name": "친절한약국"
    },
    {
        "category_name": "의료,건강 > 약국",
        "place_name": "리센츠약국"
    },
    {
        "category_name": "의료,건강 > 약국",
        "place_name": "푸른약국"
    },
    {
        "category_name": "의료,건강 > 약국",
        "place_name": "비타민약국"
    },
    {
        "category_name": "의료,건강 > 약국",
        "place_name": "석촌솔약국"
    },
    {
        "category_name": "의료,건강 > 한약국,한약방",
        "place_name": "송파한약국"
    },
    {
        "category_name": "의료,건강 > 약국",
        "place_name": "석촌미소약국"
    },
    {
        "category_name": "의료,건강 > 약국",
        "place_name": "코끼리약국"
    },
    {
        "category_name": "의료,건강 > 약국",
        "place_name": "맥스약국"
    },
    {
        "category_name": "의료,건강 > 약국",
        "place_name": "호원약국"
    },
    {
        "category_name": "의료,건강 > 약국",
        "place_name": "태평양약국"
    },
    {
        "category_name": "의료,건강 > 약국",
        "place_name": "봄약국"
    },
    {
        "category_name": "의료,건강 > 약국",
        "place_name": "잠실새내365약국"
    },
    {
        "category_name": "의료,건강 > 약국",
        "place_name": "잠실수약국"
    },
    {
        "category_name": "의료,건강 > 약국",
        "place_name": "단비온누리약국"
    },
    {
        "category_name": "의료,건강 > 약국",
        "place_name": "친절한약국"
    },
    {
        "category_name": "의료,건강 > 약국",
        "place_name": "리센츠약국"
    },
    {
        "category_name": "의료,건강 > 약국",
        "place_name": "푸른약국"
    },
    {
        "category_name": "의료,건강 > 약국",
        "place_name": "비타민약국"
    },
    {
        "category_name": "의료,건강 > 약국",
        "place_name": "석촌솔약국"
    },
    {
        "category_name": "의료,건강 > 한약국,한약방",
        "place_name": "송파한약국"
    },
    {
        "category_name": "의료,건강 > 약국",
        "place_name": "석촌미소약국"
    },
    {
        "category_name": "의료,건강 > 약국",
        "place_name": "코끼리약국"
    },
    {
        "category_name": "의료,건강 > 약국",
        "place_name": "맥스약국"
    },
    {
        "category_name": "의료,건강 > 약국",
        "place_name": "호원약국"
    },
    {
        "category_name": "의료,건강 > 약국",
        "place_name": "태평양약국"
    },
    {
        "category_name": "의료,건강 > 약국",
        "place_name": "봄약국"
    },
    {
        "category_name": "의료,건강 > 약국",
        "place_name": "잠실새내365약국"
    },
    {
        "category_name": "의료,건강 > 약국",
        "place_name": "잠실수약국"
    },
    {
        "category_name": "의료,건강 > 약국",
        "place_name": "단비온누리약국"
    },
    {
        "category_name": "의료,건강 > 약국",
        "place_name": "친절한약국"
    },
    {
        "category_name": "의료,건강 > 약국",
        "place_name": "리센츠약국"
    },
    {
        "category_name": "의료,건강 > 약국",
        "place_name": "푸른약국"
    },
    {
        "category_name": "의료,건강 > 약국",
        "place_name": "비타민약국"
    },
    {
        "category_name": "의료,건강 > 약국",
        "place_name": "석촌솔약국"
    },
    {
        "category_name": "의료,건강 > 한약국,한약방",
        "place_name": "송파한약국"
    },
    {
        "category_name": "의료,건강 > 약국",
        "place_name": "석촌미소약국"
    },
    {
        "category_name": "의료,건강 > 약국",
        "place_name": "코끼리약국"
    },
    {
        "category_name": "의료,건강 > 약국",
        "place_name": "맥스약국"
    },
    {
        "category_name": "의료,건강 > 약국",
        "place_name": "호원약국"
    },
    {
        "category_name": "의료,건강 > 약국",
        "place_name": "태평양약국"
    },
    {
        "category_name": "의료,건강 > 약국",
        "place_name": "봄약국"
    },
    {
        "category_name": "의료,건강 > 약국",
        "place_name": "잠실새내365약국"
    },
    {
        "category_name": "의료,건강 > 약국",
        "place_name": "잠실수약국"
    },
    {
        "category_name": "의료,건강 > 약국",
        "place_name": "단비온누리약국"
    },
    {
        "category_name": "의료,건강 > 약국",
        "place_name": "친절한약국"
    },
    {
        "category_name": "의료,건강 > 약국",
        "place_name": "리센츠약국"
    },
    {
        "category_name": "의료,건강 > 약국",
        "place_name": "푸른약국"
    },
    {
        "category_name": "의료,건강 > 약국",
        "place_name": "비타민약국"
    },
    {
        "category_name": "의료,건강 > 약국",
        "place_name": "석촌솔약국"
    },
    {
        "category_name": "의료,건강 > 한약국,한약방",
        "place_name": "송파한약국"
    },
    {
        "category_name": "의료,건강 > 약국",
        "place_name": "석촌미소약국"
    },
    {
        "category_name": "의료,건강 > 약국",
        "place_name": "코끼리약국"
    },
    {
        "category_name": "의료,건강 > 약국",
        "place_name": "맥스약국"
    },
    {
        "category_name": "의료,건강 > 약국",
        "place_name": "호원약국"
    },
    {
        "category_name": "의료,건강 > 약국",
        "place_name": "태평양약국"
    },
    {
        "category_name": "의료,건강 > 약국",
        "place_name": "봄약국"
    },
    {
        "category_name": "의료,건강 > 약국",
        "place_name": "잠실새내365약국"
    },
    {
        "category_name": "의료,건강 > 약국",
        "place_name": "잠실수약국"
    },
    {
        "category_name": "의료,건강 > 약국",
        "place_name": "단비온누리약국"
    },
    {
        "category_name": "의료,건강 > 약국",
        "place_name": "친절한약국"
    },
    {
        "category_name": "의료,건강 > 약국",
        "place_name": "리센츠약국"
    },
    {
        "category_name": "의료,건강 > 약국",
        "place_name": "푸른약국"
    },
    {
        "category_name": "의료,건강 > 약국",
        "place_name": "비타민약국"
    },
    {
        "category_name": "의료,건강 > 약국",
        "place_name": "석촌솔약국"
    },
    {
        "category_name": "의료,건강 > 한약국,한약방",
        "place_name": "송파한약국"
    },
    {
        "category_name": "의료,건강 > 약국",
        "place_name": "석촌미소약국"
    },
    {
        "category_name": "의료,건강 > 약국",
        "place_name": "코끼리약국"
    },
    {
        "category_name": "의료,건강 > 약국",
        "place_name": "맥스약국"
    },
    {
        "category_name": "의료,건강 > 약국",
        "place_name": "호원약국"
    },
    {
        "category_name": "의료,건강 > 약국",
        "place_name": "태평양약국"
    },
    {
        "category_name": "의료,건강 > 약국",
        "place_name": "봄약국"
    },
    {
        "category_name": "의료,건강 > 약국",
        "place_name": "잠실새내365약국"
    },
    {
        "category_name": "의료,건강 > 약국",
        "place_name": "잠실수약국"
    },
    {
        "category_name": "의료,건강 > 약국",
        "place_name": "단비온누리약국"
    },
    {
        "category_name": "의료,건강 > 약국",
        "place_name": "친절한약국"
    },
    {
        "category_name": "의료,건강 > 약국",
        "place_name": "리센츠약국"
    },
    {
        "category_name": "의료,건강 > 약국",
        "place_name": "푸른약국"
    },
    {
        "category_name": "의료,건강 > 약국",
        "place_name": "비타민약국"
    },
    {
        "category_name": "의료,건강 > 약국",
        "place_name": "석촌솔약국"
    },
    {
        "category_name": "의료,건강 > 한약국,한약방",
        "place_name": "송파한약국"
    },
    {
        "category_name": "의료,건강 > 약국",
        "place_name": "석촌미소약국"
    },
    {
        "category_name": "의료,건강 > 약국",
        "place_name": "코끼리약국"
    },
    {
        "category_name": "의료,건강 > 약국",
        "place_name": "맥스약국"
    },
    {
        "category_name": "의료,건강 > 약국",
        "place_name": "호원약국"
    },
    {
        "category_name": "의료,건강 > 약국",
        "place_name": "태평양약국"
    },
    {
        "category_name": "의료,건강 > 약국",
        "place_name": "봄약국"
    },
    {
        "category_name": "의료,건강 > 약국",
        "place_name": "잠실새내365약국"
    },
    {
        "category_name": "의료,건강 > 약국",
        "place_name": "잠실수약국"
    },
    {
        "category_name": "의료,건강 > 약국",
        "place_name": "단비온누리약국"
    },
    {
        "category_name": "의료,건강 > 약국",
        "place_name": "친절한약국"
    },
    {
        "category_name": "의료,건강 > 약국",
        "place_name": "리센츠약국"
    },
    {
        "category_name": "의료,건강 > 약국",
        "place_name": "푸른약국"
    },
    {
        "category_name": "의료,건강 > 약국",
        "place_name": "비타민약국"
    },
    {
        "category_name": "의료,건강 > 약국",
        "place_name": "석촌솔약국"
    },
    {
        "category_name": "의료,건강 > 한약국,한약방",
        "place_name": "송파한약국"
    },
    {
        "category_name": "의료,건강 > 약국",
        "place_name": "석촌미소약국"
    },
    {
        "category_name": "의료,건강 > 약국",
        "place_name": "코끼리약국"
    },
    {
        "category_name": "의료,건강 > 약국",
        "place_name": "맥스약국"
    },
    {
        "category_name": "의료,건강 > 약국",
        "place_name": "호원약국"
    },
    {
        "category_name": "의료,건강 > 약국",
        "place_name": "태평양약국"
    },
    {
        "category_name": "의료,건강 > 약국",
        "place_name": "봄약국"
    },
    {
        "category_name": "의료,건강 > 약국",
        "place_name": "잠실새내365약국"
    },
    {
        "category_name": "의료,건강 > 약국",
        "place_name": "잠실수약국"
    },
    {
        "category_name": "의료,건강 > 약국",
        "place_name": "단비온누리약국"
    },
    {
        "category_name": "의료,건강 > 약국",
        "place_name": "친절한약국"
    },
    {
        "category_name": "의료,건강 > 약국",
        "place_name": "리센츠약국"
    },
    {
        "category_name": "의료,건강 > 약국",
        "place_name": "푸른약국"
    },
    {
        "category_name": "의료,건강 > 약국",
        "place_name": "비타민약국"
    },
    {
        "category_name": "의료,건강 > 약국",
        "place_name": "석촌솔약국"
    },
    {
        "category_name": "의료,건강 > 한약국,한약방",
        "place_name": "송파한약국"
    },
    {
        "category_name": "의료,건강 > 약국",
        "place_name": "석촌미소약국"
    },
    {
        "category_name": "의료,건강 > 약국",
        "place_name": "코끼리약국"
    },
    {
        "category_name": "의료,건강 > 약국",
        "place_name": "맥스약국"
    },
    {
        "category_name": "의료,건강 > 약국",
        "place_name": "호원약국"
    },
    {
        "category_name": "의료,건강 > 약국",
        "place_name": "태평양약국"
    },
    {
        "category_name": "의료,건강 > 약국",
        "place_name": "봄약국"
    },
    {
        "category_name": "의료,건강 > 약국",
        "place_name": "잠실새내365약국"
    },
    {
        "category_name": "의료,건강 > 약국",
        "place_name": "잠실수약국"
    },
    {
        "category_name": "의료,건강 > 약국",
        "place_name": "단비온누리약국"
    },
    {
        "category_name": "의료,건강 > 약국",
        "place_name": "친절한약국"
    },
    {
        "category_name": "의료,건강 > 약국",
        "place_name": "리센츠약국"
    },
    {
        "category_name": "의료,건강 > 약국",
        "place_name": "푸른약국"
    },
    {
        "category_name": "의료,건강 > 약국",
        "place_name": "비타민약국"
    },
    {
        "category_name": "의료,건강 > 약국",
        "place_name": "석촌솔약국"
    },
    {
        "category_name": "의료,건강 > 한약국,한약방",
        "place_name": "송파한약국"
    },
    {
        "category_name": "의료,건강 > 약국",
        "place_name": "석촌미소약국"
    },
    {
        "category_name": "의료,건강 > 약국",
        "place_name": "코끼리약국"
    },
    {
        "category_name": "의료,건강 > 약국",
        "place_name": "맥스약국"
    },
    {
        "category_name": "의료,건강 > 약국",
        "place_name": "호원약국"
    },
    {
        "category_name": "의료,건강 > 약국",
        "place_name": "태평양약국"
    },
    {
        "category_name": "의료,건강 > 약국",
        "place_name": "봄약국"
    },
    {
        "category_name": "의료,건강 > 약국",
        "place_name": "잠실새내365약국"
    },
    {
        "category_name": "의료,건강 > 약국",
        "place_name": "잠실수약국"
    },
    {
        "category_name": "의료,건강 > 약국",
        "place_name": "단비온누리약국"
    },
    {
        "category_name": "의료,건강 > 약국",
        "place_name": "친절한약국"
    },
    {
        "category_name": "의료,건강 > 약국",
        "place_name": "리센츠약국"
    },
    {
        "category_name": "의료,건강 > 약국",
        "place_name": "푸른약국"
    },
    {
        "category_name": "의료,건강 > 약국",
        "place_name": "비타민약국"
    },
    {
        "category_name": "의료,건강 > 약국",
        "place_name": "석촌솔약국"
    },
    {
        "category_name": "의료,건강 > 한약국,한약방",
        "place_name": "송파한약국"
    },
    {
        "category_name": "의료,건강 > 약국",
        "place_name": "석촌미소약국"
    },
    {
        "category_name": "의료,건강 > 약국",
        "place_name": "코끼리약국"
    },
    {
        "category_name": "의료,건강 > 약국",
        "place_name": "맥스약국"
    },
    {
        "category_name": "의료,건강 > 약국",
        "place_name": "호원약국"
    },
    {
        "category_name": "의료,건강 > 약국",
        "place_name": "태평양약국"
    },
    {
        "category_name": "의료,건강 > 약국",
        "place_name": "봄약국"
    },
    {
        "category_name": "의료,건강 > 약국",
        "place_name": "잠실새내365약국"
    },
    {
        "category_name": "의료,건강 > 약국",
        "place_name": "잠실수약국"
    },
    {
        "category_name": "의료,건강 > 약국",
        "place_name": "단비온누리약국"
    },
    {
        "category_name": "의료,건강 > 약국",
        "place_name": "친절한약국"
    },
    {
        "category_name": "의료,건강 > 약국",
        "place_name": "리센츠약국"
    },
    {
        "category_name": "의료,건강 > 약국",
        "place_name": "푸른약국"
    },
    {
        "category_name": "의료,건강 > 약국",
        "place_name": "비타민약국"
    },
    {
        "category_name": "의료,건강 > 약국",
        "place_name": "석촌솔약국"
    },
    {
        "category_name": "의료,건강 > 한약국,한약방",
        "place_name": "송파한약국"
    },
    {
        "category_name": "의료,건강 > 약국",
        "place_name": "석촌미소약국"
    },
    {
        "category_name": "의료,건강 > 약국",
        "place_name": "코끼리약국"
    },
    {
        "category_name": "의료,건강 > 약국",
        "place_name": "맥스약국"
    },
    {
        "category_name": "의료,건강 > 약국",
        "place_name": "호원약국"
    },
    {
        "category_name": "의료,건강 > 약국",
        "place_name": "태평양약국"
    },
    {
        "category_name": "의료,건강 > 약국",
        "place_name": "봄약국"
    },
    {
        "category_name": "의료,건강 > 약국",
        "place_name": "잠실새내365약국"
    },
    {
        "category_name": "의료,건강 > 약국",
        "place_name": "잠실수약국"
    },
    {
        "category_name": "의료,건강 > 약국",
        "place_name": "단비온누리약국"
    },
    {
        "category_name": "의료,건강 > 약국",
        "place_name": "친절한약국"
    },
    {
        "category_name": "의료,건강 > 약국",
        "place_name": "리센츠약국"
    },
    {
        "category_name": "의료,건강 > 약국",
        "place_name": "푸른약국"
    },
    {
        "category_name": "의료,건강 > 약국",
        "place_name": "비타민약국"
    },
    {
        "category_name": "의료,건강 > 약국",
        "place_name": "석촌솔약국"
    },
    {
        "category_name": "의료,건강 > 한약국,한약방",
        "place_name": "송파한약국"
    },
    {
        "category_name": "의료,건강 > 약국",
        "place_name": "석촌미소약국"
    },
    {
        "category_name": "의료,건강 > 약국",
        "place_name": "코끼리약국"
    },
    {
        "category_name": "의료,건강 > 약국",
        "place_name": "맥스약국"
    },
    {
        "category_name": "의료,건강 > 약국",
        "place_name": "호원약국"
    },
    {
        "category_name": "의료,건강 > 약국",
        "place_name": "태평양약국"
    },
    {
        "category_name": "의료,건강 > 약국",
        "place_name": "봄약국"
    },
    {
        "category_name": "의료,건강 > 약국",
        "place_name": "잠실새내365약국"
    },
    {
        "category_name": "의료,건강 > 약국",
        "place_name": "잠실수약국"
    },
    {
        "category_name": "의료,건강 > 약국",
        "place_name": "단비온누리약국"
    },
    {
        "category_name": "의료,건강 > 약국",
        "place_name": "친절한약국"
    },
    {
        "category_name": "의료,건강 > 약국",
        "place_name": "리센츠약국"
    },
    {
        "category_name": "의료,건강 > 약국",
        "place_name": "푸른약국"
    },
    {
        "category_name": "의료,건강 > 약국",
        "place_name": "비타민약국"
    },
    {
        "category_name": "의료,건강 > 약국",
        "place_name": "석촌솔약국"
    },
    {
        "category_name": "의료,건강 > 한약국,한약방",
        "place_name": "송파한약국"
    },
    {
        "category_name": "의료,건강 > 약국",
        "place_name": "석촌미소약국"
    },
    {
        "category_name": "의료,건강 > 약국",
        "place_name": "코끼리약국"
    },
    {
        "category_name": "의료,건강 > 약국",
        "place_name": "맥스약국"
    },
    {
        "category_name": "의료,건강 > 약국",
        "place_name": "호원약국"
    },
    {
        "category_name": "의료,건강 > 약국",
        "place_name": "태평양약국"
    },
    {
        "category_name": "의료,건강 > 약국",
        "place_name": "봄약국"
    },
    {
        "category_name": "의료,건강 > 약국",
        "place_name": "잠실새내365약국"
    },
    {
        "category_name": "의료,건강 > 약국",
        "place_name": "잠실수약국"
    },
    {
        "category_name": "의료,건강 > 약국",
        "place_name": "단비온누리약국"
    },
    {
        "category_name": "의료,건강 > 약국",
        "place_name": "친절한약국"
    },
    {
        "category_name": "의료,건강 > 약국",
        "place_name": "리센츠약국"
    },
    {
        "category_name": "의료,건강 > 약국",
        "place_name": "푸른약국"
    },
    {
        "category_name": "의료,건강 > 약국",
        "place_name": "비타민약국"
    },
    {
        "category_name": "의료,건강 > 약국",
        "place_name": "석촌솔약국"
    },
    {
        "category_name": "의료,건강 > 한약국,한약방",
        "place_name": "송파한약국"
    },
    {
        "category_name": "의료,건강 > 약국",
        "place_name": "석촌미소약국"
    },
    {
        "category_name": "의료,건강 > 약국",
        "place_name": "코끼리약국"
    },
    {
        "category_name": "의료,건강 > 약국",
        "place_name": "맥스약국"
    },
    {
        "category_name": "의료,건강 > 약국",
        "place_name": "호원약국"
    },
    {
        "category_name": "의료,건강 > 약국",
        "place_name": "태평양약국"
    },
    {
        "category_name": "의료,건강 > 약국",
        "place_name": "봄약국"
    },
    {
        "category_name": "의료,건강 > 약국",
        "place_name": "잠실새내365약국"
    },
    {
        "category_name": "의료,건강 > 약국",
        "place_name": "잠실수약국"
    },
    {
        "category_name": "의료,건강 > 약국",
        "place_name": "단비온누리약국"
    },
    {
        "category_name": "의료,건강 > 약국",
        "place_name": "친절한약국"
    },
    {
        "category_name": "의료,건강 > 약국",
        "place_name": "리센츠약국"
    },
    {
        "category_name": "의료,건강 > 약국",
        "place_name": "푸른약국"
    },
    {
        "category_name": "의료,건강 > 약국",
        "place_name": "비타민약국"
    },
    {
        "category_name": "의료,건강 > 약국",
        "place_name": "석촌솔약국"
    },
    {
        "category_name": "의료,건강 > 한약국,한약방",
        "place_name": "송파한약국"
    },
    {
        "category_name": "의료,건강 > 약국",
        "place_name": "석촌미소약국"
    },
    {
        "category_name": "의료,건강 > 약국",
        "place_name": "코끼리약국"
    },
    {
        "category_name": "의료,건강 > 약국",
        "place_name": "맥스약국"
    },
    {
        "category_name": "의료,건강 > 약국",
        "place_name": "호원약국"
    },
    {
        "category_name": "의료,건강 > 약국",
        "place_name": "태평양약국"
    },
    {
        "category_name": "의료,건강 > 약국",
        "place_name": "봄약국"
    },
    {
        "category_name": "의료,건강 > 약국",
        "place_name": "잠실새내365약국"
    },
    {
        "category_name": "의료,건강 > 약국",
        "place_name": "잠실수약국"
    },
    {
        "category_name": "의료,건강 > 약국",
        "place_name": "단비온누리약국"
    },
    {
        "category_name": "의료,건강 > 약국",
        "place_name": "친절한약국"
    },
    {
        "category_name": "의료,건강 > 약국",
        "place_name": "리센츠약국"
    },
    {
        "category_name": "의료,건강 > 약국",
        "place_name": "푸른약국"
    },
    {
        "category_name": "의료,건강 > 약국",
        "place_name": "비타민약국"
    },
    {
        "category_name": "의료,건강 > 약국",
        "place_name": "석촌솔약국"
    },
    {
        "category_name": "의료,건강 > 한약국,한약방",
        "place_name": "송파한약국"
    },
    {
        "category_name": "의료,건강 > 약국",
        "place_name": "석촌미소약국"
    },
    {
        "category_name": "의료,건강 > 약국",
        "place_name": "코끼리약국"
    },
    {
        "category_name": "의료,건강 > 약국",
        "place_name": "맥스약국"
    },
    {
        "category_name": "의료,건강 > 약국",
        "place_name": "호원약국"
    },
    {
        "category_name": "의료,건강 > 약국",
        "place_name": "태평양약국"
    },
    {
        "category_name": "의료,건강 > 약국",
        "place_name": "봄약국"
    },
    {
        "category_name": "의료,건강 > 약국",
        "place_name": "잠실새내365약국"
    },
    {
        "category_name": "의료,건강 > 약국",
        "place_name": "잠실수약국"
    },
    {
        "category_name": "의료,건강 > 약국",
        "place_name": "단비온누리약국"
    },
    {
        "category_name": "의료,건강 > 약국",
        "place_name": "친절한약국"
    },
    {
        "category_name": "의료,건강 > 약국",
        "place_name": "리센츠약국"
    },
    {
        "category_name": "의료,건강 > 약국",
        "place_name": "푸른약국"
    },
    {
        "category_name": "의료,건강 > 약국",
        "place_name": "비타민약국"
    },
    {
        "category_name": "의료,건강 > 약국",
        "place_name": "석촌솔약국"
    },
    {
        "category_name": "의료,건강 > 한약국,한약방",
        "place_name": "송파한약국"
    },
    {
        "category_name": "의료,건강 > 약국",
        "place_name": "석촌미소약국"
    },
    {
        "category_name": "의료,건강 > 약국",
        "place_name": "코끼리약국"
    },
    {
        "category_name": "의료,건강 > 약국",
        "place_name": "맥스약국"
    },
    {
        "category_name": "의료,건강 > 약국",
        "place_name": "호원약국"
    },
    {
        "category_name": "의료,건강 > 약국",
        "place_name": "태평양약국"
    },
    {
        "category_name": "의료,건강 > 약국",
        "place_name": "봄약국"
    },
    {
        "category_name": "의료,건강 > 약국",
        "place_name": "잠실새내365약국"
    },
    {
        "category_name": "의료,건강 > 약국",
        "place_name": "잠실수약국"
    },
    {
        "category_name": "의료,건강 > 약국",
        "place_name": "단비온누리약국"
    },
    {
        "category_name": "의료,건강 > 약국",
        "place_name": "친절한약국"
    },
    {
        "category_name": "의료,건강 > 약국",
        "place_name": "리센츠약국"
    },
    {
        "category_name": "의료,건강 > 약국",
        "place_name": "푸른약국"
    },
    {
        "category_name": "의료,건강 > 약국",
        "place_name": "비타민약국"
    },
    {
        "category_name": "의료,건강 > 약국",
        "place_name": "석촌솔약국"
    },
    {
        "category_name": "의료,건강 > 한약국,한약방",
        "place_name": "송파한약국"
    },
    {
        "category_name": "의료,건강 > 약국",
        "place_name": "석촌미소약국"
    },
    {
        "category_name": "의료,건강 > 약국",
        "place_name": "코끼리약국"
    },
    {
        "category_name": "의료,건강 > 약국",
        "place_name": "맥스약국"
    },
    {
        "category_name": "의료,건강 > 약국",
        "place_name": "호원약국"
    },
    {
        "category_name": "의료,건강 > 약국",
        "place_name": "태평양약국"
    },
    {
        "category_name": "의료,건강 > 약국",
        "place_name": "봄약국"
    },
    {
        "category_name": "의료,건강 > 약국",
        "place_name": "잠실새내365약국"
    },
    {
        "category_name": "의료,건강 > 약국",
        "place_name": "잠실수약국"
    },
    {
        "category_name": "의료,건강 > 약국",
        "place_name": "단비온누리약국"
    },
    {
        "category_name": "의료,건강 > 약국",
        "place_name": "친절한약국"
    },
    {
        "category_name": "의료,건강 > 약국",
        "place_name": "리센츠약국"
    },
    {
        "category_name": "의료,건강 > 약국",
        "place_name": "푸른약국"
    },
    {
        "category_name": "의료,건강 > 약국",
        "place_name": "비타민약국"
    },
    {
        "category_name": "의료,건강 > 약국",
        "place_name": "석촌솔약국"
    },
    {
        "category_name": "의료,건강 > 한약국,한약방",
        "place_name": "송파한약국"
    },
    {
        "category_name": "의료,건강 > 약국",
        "place_name": "석촌미소약국"
    },
    {
        "category_name": "의료,건강 > 약국",
        "place_name": "코끼리약국"
    },
    {
        "category_name": "의료,건강 > 약국",
        "place_name": "맥스약국"
    },
    {
        "category_name": "의료,건강 > 약국",
        "place_name": "호원약국"
    },
    {
        "category_name": "의료,건강 > 약국",
        "place_name": "태평양약국"
    },
    {
        "category_name": "의료,건강 > 약국",
        "place_name": "봄약국"
    },
    {
        "category_name": "의료,건강 > 약국",
        "place_name": "잠실새내365약국"
    },
    {
        "category_name": "의료,건강 > 약국",
        "place_name": "잠실수약국"
    },
    {
        "category_name": "의료,건강 > 약국",
        "place_name": "단비온누리약국"
    },
    {
        "category_name": "의료,건강 > 약국",
        "place_name": "친절한약국"
    },
    {
        "category_name": "의료,건강 > 약국",
        "place_name": "리센츠약국"
    },
    {
        "category_name": "의료,건강 > 약국",
        "place_name": "푸른약국"
    },
    {
        "category_name": "의료,건강 > 약국",
        "place_name": "비타민약국"
    },
    {
        "category_name": "의료,건강 > 약국",
        "place_name": "석촌솔약국"
    },
    {
        "category_name": "의료,건강 > 한약국,한약방",
        "place_name": "송파한약국"
    },
    {
        "category_name": "의료,건강 > 약국",
        "place_name": "석촌미소약국"
    },
    {
        "category_name": "의료,건강 > 약국",
        "place_name": "코끼리약국"
    },
    {
        "category_name": "의료,건강 > 약국",
        "place_name": "맥스약국"
    },
    {
        "category_name": "의료,건강 > 약국",
        "place_name": "호원약국"
    },
    {
        "category_name": "의료,건강 > 약국",
        "place_name": "태평양약국"
    },
    {
        "category_name": "의료,건강 > 약국",
        "place_name": "봄약국"
    },
    {
        "category_name": "의료,건강 > 약국",
        "place_name": "잠실새내365약국"
    },
    {
        "category_name": "의료,건강 > 약국",
        "place_name": "잠실수약국"
    },
    {
        "category_name": "의료,건강 > 약국",
        "place_name": "단비온누리약국"
    },
    {
        "category_name": "의료,건강 > 약국",
        "place_name": "친절한약국"
    },
    {
        "category_name": "의료,건강 > 약국",
        "place_name": "리센츠약국"
    },
    {
        "category_name": "의료,건강 > 약국",
        "place_name": "푸른약국"
    },
    {
        "category_name": "의료,건강 > 약국",
        "place_name": "비타민약국"
    },
    {
        "category_name": "의료,건강 > 약국",
        "place_name": "석촌솔약국"
    },
    {
        "category_name": "의료,건강 > 한약국,한약방",
        "place_name": "송파한약국"
    },
    {
        "category_name": "의료,건강 > 약국",
        "place_name": "석촌미소약국"
    },
    {
        "category_name": "의료,건강 > 약국",
        "place_name": "코끼리약국"
    },
    {
        "category_name": "의료,건강 > 약국",
        "place_name": "맥스약국"
    },
    {
        "category_name": "의료,건강 > 약국",
        "place_name": "호원약국"
    },
    {
        "category_name": "의료,건강 > 약국",
        "place_name": "태평양약국"
    },
    {
        "category_name": "의료,건강 > 약국",
        "place_name": "봄약국"
    },
    {
        "category_name": "의료,건강 > 약국",
        "place_name": "잠실새내365약국"
    },
    {
        "category_name": "의료,건강 > 약국",
        "place_name": "잠실수약국"
    },
    {
        "category_name": "의료,건강 > 약국",
        "place_name": "단비온누리약국"
    },
    {
        "category_name": "의료,건강 > 약국",
        "place_name": "친절한약국"
    },
    {
        "category_name": "의료,건강 > 약국",
        "place_name": "리센츠약국"
    },
    {
        "category_name": "의료,건강 > 약국",
        "place_name": "푸른약국"
    },
    {
        "category_name": "의료,건강 > 약국",
        "place_name": "비타민약국"
    },
    {
        "category_name": "의료,건강 > 약국",
        "place_name": "석촌솔약국"
    },
    {
        "category_name": "의료,건강 > 한약국,한약방",
        "place_name": "송파한약국"
    },
    {
        "category_name": "의료,건강 > 약국",
        "place_name": "석촌미소약국"
    },
    {
        "category_name": "의료,건강 > 약국",
        "place_name": "코끼리약국"
    },
    {
        "category_name": "의료,건강 > 약국",
        "place_name": "맥스약국"
    },
    {
        "category_name": "의료,건강 > 약국",
        "place_name": "호원약국"
    },
    {
        "category_name": "의료,건강 > 약국",
        "place_name": "태평양약국"
    },
    {
        "category_name": "의료,건강 > 약국",
        "place_name": "봄약국"
    },
    {
        "category_name": "의료,건강 > 약국",
        "place_name": "잠실새내365약국"
    },
    {
        "category_name": "의료,건강 > 약국",
        "place_name": "잠실수약국"
    },
    {
        "category_name": "의료,건강 > 약국",
        "place_name": "단비온누리약국"
    },
    {
        "category_name": "의료,건강 > 약국",
        "place_name": "친절한약국"
    },
    {
        "category_name": "의료,건강 > 약국",
        "place_name": "리센츠약국"
    },
    {
        "category_name": "의료,건강 > 약국",
        "place_name": "푸른약국"
    },
    {
        "category_name": "의료,건강 > 약국",
        "place_name": "비타민약국"
    },
    {
        "category_name": "의료,건강 > 약국",
        "place_name": "석촌솔약국"
    },
    {
        "category_name": "의료,건강 > 한약국,한약방",
        "place_name": "송파한약국"
    },
    {
        "category_name": "의료,건강 > 약국",
        "place_name": "석촌미소약국"
    },
    {
        "category_name": "의료,건강 > 약국",
        "place_name": "코끼리약국"
    },
    {
        "category_name": "의료,건강 > 약국",
        "place_name": "맥스약국"
    },
    {
        "category_name": "의료,건강 > 약국",
        "place_name": "호원약국"
    },
    {
        "category_name": "의료,건강 > 약국",
        "place_name": "태평양약국"
    },
    {
        "category_name": "의료,건강 > 약국",
        "place_name": "봄약국"
    },
    {
        "category_name": "의료,건강 > 약국",
        "place_name": "잠실새내365약국"
    },
    {
        "category_name": "의료,건강 > 약국",
        "place_name": "잠실수약국"
    },
    {
        "category_name": "의료,건강 > 약국",
        "place_name": "단비온누리약국"
    },
    {
        "category_name": "의료,건강 > 약국",
        "place_name": "친절한약국"
    },
    {
        "category_name": "의료,건강 > 약국",
        "place_name": "리센츠약국"
    },
    {
        "category_name": "의료,건강 > 약국",
        "place_name": "푸른약국"
    },
    {
        "category_name": "의료,건강 > 약국",
        "place_name": "비타민약국"
    },
    {
        "category_name": "의료,건강 > 약국",
        "place_name": "석촌솔약국"
    },
    {
        "category_name": "의료,건강 > 한약국,한약방",
        "place_name": "송파한약국"
    },
    {
        "category_name": "의료,건강 > 약국",
        "place_name": "석촌미소약국"
    },
    {
        "category_name": "의료,건강 > 약국",
        "place_name": "코끼리약국"
    },
    {
        "category_name": "의료,건강 > 약국",
        "place_name": "맥스약국"
    },
    {
        "category_name": "의료,건강 > 약국",
        "place_name": "호원약국"
    },
    {
        "category_name": "의료,건강 > 약국",
        "place_name": "태평양약국"
    },
    {
        "category_name": "의료,건강 > 약국",
        "place_name": "봄약국"
    },
    {
        "category_name": "의료,건강 > 약국",
        "place_name": "잠실새내365약국"
    },
    {
        "category_name": "의료,건강 > 약국",
        "place_name": "잠실수약국"
    },
    {
        "category_name": "의료,건강 > 약국",
        "place_name": "단비온누리약국"
    },
    {
        "category_name": "의료,건강 > 약국",
        "place_name": "친절한약국"
    },
    {
        "category_name": "의료,건강 > 약국",
        "place_name": "리센츠약국"
    },
    {
        "category_name": "의료,건강 > 약국",
        "place_name": "푸른약국"
    },
    {
        "category_name": "의료,건강 > 약국",
        "place_name": "비타민약국"
    },
    {
        "category_name": "의료,건강 > 약국",
        "place_name": "석촌솔약국"
    },
    {
        "category_name": "의료,건강 > 한약국,한약방",
        "place_name": "송파한약국"
    },
    {
        "category_name": "의료,건강 > 약국",
        "place_name": "석촌미소약국"
    },
    {
        "category_name": "의료,건강 > 약국",
        "place_name": "코끼리약국"
    },
    {
        "category_name": "의료,건강 > 약국",
        "place_name": "맥스약국"
    },
    {
        "category_name": "의료,건강 > 약국",
        "place_name": "호원약국"
    },
    {
        "category_name": "의료,건강 > 약국",
        "place_name": "태평양약국"
    },
    {
        "category_name": "의료,건강 > 약국",
        "place_name": "봄약국"
    },
    {
        "category_name": "의료,건강 > 약국",
        "place_name": "잠실새내365약국"
    },
    {
        "category_name": "의료,건강 > 약국",
        "place_name": "잠실수약국"
    },
    {
        "category_name": "의료,건강 > 약국",
        "place_name": "단비온누리약국"
    },
    {
        "category_name": "의료,건강 > 약국",
        "place_name": "친절한약국"
    },
    {
        "category_name": "의료,건강 > 약국",
        "place_name": "리센츠약국"
    },
    {
        "category_name": "의료,건강 > 약국",
        "place_name": "푸른약국"
    },
    {
        "category_name": "의료,건강 > 약국",
        "place_name": "비타민약국"
    },
    {
        "category_name": "의료,건강 > 약국",
        "place_name": "석촌솔약국"
    },
    {
        "category_name": "의료,건강 > 한약국,한약방",
        "place_name": "송파한약국"
    },
    {
        "category_name": "의료,건강 > 약국",
        "place_name": "석촌미소약국"
    },
    {
        "category_name": "의료,건강 > 약국",
        "place_name": "코끼리약국"
    },
    {
        "category_name": "의료,건강 > 약국",
        "place_name": "맥스약국"
    },
    {
        "category_name": "의료,건강 > 약국",
        "place_name": "호원약국"
    },
    {
        "category_name": "의료,건강 > 약국",
        "place_name": "태평양약국"
    },
    {
        "category_name": "의료,건강 > 약국",
        "place_name": "봄약국"
    },
    {
        "category_name": "의료,건강 > 약국",
        "place_name": "잠실새내365약국"
    },
    {
        "category_name": "의료,건강 > 약국",
        "place_name": "잠실수약국"
    },
    {
        "category_name": "의료,건강 > 약국",
        "place_name": "단비온누리약국"
    },
    {
        "category_name": "의료,건강 > 약국",
        "place_name": "친절한약국"
    },
    {
        "category_name": "의료,건강 > 약국",
        "place_name": "리센츠약국"
    },
    {
        "category_name": "의료,건강 > 약국",
        "place_name": "푸른약국"
    },
    {
        "category_name": "의료,건강 > 약국",
        "place_name": "비타민약국"
    },
    {
        "category_name": "의료,건강 > 약국",
        "place_name": "석촌솔약국"
    },
    {
        "category_name": "의료,건강 > 한약국,한약방",
        "place_name": "송파한약국"
    },
    {
        "category_name": "의료,건강 > 약국",
        "place_name": "석촌미소약국"
    },
    {
        "category_name": "의료,건강 > 약국",
        "place_name": "코끼리약국"
    },
    {
        "category_name": "의료,건강 > 약국",
        "place_name": "맥스약국"
    },
    {
        "category_name": "의료,건강 > 약국",
        "place_name": "호원약국"
    },
    {
        "category_name": "의료,건강 > 약국",
        "place_name": "태평양약국"
    },
    {
        "category_name": "의료,건강 > 약국",
        "place_name": "봄약국"
    },
    {
        "category_name": "의료,건강 > 약국",
        "place_name": "잠실새내365약국"
    },
    {
        "category_name": "의료,건강 > 약국",
        "place_name": "잠실수약국"
    },
    {
        "category_name": "의료,건강 > 약국",
        "place_name": "단비온누리약국"
    },
    {
        "category_name": "의료,건강 > 약국",
        "place_name": "친절한약국"
    },
    {
        "category_name": "의료,건강 > 약국",
        "place_name": "리센츠약국"
    },
    {
        "category_name": "의료,건강 > 약국",
        "place_name": "푸른약국"
    },
    {
        "category_name": "의료,건강 > 약국",
        "place_name": "비타민약국"
    },
    {
        "category_name": "의료,건강 > 약국",
        "place_name": "석촌솔약국"
    },
    {
        "category_name": "의료,건강 > 한약국,한약방",
        "place_name": "송파한약국"
    },
    {
        "category_name": "의료,건강 > 약국",
        "place_name": "석촌미소약국"
    },
    {
        "category_name": "의료,건강 > 약국",
        "place_name": "코끼리약국"
    },
    {
        "category_name": "의료,건강 > 약국",
        "place_name": "맥스약국"
    },
    {
        "category_name": "의료,건강 > 약국",
        "place_name": "호원약국"
    },
    {
        "category_name": "의료,건강 > 약국",
        "place_name": "태평양약국"
    },
    {
        "category_name": "의료,건강 > 약국",
        "place_name": "봄약국"
    },
    {
        "category_name": "의료,건강 > 약국",
        "place_name": "잠실새내365약국"
    },
    {
        "category_name": "의료,건강 > 약국",
        "place_name": "잠실수약국"
    },
    {
        "category_name": "의료,건강 > 약국",
        "place_name": "단비온누리약국"
    },
    {
        "category_name": "의료,건강 > 약국",
        "place_name": "친절한약국"
    },
    {
        "category_name": "의료,건강 > 약국",
        "place_name": "리센츠약국"
    },
    {
        "category_name": "의료,건강 > 약국",
        "place_name": "푸른약국"
    },
    {
        "category_name": "의료,건강 > 약국",
        "place_name": "비타민약국"
    },
    {
        "category_name": "의료,건강 > 약국",
        "place_name": "석촌솔약국"
    },
    {
        "category_name": "의료,건강 > 한약국,한약방",
        "place_name": "송파한약국"
    },
    {
        "category_name": "의료,건강 > 약국",
        "place_name": "석촌미소약국"
    },
    {
        "category_name": "의료,건강 > 약국",
        "place_name": "코끼리약국"
    },
    {
        "category_name": "의료,건강 > 약국",
        "place_name": "맥스약국"
    },
    {
        "category_name": "의료,건강 > 약국",
        "place_name": "호원약국"
    },
    {
        "category_name": "의료,건강 > 약국",
        "place_name": "태평양약국"
    },
    {
        "category_name": "의료,건강 > 약국",
        "place_name": "봄약국"
    },
    {
        "category_name": "의료,건강 > 약국",
        "place_name": "잠실새내365약국"
    },
    {
        "category_name": "의료,건강 > 약국",
        "place_name": "잠실수약국"
    },
    {
        "category_name": "의료,건강 > 약국",
        "place_name": "단비온누리약국"
    },
    {
        "category_name": "의료,건강 > 약국",
        "place_name": "친절한약국"
    },
    {
        "category_name": "의료,건강 > 약국",
        "place_name": "리센츠약국"
    },
    {
        "category_name": "의료,건강 > 약국",
        "place_name": "푸른약국"
    },
    {
        "category_name": "의료,건강 > 약국",
        "place_name": "비타민약국"
    },
    {
        "category_name": "의료,건강 > 약국",
        "place_name": "석촌솔약국"
    },
    {
        "category_name": "의료,건강 > 한약국,한약방",
        "place_name": "송파한약국"
    },
    {
        "category_name": "의료,건강 > 약국",
        "place_name": "석촌미소약국"
    },
    {
        "category_name": "의료,건강 > 약국",
        "place_name": "코끼리약국"
    },
    {
        "category_name": "의료,건강 > 약국",
        "place_name": "맥스약국"
    },
    {
        "category_name": "의료,건강 > 약국",
        "place_name": "호원약국"
    },
    {
        "category_name": "의료,건강 > 약국",
        "place_name": "태평양약국"
    },
    {
        "category_name": "의료,건강 > 약국",
        "place_name": "봄약국"
    },
    {
        "category_name": "의료,건강 > 약국",
        "place_name": "잠실새내365약국"
    },
    {
        "category_name": "의료,건강 > 약국",
        "place_name": "잠실수약국"
    },
    {
        "category_name": "의료,건강 > 약국",
        "place_name": "단비온누리약국"
    },
    {
        "category_name": "의료,건강 > 약국",
        "place_name": "친절한약국"
    },
    {
        "category_name": "의료,건강 > 약국",
        "place_name": "리센츠약국"
    },
    {
        "category_name": "의료,건강 > 약국",
        "place_name": "푸른약국"
    },
    {
        "category_name": "의료,건강 > 약국",
        "place_name": "비타민약국"
    },
    {
        "category_name": "의료,건강 > 약국",
        "place_name": "석촌솔약국"
    },
    {
        "category_name": "의료,건강 > 한약국,한약방",
        "place_name": "송파한약국"
    },
    {
        "category_name": "의료,건강 > 약국",
        "place_name": "석촌미소약국"
    },
    {
        "category_name": "의료,건강 > 약국",
        "place_name": "코끼리약국"
    },
    {
        "category_name": "의료,건강 > 약국",
        "place_name": "맥스약국"
    },
    {
        "category_name": "의료,건강 > 약국",
        "place_name": "호원약국"
    },
    {
        "category_name": "의료,건강 > 약국",
        "place_name": "태평양약국"
    },
    {
        "category_name": "의료,건강 > 약국",
        "place_name": "봄약국"
    },
    {
        "category_name": "의료,건강 > 약국",
        "place_name": "잠실새내365약국"
    },
    {
        "category_name": "의료,건강 > 약국",
        "place_name": "잠실수약국"
    },
    {
        "category_name": "의료,건강 > 약국",
        "place_name": "단비온누리약국"
    },
    {
        "category_name": "의료,건강 > 약국",
        "place_name": "친절한약국"
    },
    {
        "category_name": "의료,건강 > 약국",
        "place_name": "리센츠약국"
    },
    {
        "category_name": "의료,건강 > 약국",
        "place_name": "푸른약국"
    },
    {
        "category_name": "의료,건강 > 약국",
        "place_name": "비타민약국"
    },
    {
        "category_name": "의료,건강 > 약국",
        "place_name": "석촌솔약국"
    },
    {
        "category_name": "의료,건강 > 한약국,한약방",
        "place_name": "송파한약국"
    },
    {
        "category_name": "의료,건강 > 약국",
        "place_name": "석촌미소약국"
    },
    {
        "category_name": "의료,건강 > 약국",
        "place_name": "코끼리약국"
    },
    {
        "category_name": "의료,건강 > 약국",
        "place_name": "맥스약국"
    },
    {
        "category_name": "의료,건강 > 약국",
        "place_name": "호원약국"
    },
    {
        "category_name": "의료,건강 > 약국",
        "place_name": "태평양약국"
    },
    {
        "category_name": "의료,건강 > 약국",
        "place_name": "봄약국"
    },
    {
        "category_name": "의료,건강 > 약국",
        "place_name": "잠실새내365약국"
    },
    {
        "category_name": "의료,건강 > 약국",
        "place_name": "잠실수약국"
    },
    {
        "category_name": "의료,건강 > 약국",
        "place_name": "단비온누리약국"
    },
    {
        "category_name": "의료,건강 > 약국",
        "place_name": "친절한약국"
    },
    {
        "category_name": "의료,건강 > 약국",
        "place_name": "리센츠약국"
    },
    {
        "category_name": "의료,건강 > 약국",
        "place_name": "푸른약국"
    },
    {
        "category_name": "의료,건강 > 약국",
        "place_name": "비타민약국"
    }
]