[
    {
        "category_name": "가정,생활 > 미용 > 미용실 > 준오헤어",
        "place_name": "준오헤어 잠실점",
        "label": "미용"
    },
    {
        "category_name": "가정,생활 > 미용 > 미용실 > 준오헤어",
        "place_name": "준오헤어 잠실롯데월드몰점",
        "label": "미용"
    },
    {
        "category_name": "가정,생활 > 미용 > 체형관리 > 약손명가",
        "place_name": "약손명가 잠실역점",
        "label": "미용"
    },
    {
        "category_name": "가정,생활 > 미용 > 미용실 > 이가자헤어비스",
        "place_name": "이가자헤어비스 롯데마트잠실점",
        "label": "미용"
    },
    {
        "category_name": "가정,생활 > 미용 > 미용실 > 리안헤어",
        "place_name": "리안헤어 석촌역점",
        "label": "미용"
    },
    {
        "category_name": "가정,생활 > 미용 > 미용실 > 에이바헤어",
        "place_name": "에이바헤어 잠실삼전점",
        "label": "미용"
    },
    {
        "category_name": "가정,생활 > 미용 > 체형관리 > 더하노이풋앤바디",
        "place_name": "더하노이풋앤바디 잠실점",
        "label": "미용"
    },
    {
        "category_name": "가정,생활 > 미용 > 미용실 > 리안헤어",
        "place_name": "리안헤어 잠실역점",
        "label": "미용"
    },
    {
        "category_name": "가정,생활 > 미용 > 미용실 > 박승철헤어스투디오",
        "place_name": "박승철헤어스투디오 잠실새내점",
        "label": "미용"
    },
    {
        "category_name": "가정,생활 > 미용 > 미용실 > 이철헤어커커",
        "place_name": "이철헤어커커 잠실롯데백화점",
        "label": "미용"
    },
    {
        "category_name": "가정,생활 > 미용 > 발관리 > 더풋샵",
        "place_name": "더풋샵 잠실나루점",
        "label": "미용"
    },
    {
        "category_name": "가정,생활 > 미용 > 미용실 > 나이스가이",
        "place_name": "나이스가이 레이크팰리스점",
        "label": "미용"
    },
    {
        "category_name": "가정,생활 > 미용 > 미용실 > 박승철헤어스투디오",
        "place_name": "박승철헤어스투디오 잠실홈플러스점",
        "label": "미용"
    },
    {
        "category_name": "가정,생활 > 미용 > 체형관리 > 약손명가",
        "place_name": "약손명가 잠실새내역점",
        "label": "미용"
    },
    {
        "category_name": "가정,생활 > 미용 > 미용실 > 에이바헤어",
        "place_name": "에이바헤어 잠실새내점",
        "label": "미용"
    },
    {
        "category_name": "가정,생활 > 미용 > 미용실 > 에이바헤어",
        "place_name": "에이바헤어 석촌고분역점",
        "label": "미용"
    },
    {
        "category_name": "가정,생활 > 미용 > 미용실 > 이철헤어커커",
        "place_name": "이철헤어커커 잠실랜드마크점",
        "label": "미용"
    },
    {
        "category_name": "가정,생활 > 미용 > 미용실 > 나이스헤어",
        "place_name": "나이스헤어 잠실역점",
        "label": "미용"
    },
    {
        "category_name": "가정,생활 > 미용 > 미용실 > 블루클럽",
        "place_name": "블루클럽 신천역점",
        "label": "미용"
    },
    {
        "category_name": "가정,생활 > 미용 > 미용실 > 이철헤어커커",
        "place_name": "이철헤어커커 잠실나루역점",
        "label": "미용"
    },
    {
        "category_name": "가정,생활 > 미용 > 미용실 > 블루클럽",
        "place_name": "블루클럽 잠실점",
        "label": "미용"
    },
    {
        "category_name": "가정,생활 > 미용 > 체형관리 > 더하노이풋앤바디",
        "place_name": "더하노이풋앤바디 잠실새내역점",
        "label": "미용"
    },
    {
        "category_name": "가정,생활 > 미용 > 발관리 > 더풋샵",
        "place_name": "더풋샵 잠실석촌호수점",
        "label": "미용"
    },
    {
        "category_name": "가정,생활 > 미용 > 체형관리",
        "place_name": "데이지테라피",
        "label": "미용"
    },
    {
        "category_name": "가정,생활 > 미용 > 미용실",
        "place_name": "헤어아르떼 본점",
        "label": "미용"
    },
    {
        "category_name": "가정,생활 > 미용 > 화장품 > 이니스프리",
        "place_name": "이니스프리 잠실지하점",
        "label": "미용"
    },
    {
        "category_name": "가정,생활 > 미용 > 화장품 > 이니스프리",
        "place_name": "이니스프리 롯데마트잠실점",
        "label": "미용"
    },
    {
        "category_name": "가정,생활 > 미용 > 미용실 > 나이스가이",
        "place_name": "나이스가이 잠실트리지움점",
        "label": "미용"
    },
    {
        "category_name": "가정,생활 > 미용 > 화장품 > 더페이스샵",
        "place_name": "더페이스샵 롯데면세점 월드타워점",
        "label": "미용"
    },
    {
        "category_name": "가정,생활 > 미용 > 화장품 > 더바디샵",
        "place_name": "더바디샵 롯데잠실점",
        "label": "미용"
    },
    {
        "category_name": "가정,생활 > 미용 > 화장품 > 네이처리퍼블릭",
        "place_name": "네이처리퍼블릭 잠실광장점",
        "label": "미용"
    },
    {
        "category_name": "가정,생활 > 미용 > 미용실 > 리안헤어",
        "place_name": "리안헤어 잠실삼전역점",
        "label": "미용"
    },
    {
        "category_name": "가정,생활 > 미용 > 미용실 > 리안헤어",
        "place_name": "리안헤어 잠실나루역점",
        "label": "미용"
    },
    {
        "category_name": "가정,생활 > 미용 > 미용실 > 블루클럽",
        "place_name": "블루클럽 잠실새내역점",
        "label": "미용"
    },
    {
        "category_name": "가정,생활 > 미용 > 미용실 > 모즈토리",
        "place_name": "모즈토리 잠실새내역점",
        "label": "미용"
    },
    {
        "category_name": "가정,생활 > 미용 > 화장품 > 이니스프리",
        "place_name": "이니스프리 롯데마트월드타워점",
        "label": "미용"
    },
    {
        "category_name": "가정,생활 > 미용 > 미용실 > 준오헤어",
        "place_name": "준오헤어 잠실종합운동장사거리점",
        "label": "미용"
    },
    {
        "category_name": "가정,생활 > 미용 > 화장품 > 토니모리",
        "place_name": "토니모리 잠실지하상가점",
        "label": "미용"
    },
    {
        "category_name": "가정,생활 > 미용 > 발관리 > 더풋샵",
        "place_name": "더풋샵 잠실역점",
        "label": "미용"
    },
    {
        "category_name": "가정,생활 > 미용 > 미용실",
        "place_name": "코벨헤어 삼전점",
        "label": "미용"
    },
    {
        "category_name": "가정,생활 > 미용 > 화장품 > 네이처리퍼블릭",
        "place_name": "네이처리퍼블릭 롯데면세점잠실점",
        "label": "미용"
    },
    {
        "category_name": "가정,생활 > 미용 > 네일샵",
        "place_name": "브루미네일",
        "label": "미용"
    },
    {
        "category_name": "가정,생활 > 미용 > 미용실 > 에이바헤어",
        "place_name": "에이바헤어 송파나루역점",
        "label": "미용"
    },
    {
        "category_name": "가정,생활 > 미용 > 피부관리 > 세레니끄",
        "place_name": "세레니끄 잠실월드마크점",
        "label": "미용"
    },
    {
        "category_name": "가정,생활 > 미용 > 화장품 > 네이처리퍼블릭",
        "place_name": "네이처리퍼블릭 롯데마트월드타워점",
        "label": "미용"
    },
    {
        "category_name": "가정,생활 > 미용 > 화장품 > 네이처리퍼블릭",
        "place_name": "네이처리퍼블릭 잠실광장점",
        "label": "미용"
    },
    {
        "category_name": "가정,생활 > 미용 > 미용실 > 리안헤어",
        "place_name": "리안헤어 잠실삼전역점",
        "label": "미용"
    },
    {
        "category_name": "가정,생활 > 미용 > 미용실 > 리안헤어",
        "place_name": "리안헤어 잠실나루역점",
        "label": "미용"
    },
    {
        "category_name": "가정,생활 > 미용 > 미용실 > 블루클럽",
        "place_name": "블루클럽 잠실새내역점",
        "label": "미용"
    },
    {
        "category_name": "가정,생활 > 미용 > 미용실 > 모즈토리",
        "place_name": "모즈토리 잠실새내역점",
        "label": "미용"
    },
    {
        "category_name": "가정,생활 > 미용 > 화장품 > 이니스프리",
        "place_name": "이니스프리 롯데마트월드타워점",
        "label": "미용"
    },
    {
        "category_name": "가정,생활 > 미용 > 미용실 > 준오헤어",
        "place_name": "준오헤어 잠실종합운동장사거리점",
        "label": "미용"
    },
    {
        "category_name": "가정,생활 > 미용 > 화장품 > 토니모리",
        "place_name": "토니모리 잠실지하상가점",
        "label": "미용"
    },
    {
        "category_name": "가정,생활 > 미용 > 발관리 > 더풋샵",
        "place_name": "더풋샵 잠실역점",
        "label": "미용"
    },
    {
        "category_name": "가정,생활 > 미용 > 미용실",
        "place_name": "코벨헤어 삼전점",
        "label": "미용"
    },
    {
        "category_name": "가정,생활 > 미용 > 화장품 > 네이처리퍼블릭",
        "place_name": "네이처리퍼블릭 롯데면세점잠실점",
        "label": "미용"
    },
    {
        "category_name": "가정,생활 > 미용 > 네일샵",
        "place_name": "브루미네일",
        "label": "미용"
    },
    {
        "category_name": "가정,생활 > 미용 > 미용실 > 에이바헤어",
        "place_name": "에이바헤어 송파나루역점",
        "label": "미용"
    },
    {
        "category_name": "가정,생활 > 미용 > 피부관리 > 세레니끄",
        "place_name": "세레니끄 잠실월드마크점",
        "label": "미용"
    },
    {
        "category_name": "가정,생활 > 미용 > 화장품 > 네이처리퍼블릭",
        "place_name": "네이처리퍼블릭 롯데마트월드타워점",
        "label": "미용"
    },
    {
        "category_name": "가정,생활 > 미용 > 화장품 > 네이처리퍼블릭",
        "place_name": "네이처리퍼블릭 잠실광장점",
        "label": "미용"
    },
    {
        "category_name": "가정,생활 > 미용 > 미용실 > 리안헤어",
        "place_name": "리안헤어 잠실삼전역점",
        "label": "미용"
    },
    {
        "category_name": "가정,생활 > 미용 > 미용실 > 리안헤어",
        "place_name": "리안헤어 잠실나루역점",
        "label": "미용"
    },
    {
        "category_name": "가정,생활 > 미용 > 미용실 > 블루클럽",
        "place_name": "블루클럽 잠실새내역점",
        "label": "미용"
    },
    {
        "category_name": "가정,생활 > 미용 > 미용실 > 모즈토리",
        "place_name": "모즈토리 잠실새내역점",
        "label": "미용"
    },
    {
        "category_name": "가정,생활 > 미용 > 화장품 > 이니스프리",
        "place_name": "이니스프리 롯데마트월드타워점",
        "label": "미용"
    },
    {
        "category_name": "가정,생활 > 미용 > 미용실 > 준오헤어",
        "place_name": "준오헤어 잠실종합운동장사거리점",
        "label": "미용"
    },
    {
        "category_name": "가정,생활 > 미용 > 화장품 > 토니모리",
        "place_name": "토니모리 잠실지하상가점",
        "label": "미용"
    },
    {
        "category_name": "가정,생활 > 미용 > 발관리 > 더풋샵",
        "place_name": "더풋샵 잠실역점",
        "label": "미용"
    },
    {
        "category_name": "가정,생활 > 미용 > 미용실",
        "place_name": "코벨헤어 삼전점",
        "label": "미용"
    },
    {
        "category_name": "가정,생활 > 미용 > 화장품 > 네이처리퍼블릭",
        "place_name": "네이처리퍼블릭 롯데면세점잠실점",
        "label": "미용"
    },
    {
        "category_name": "가정,생활 > 미용 > 네일샵",
        "place_name": "브루미네일",
        "label": "미용"
    },
    {
        "category_name": "가정,생활 > 미용 > 미용실 > 에이바헤어",
        "place_name": "에이바헤어 송파나루역점",
        "label": "미용"
    },
    {
        "category_name": "가정,생활 > 미용 > 피부관리 > 세레니끄",
        "place_name": "세레니끄 잠실월드마크점",
        "label": "미용"
    },
    {
        "category_name": "가정,생활 > 미용 > 화장품 > 네이처리퍼블릭",
        "place_name": "네이처리퍼블릭 롯데마트월드타워점",
        "label": "미용"
    },
    {
        "category_name": "가정,생활 > 미용 > 화장품 > 네이처리퍼블릭",
        "place_name": "네이처리퍼블릭 잠실광장점",
        "label": "미용"
    },
    {
        "category_name": "가정,생활 > 미용 > 미용실 > 리안헤어",
        "place_name": "리안헤어 잠실삼전역점",
        "label": "미용"
    },
    {
        "category_name": "가정,생활 > 미용 > 미용실 > 리안헤어",
        "place_name": "리안헤어 잠실나루역점",
        "label": "미용"
    },
    {
        "category_name": "가정,생활 > 미용 > 미용실 > 블루클럽",
        "place_name": "블루클럽 잠실새내역점",
        "label": "미용"
    },
    {
        "category_name": "가정,생활 > 미용 > 미용실 > 모즈토리",
        "place_name": "모즈토리 잠실새내역점",
        "label": "미용"
    },
    {
        "category_name": "가정,생활 > 미용 > 화장품 > 이니스프리",
        "place_name": "이니스프리 롯데마트월드타워점",
        "label": "미용"
    },
    {
        "category_name": "가정,생활 > 미용 > 미용실 > 준오헤어",
        "place_name": "준오헤어 잠실종합운동장사거리점",
        "label": "미용"
    },
    {
        "category_name": "가정,생활 > 미용 > 화장품 > 토니모리",
        "place_name": "토니모리 잠실지하상가점",
        "label": "미용"
    },
    {
        "category_name": "가정,생활 > 미용 > 발관리 > 더풋샵",
        "place_name": "더풋샵 잠실역점",
        "label": "미용"
    },
    {
        "category_name": "가정,생활 > 미용 > 미용실",
        "place_name": "코벨헤어 삼전점",
        "label": "미용"
    },
    {
        "category_name": "가정,생활 > 미용 > 화장품 > 네이처리퍼블릭",
        "place_name": "네이처리퍼블릭 롯데면세점잠실점",
        "label": "미용"
    },
    {
        "category_name": "가정,생활 > 미용 > 네일샵",
        "place_name": "브루미네일",
        "label": "미용"
    },
    {
        "category_name": "가정,생활 > 미용 > 미용실 > 에이바헤어",
        "place_name": "에이바헤어 송파나루역점",
        "label": "미용"
    },
    {
        "category_name": "가정,생활 > 미용 > 피부관리 > 세레니끄",
        "place_name": "세레니끄 잠실월드마크점",
        "label": "미용"
    },
    {
        "category_name": "가정,생활 > 미용 > 화장품 > 네이처리퍼블릭",
        "place_name": "네이처리퍼블릭 롯데마트월드타워점",
        "label": "미용"
    },
    {
        "category_name": "가정,생활 > 미용 > 화장품 > 네이처리퍼블릭",
        "place_name": "네이처리퍼블릭 잠실광장점",
        "label": "미용"
    },
    {
        "category_name": "가정,생활 > 미용 > 미용실 > 리안헤어",
        "place_name": "리안헤어 잠실삼전역점",
        "label": "미용"
    },
    {
        "category_name": "가정,생활 > 미용 > 미용실 > 리안헤어",
        "place_name": "리안헤어 잠실나루역점",
        "label": "미용"
    },
    {
        "category_name": "가정,생활 > 미용 > 미용실 > 블루클럽",
        "place_name": "블루클럽 잠실새내역점",
        "label": "미용"
    },
    {
        "category_name": "가정,생활 > 미용 > 미용실 > 모즈토리",
        "place_name": "모즈토리 잠실새내역점",
        "label": "미용"
    },
    {
        "category_name": "가정,생활 > 미용 > 화장품 > 이니스프리",
        "place_name": "이니스프리 롯데마트월드타워점",
        "label": "미용"
    },
    {
        "category_name": "가정,생활 > 미용 > 미용실 > 준오헤어",
        "place_name": "준오헤어 잠실종합운동장사거리점",
        "label": "미용"
    },
    {
        "category_name": "가정,생활 > 미용 > 화장품 > 토니모리",
        "place_name": "토니모리 잠실지하상가점",
        "label": "미용"
    },
    {
        "category_name": "가정,생활 > 미용 > 발관리 > 더풋샵",
        "place_name": "더풋샵 잠실역점",
        "label": "미용"
    },
    {
        "category_name": "가정,생활 > 미용 > 미용실",
        "place_name": "코벨헤어 삼전점",
        "label": "미용"
    },
    {
        "category_name": "가정,생활 > 미용 > 화장품 > 네이처리퍼블릭",
        "place_name": "네이처리퍼블릭 롯데면세점잠실점",
        "label": "미용"
    },
    {
        "category_name": "가정,생활 > 미용 > 네일샵",
        "place_name": "브루미네일",
        "label": "미용"
    },
    {
        "category_name": "가정,생활 > 미용 > 미용실 > 에이바헤어",
        "place_name": "에이바헤어 송파나루역점",
        "label": "미용"
    },
    {
        "category_name": "가정,생활 > 미용 > 피부관리 > 세레니끄",
        "place_name": "세레니끄 잠실월드마크점",
        "label": "미용"
    },
    {
        "category_name": "가정,생활 > 미용 > 화장품 > 네이처리퍼블릭",
        "place_name": "네이처리퍼블릭 롯데마트월드타워점",
        "label": "미용"
    },
    {
        "category_name": "가정,생활 > 미용 > 화장품 > 네이처리퍼블릭",
        "place_name": "네이처리퍼블릭 잠실광장점",
        "label": "미용"
    },
    {
        "category_name": "가정,생활 > 미용 > 미용실 > 리안헤어",
        "place_name": "리안헤어 잠실삼전역점",
        "label": "미용"
    },
    {
        "category_name": "가정,생활 > 미용 > 미용실 > 리안헤어",
        "place_name": "리안헤어 잠실나루역점",
        "label": "미용"
    },
    {
        "category_name": "가정,생활 > 미용 > 미용실 > 블루클럽",
        "place_name": "블루클럽 잠실새내역점",
        "label": "미용"
    },
    {
        "category_name": "가정,생활 > 미용 > 미용실 > 모즈토리",
        "place_name": "모즈토리 잠실새내역점",
        "label": "미용"
    },
    {
        "category_name": "가정,생활 > 미용 > 화장품 > 이니스프리",
        "place_name": "이니스프리 롯데마트월드타워점",
        "label": "미용"
    },
    {
        "category_name": "가정,생활 > 미용 > 미용실 > 준오헤어",
        "place_name": "준오헤어 잠실종합운동장사거리점",
        "label": "미용"
    },
    {
        "category_name": "가정,생활 > 미용 > 화장품 > 토니모리",
        "place_name": "토니모리 잠실지하상가점",
        "label": "미용"
    },
    {
        "category_name": "가정,생활 > 미용 > 발관리 > 더풋샵",
        "place_name": "더풋샵 잠실역점",
        "label": "미용"
    },
    {
        "category_name": "가정,생활 > 미용 > 미용실",
        "place_name": "코벨헤어 삼전점",
        "label": "미용"
    },
    {
        "category_name": "가정,생활 > 미용 > 화장품 > 네이처리퍼블릭",
        "place_name": "네이처리퍼블릭 롯데면세점잠실점",
        "label": "미용"
    },
    {
        "category_name": "가정,생활 > 미용 > 네일샵",
        "place_name": "브루미네일",
        "label": "미용"
    },
    {
        "category_name": "가정,생활 > 미용 > 미용실 > 에이바헤어",
        "place_name": "에이바헤어 송파나루역점",
        "label": "미용"
    },
    {
        "category_name": "가정,생활 > 미용 > 피부관리 > 세레니끄",
        "place_name": "세레니끄 잠실월드마크점",
        "label": "미용"
    },
    {
        "category_name": "가정,생활 > 미용 > 화장품 > 네이처리퍼블릭",
        "place_name": "네이처리퍼블릭 롯데마트월드타워점",
        "label": "미용"
    },
    {
        "category_name": "가정,생활 > 미용 > 화장품 > 네이처리퍼블릭",
        "place_name": "네이처리퍼블릭 잠실광장점",
        "label": "미용"
    },
    {
        "category_name": "가정,생활 > 미용 > 미용실 > 리안헤어",
        "place_name": "리안헤어 잠실삼전역점",
        "label": "미용"
    },
    {
        "category_name": "가정,생활 > 미용 > 미용실 > 리안헤어",
        "place_name": "리안헤어 잠실나루역점",
        "label": "미용"
    },
    {
        "category_name": "가정,생활 > 미용 > 미용실 > 블루클럽",
        "place_name": "블루클럽 잠실새내역점",
        "label": "미용"
    },
    {
        "category_name": "가정,생활 > 미용 > 미용실 > 모즈토리",
        "place_name": "모즈토리 잠실새내역점",
        "label": "미용"
    },
    {
        "category_name": "가정,생활 > 미용 > 화장품 > 이니스프리",
        "place_name": "이니스프리 롯데마트월드타워점",
        "label": "미용"
    },
    {
        "category_name": "가정,생활 > 미용 > 미용실 > 준오헤어",
        "place_name": "준오헤어 잠실종합운동장사거리점",
        "label": "미용"
    },
    {
        "category_name": "가정,생활 > 미용 > 화장품 > 토니모리",
        "place_name": "토니모리 잠실지하상가점",
        "label": "미용"
    },
    {
        "category_name": "가정,생활 > 미용 > 발관리 > 더풋샵",
        "place_name": "더풋샵 잠실역점",
        "label": "미용"
    },
    {
        "category_name": "가정,생활 > 미용 > 미용실",
        "place_name": "코벨헤어 삼전점",
        "label": "미용"
    },
    {
        "category_name": "가정,생활 > 미용 > 화장품 > 네이처리퍼블릭",
        "place_name": "네이처리퍼블릭 롯데면세점잠실점",
        "label": "미용"
    },
    {
        "category_name": "가정,생활 > 미용 > 네일샵",
        "place_name": "브루미네일",
        "label": "미용"
    },
    {
        "category_name": "가정,생활 > 미용 > 미용실 > 에이바헤어",
        "place_name": "에이바헤어 송파나루역점",
        "label": "미용"
    },
    {
        "category_name": "가정,생활 > 미용 > 피부관리 > 세레니끄",
        "place_name": "세레니끄 잠실월드마크점",
        "label": "미용"
    },
    {
        "category_name": "가정,생활 > 미용 > 화장품 > 네이처리퍼블릭",
        "place_name": "네이처리퍼블릭 롯데마트월드타워점",
        "label": "미용"
    },
    {
        "category_name": "가정,생활 > 미용 > 화장품 > 네이처리퍼블릭",
        "place_name": "네이처리퍼블릭 잠실광장점",
        "label": "미용"
    },
    {
        "category_name": "가정,생활 > 미용 > 미용실 > 리안헤어",
        "place_name": "리안헤어 잠실삼전역점",
        "label": "미용"
    },
    {
        "category_name": "가정,생활 > 미용 > 미용실 > 리안헤어",
        "place_name": "리안헤어 잠실나루역점",
        "label": "미용"
    },
    {
        "category_name": "가정,생활 > 미용 > 미용실 > 블루클럽",
        "place_name": "블루클럽 잠실새내역점",
        "label": "미용"
    },
    {
        "category_name": "가정,생활 > 미용 > 미용실 > 모즈토리",
        "place_name": "모즈토리 잠실새내역점",
        "label": "미용"
    },
    {
        "category_name": "가정,생활 > 미용 > 화장품 > 이니스프리",
        "place_name": "이니스프리 롯데마트월드타워점",
        "label": "미용"
    },
    {
        "category_name": "가정,생활 > 미용 > 미용실 > 준오헤어",
        "place_name": "준오헤어 잠실종합운동장사거리점",
        "label": "미용"
    },
    {
        "category_name": "가정,생활 > 미용 > 화장품 > 토니모리",
        "place_name": "토니모리 잠실지하상가점",
        "label": "미용"
    },
    {
        "category_name": "가정,생활 > 미용 > 발관리 > 더풋샵",
        "place_name": "더풋샵 잠실역점",
        "label": "미용"
    },
    {
        "category_name": "가정,생활 > 미용 > 미용실",
        "place_name": "코벨헤어 삼전점",
        "label": "미용"
    },
    {
        "category_name": "가정,생활 > 미용 > 화장품 > 네이처리퍼블릭",
        "place_name": "네이처리퍼블릭 롯데면세점잠실점",
        "label": "미용"
    },
    {
        "category_name": "가정,생활 > 미용 > 네일샵",
        "place_name": "브루미네일",
        "label": "미용"
    },
    {
        "category_name": "가정,생활 > 미용 > 미용실 > 에이바헤어",
        "place_name": "에이바헤어 송파나루역점",
        "label": "미용"
    },
    {
        "category_name": "가정,생활 > 미용 > 피부관리 > 세레니끄",
        "place_name": "세레니끄 잠실월드마크점",
        "label": "미용"
    },
    {
        "category_name": "가정,생활 > 미용 > 화장품 > 네이처리퍼블릭",
        "place_name": "네이처리퍼블릭 롯데마트월드타워점",
        "label": "미용"
    },
    {
        "category_name": "가정,생활 > 미용 > 화장품 > 네이처리퍼블릭",
        "place_name": "네이처리퍼블릭 잠실광장점",
        "label": "미용"
    },
    {
        "category_name": "가정,생활 > 미용 > 미용실 > 리안헤어",
        "place_name": "리안헤어 잠실삼전역점",
        "label": "미용"
    },
    {
        "category_name": "가정,생활 > 미용 > 미용실 > 리안헤어",
        "place_name": "리안헤어 잠실나루역점",
        "label": "미용"
    },
    {
        "category_name": "가정,생활 > 미용 > 미용실 > 블루클럽",
        "place_name": "블루클럽 잠실새내역점",
        "label": "미용"
    },
    {
        "category_name": "가정,생활 > 미용 > 미용실 > 모즈토리",
        "place_name": "모즈토리 잠실새내역점",
        "label": "미용"
    },
    {
        "category_name": "가정,생활 > 미용 > 화장품 > 이니스프리",
        "place_name": "이니스프리 롯데마트월드타워점",
        "label": "미용"
    },
    {
        "category_name": "가정,생활 > 미용 > 미용실 > 준오헤어",
        "place_name": "준오헤어 잠실종합운동장사거리점",
        "label": "미용"
    },
    {
        "category_name": "가정,생활 > 미용 > 화장품 > 토니모리",
        "place_name": "토니모리 잠실지하상가점",
        "label": "미용"
    },
    {
        "category_name": "가정,생활 > 미용 > 발관리 > 더풋샵",
        "place_name": "더풋샵 잠실역점",
        "label": "미용"
    },
    {
        "category_name": "가정,생활 > 미용 > 미용실",
        "place_name": "코벨헤어 삼전점",
        "label": "미용"
    },
    {
        "category_name": "가정,생활 > 미용 > 화장품 > 네이처리퍼블릭",
        "place_name": "네이처리퍼블릭 롯데면세점잠실점",
        "label": "미용"
    },
    {
        "category_name": "가정,생활 > 미용 > 네일샵",
        "place_name": "브루미네일",
        "label": "미용"
    },
    {
        "category_name": "가정,생활 > 미용 > 미용실 > 에이바헤어",
        "place_name": "에이바헤어 송파나루역점",
        "label": "미용"
    },
    {
        "category_name": "가정,생활 > 미용 > 피부관리 > 세레니끄",
        "place_name": "세레니끄 잠실월드마크점",
        "label": "미용"
    },
    {
        "category_name": "가정,생활 > 미용 > 화장품 > 네이처리퍼블릭",
        "place_name": "네이처리퍼블릭 롯데마트월드타워점",
        "label": "미용"
    },
    {
        "category_name": "가정,생활 > 미용 > 화장품 > 네이처리퍼블릭",
        "place_name": "네이처리퍼블릭 잠실광장점",
        "label": "미용"
    },
    {
        "category_name": "가정,생활 > 미용 > 미용실 > 리안헤어",
        "place_name": "리안헤어 잠실삼전역점",
        "label": "미용"
    },
    {
        "category_name": "가정,생활 > 미용 > 미용실 > 리안헤어",
        "place_name": "리안헤어 잠실나루역점",
        "label": "미용"
    },
    {
        "category_name": "가정,생활 > 미용 > 미용실 > 블루클럽",
        "place_name": "블루클럽 잠실새내역점",
        "label": "미용"
    },
    {
        "category_name": "가정,생활 > 미용 > 미용실 > 모즈토리",
        "place_name": "모즈토리 잠실새내역점",
        "label": "미용"
    },
    {
        "category_name": "가정,생활 > 미용 > 화장품 > 이니스프리",
        "place_name": "이니스프리 롯데마트월드타워점",
        "label": "미용"
    },
    {
        "category_name": "가정,생활 > 미용 > 미용실 > 준오헤어",
        "place_name": "준오헤어 잠실종합운동장사거리점",
        "label": "미용"
    },
    {
        "category_name": "가정,생활 > 미용 > 화장품 > 토니모리",
        "place_name": "토니모리 잠실지하상가점",
        "label": "미용"
    },
    {
        "category_name": "가정,생활 > 미용 > 발관리 > 더풋샵",
        "place_name": "더풋샵 잠실역점",
        "label": "미용"
    },
    {
        "category_name": "가정,생활 > 미용 > 미용실",
        "place_name": "코벨헤어 삼전점",
        "label": "미용"
    },
    {
        "category_name": "가정,생활 > 미용 > 화장품 > 네이처리퍼블릭",
        "place_name": "네이처리퍼블릭 롯데면세점잠실점",
        "label": "미용"
    },
    {
        "category_name": "가정,생활 > 미용 > 네일샵",
        "place_name": "브루미네일",
        "label": "미용"
    },
    {
        "category_name": "가정,생활 > 미용 > 미용실 > 에이바헤어",
        "place_name": "에이바헤어 송파나루역점",
        "label": "미용"
    },
    {
        "category_name": "가정,생활 > 미용 > 피부관리 > 세레니끄",
        "place_name": "세레니끄 잠실월드마크점",
        "label": "미용"
    },
    {
        "category_name": "가정,생활 > 미용 > 화장품 > 네이처리퍼블릭",
        "place_name": "네이처리퍼블릭 롯데마트월드타워점",
        "label": "미용"
    },
    {
        "category_name": "가정,생활 > 미용 > 화장품 > 네이처리퍼블릭",
        "place_name": "네이처리퍼블릭 잠실광장점",
        "label": "미용"
    },
    {
        "category_name": "가정,생활 > 미용 > 미용실 > 리안헤어",
        "place_name": "리안헤어 잠실삼전역점",
        "label": "미용"
    },
    {
        "category_name": "가정,생활 > 미용 > 미용실 > 리안헤어",
        "place_name": "리안헤어 잠실나루역점",
        "label": "미용"
    },
    {
        "category_name": "가정,생활 > 미용 > 미용실 > 블루클럽",
        "place_name": "블루클럽 잠실새내역점",
        "label": "미용"
    },
    {
        "category_name": "가정,생활 > 미용 > 미용실 > 모즈토리",
        "place_name": "모즈토리 잠실새내역점",
        "label": "미용"
    },
    {
        "category_name": "가정,생활 > 미용 > 화장품 > 이니스프리",
        "place_name": "이니스프리 롯데마트월드타워점",
        "label": "미용"
    },
    {
        "category_name": "가정,생활 > 미용 > 미용실 > 준오헤어",
        "place_name": "준오헤어 잠실종합운동장사거리점",
        "label": "미용"
    },
    {
        "category_name": "가정,생활 > 미용 > 화장품 > 토니모리",
        "place_name": "토니모리 잠실지하상가점",
        "label": "미용"
    },
    {
        "category_name": "가정,생활 > 미용 > 발관리 > 더풋샵",
        "place_name": "더풋샵 잠실역점",
        "label": "미용"
    },
    {
        "category_name": "가정,생활 > 미용 > 미용실",
        "place_name": "코벨헤어 삼전점",
        "label": "미용"
    },
    {
        "category_name": "가정,생활 > 미용 > 화장품 > 네이처리퍼블릭",
        "place_name": "네이처리퍼블릭 롯데면세점잠실점",
        "label": "미용"
    },
    {
        "category_name": "가정,생활 > 미용 > 네일샵",
        "place_name": "브루미네일",
        "label": "미용"
    },
    {
        "category_name": "가정,생활 > 미용 > 미용실 > 에이바헤어",
        "place_name": "에이바헤어 송파나루역점",
        "label": "미용"
    },
    {
        "category_name": "가정,생활 > 미용 > 피부관리 > 세레니끄",
        "place_name": "세레니끄 잠실월드마크점",
        "label": "미용"
    },
    {
        "category_name": "가정,생활 > 미용 > 화장품 > 네이처리퍼블릭",
        "place_name": "네이처리퍼블릭 롯데마트월드타워점",
        "label": "미용"
    },
    {
        "category_name": "가정,생활 > 미용 > 화장품 > 네이처리퍼블릭",
        "place_name": "네이처리퍼블릭 잠실광장점",
        "label": "미용"
    },
    {
        "category_name": "가정,생활 > 미용 > 미용실 > 리안헤어",
        "place_name": "리안헤어 잠실삼전역점",
        "label": "미용"
    },
    {
        "category_name": "가정,생활 > 미용 > 미용실 > 리안헤어",
        "place_name": "리안헤어 잠실나루역점",
        "label": "미용"
    },
    {
        "category_name": "가정,생활 > 미용 > 미용실 > 블루클럽",
        "place_name": "블루클럽 잠실새내역점",
        "label": "미용"
    },
    {
        "category_name": "가정,생활 > 미용 > 미용실 > 모즈토리",
        "place_name": "모즈토리 잠실새내역점",
        "label": "미용"
    },
    {
        "category_name": "가정,생활 > 미용 > 화장품 > 이니스프리",
        "place_name": "이니스프리 롯데마트월드타워점",
        "label": "미용"
    },
    {
        "category_name": "가정,생활 > 미용 > 미용실 > 준오헤어",
        "place_name": "준오헤어 잠실종합운동장사거리점",
        "label": "미용"
    },
    {
        "category_name": "가정,생활 > 미용 > 화장품 > 토니모리",
        "place_name": "토니모리 잠실지하상가점",
        "label": "미용"
    },
    {
        "category_name": "가정,생활 > 미용 > 발관리 > 더풋샵",
        "place_name": "더풋샵 잠실역점",
        "label": "미용"
    },
    {
        "category_name": "가정,생활 > 미용 > 미용실",
        "place_name": "코벨헤어 삼전점",
        "label": "미용"
    },
    {
        "category_name": "가정,생활 > 미용 > 화장품 > 네이처리퍼블릭",
        "place_name": "네이처리퍼블릭 롯데면세점잠실점",
        "label": "미용"
    },
    {
        "category_name": "가정,생활 > 미용 > 네일샵",
        "place_name": "브루미네일",
        "label": "미용"
    },
    {
        "category_name": "가정,생활 > 미용 > 미용실 > 에이바헤어",
        "place_name": "에이바헤어 송파나루역점",
        "label": "미용"
    },
    {
        "category_name": "가정,생활 > 미용 > 피부관리 > 세레니끄",
        "place_name": "세레니끄 잠실월드마크점",
        "label": "미용"
    },
    {
        "category_name": "가정,생활 > 미용 > 화장품 > 네이처리퍼블릭",
        "place_name": "네이처리퍼블릭 롯데마트월드타워점",
        "label": "미용"
    },
    {
        "category_name": "가정,생활 > 미용 > 화장품 > 네이처리퍼블릭",
        "place_name": "네이처리퍼블릭 잠실광장점",
        "label": "미용"
    },
    {
        "category_name": "가정,생활 > 미용 > 미용실 > 리안헤어",
        "place_name": "리안헤어 잠실삼전역점",
        "label": "미용"
    },
    {
        "category_name": "가정,생활 > 미용 > 미용실 > 리안헤어",
        "place_name": "리안헤어 잠실나루역점",
        "label": "미용"
    },
    {
        "category_name": "가정,생활 > 미용 > 미용실 > 블루클럽",
        "place_name": "블루클럽 잠실새내역점",
        "label": "미용"
    },
    {
        "category_name": "가정,생활 > 미용 > 미용실 > 모즈토리",
        "place_name": "모즈토리 잠실새내역점",
        "label": "미용"
    },
    {
        "category_name": "가정,생활 > 미용 > 화장품 > 이니스프리",
        "place_name": "이니스프리 롯데마트월드타워점",
        "label": "미용"
    },
    {
        "category_name": "가정,생활 > 미용 > 미용실 > 준오헤어",
        "place_name": "준오헤어 잠실종합운동장사거리점",
        "label": "미용"
    },
    {
        "category_name": "가정,생활 > 미용 > 화장품 > 토니모리",
        "place_name": "토니모리 잠실지하상가점",
        "label": "미용"
    },
    {
        "category_name": "가정,생활 > 미용 > 발관리 > 더풋샵",
        "place_name": "더풋샵 잠실역점",
        "label": "미용"
    },
    {
        "category_name": "가정,생활 > 미용 > 미용실",
        "place_name": "코벨헤어 삼전점",
        "label": "미용"
    },
    {
        "category_name": "가정,생활 > 미용 > 화장품 > 네이처리퍼블릭",
        "place_name": "네이처리퍼블릭 롯데면세점잠실점",
        "label": "미용"
    },
    {
        "category_name": "가정,생활 > 미용 > 네일샵",
        "place_name": "브루미네일",
        "label": "미용"
    },
    {
        "category_name": "가정,생활 > 미용 > 미용실 > 에이바헤어",
        "place_name": "에이바헤어 송파나루역점",
        "label": "미용"
    },
    {
        "category_name": "가정,생활 > 미용 > 피부관리 > 세레니끄",
        "place_name": "세레니끄 잠실월드마크점",
        "label": "미용"
    },
    {
        "category_name": "가정,생활 > 미용 > 화장품 > 네이처리퍼블릭",
        "place_name": "네이처리퍼블릭 롯데마트월드타워점",
        "label": "미용"
    },
    {
        "category_name": "가정,생활 > 미용 > 화장품 > 네이처리퍼블릭",
        "place_name": "네이처리퍼블릭 잠실광장점",
        "label": "미용"
    },
    {
        "category_name": "가정,생활 > 미용 > 미용실 > 리안헤어",
        "place_name": "리안헤어 잠실삼전역점",
        "label": "미용"
    },
    {
        "category_name": "가정,생활 > 미용 > 미용실 > 리안헤어",
        "place_name": "리안헤어 잠실나루역점",
        "label": "미용"
    },
    {
        "category_name": "가정,생활 > 미용 > 미용실 > 블루클럽",
        "place_name": "블루클럽 잠실새내역점",
        "label": "미용"
    },
    {
        "category_name": "가정,생활 > 미용 > 미용실 > 모즈토리",
        "place_name": "모즈토리 잠실새내역점",
        "label": "미용"
    },
    {
        "category_name": "가정,생활 > 미용 > 화장품 > 이니스프리",
        "place_name": "이니스프리 롯데마트월드타워점",
        "label": "미용"
    },
    {
        "category_name": "가정,생활 > 미용 > 미용실 > 준오헤어",
        "place_name": "준오헤어 잠실종합운동장사거리점",
        "label": "미용"
    },
    {
        "category_name": "가정,생활 > 미용 > 화장품 > 토니모리",
        "place_name": "토니모리 잠실지하상가점",
        "label": "미용"
    },
    {
        "category_name": "가정,생활 > 미용 > 발관리 > 더풋샵",
        "place_name": "더풋샵 잠실역점",
        "label": "미용"
    },
    {
        "category_name": "가정,생활 > 미용 > 미용실",
        "place_name": "코벨헤어 삼전점",
        "label": "미용"
    },
    {
        "category_name": "가정,생활 > 미용 > 화장품 > 네이처리퍼블릭",
        "place_name": "네이처리퍼블릭 롯데면세점잠실점",
        "label": "미용"
    },
    {
        "category_name": "가정,생활 > 미용 > 네일샵",
        "place_name": "브루미네일",
        "label": "미용"
    },
    {
        "category_name": "가정,생활 > 미용 > 미용실 > 에이바헤어",
        "place_name": "에이바헤어 송파나루역점",
        "label": "미용"
    },
    {
        "category_name": "가정,생활 > 미용 > 피부관리 > 세레니끄",
        "place_name": "세레니끄 잠실월드마크점",
        "label": "미용"
    },
    {
        "category_name": "가정,생활 > 미용 > 화장품 > 네이처리퍼블릭",
        "place_name": "네이처리퍼블릭 롯데마트월드타워점",
        "label": "미용"
    },
    {
        "category_name": "가정,생활 > 미용 > 화장품 > 네이처리퍼블릭",
        "place_name": "네이처리퍼블릭 잠실광장점",
        "label": "미용"
    },
    {
        "category_name": "가정,생활 > 미용 > 미용실 > 리안헤어",
        "place_name": "리안헤어 잠실삼전역점",
        "label": "미용"
    },
    {
        "category_name": "가정,생활 > 미용 > 미용실 > 리안헤어",
        "place_name": "리안헤어 잠실나루역점",
        "label": "미용"
    },
    {
        "category_name": "가정,생활 > 미용 > 미용실 > 블루클럽",
        "place_name": "블루클럽 잠실새내역점",
        "label": "미용"
    },
    {
        "category_name": "가정,생활 > 미용 > 미용실 > 모즈토리",
        "place_name": "모즈토리 잠실새내역점",
        "label": "미용"
    },
    {
        "category_name": "가정,생활 > 미용 > 화장품 > 이니스프리",
        "place_name": "이니스프리 롯데마트월드타워점",
        "label": "미용"
    },
    {
        "category_name": "가정,생활 > 미용 > 미용실 > 준오헤어",
        "place_name": "준오헤어 잠실종합운동장사거리점",
        "label": "미용"
    },
    {
        "category_name": "가정,생활 > 미용 > 화장품 > 토니모리",
        "place_name": "토니모리 잠실지하상가점",
        "label": "미용"
    },
    {
        "category_name": "가정,생활 > 미용 > 발관리 > 더풋샵",
        "place_name": "더풋샵 잠실역점",
        "label": "미용"
    },
    {
        "category_name": "가정,생활 > 미용 > 미용실",
        "place_name": "코벨헤어 삼전점",
        "label": "미용"
    },
    {
        "category_name": "가정,생활 > 미용 > 화장품 > 네이처리퍼블릭",
        "place_name": "네이처리퍼블릭 롯데면세점잠실점",
        "label": "미용"
    },
    {
        "category_name": "가정,생활 > 미용 > 네일샵",
        "place_name": "브루미네일",
        "label": "미용"
    },
    {
        "category_name": "가정,생활 > 미용 > 미용실 > 에이바헤어",
        "place_name": "에이바헤어 송파나루역점",
        "label": "미용"
    },
    {
        "category_name": "가정,생활 > 미용 > 피부관리 > 세레니끄",
        "place_name": "세레니끄 잠실월드마크점",
        "label": "미용"
    },
    {
        "category_name": "가정,생활 > 미용 > 화장품 > 네이처리퍼블릭",
        "place_name": "네이처리퍼블릭 롯데마트월드타워점",
        "label": "미용"
    },
    {
        "category_name": "가정,생활 > 미용 > 화장품 > 네이처리퍼블릭",
        "place_name": "네이처리퍼블릭 잠실광장점",
        "label": "미용"
    },
    {
        "category_name": "가정,생활 > 미용 > 미용실 > 리안헤어",
        "place_name": "리안헤어 잠실삼전역점",
        "label": "미용"
    },
    {
        "category_name": "가정,생활 > 미용 > 미용실 > 리안헤어",
        "place_name": "리안헤어 잠실나루역점",
        "label": "미용"
    },
    {
        "category_name": "가정,생활 > 미용 > 미용실 > 블루클럽",
        "place_name": "블루클럽 잠실새내역점",
        "label": "미용"
    },
    {
        "category_name": "가정,생활 > 미용 > 미용실 > 모즈토리",
        "place_name": "모즈토리 잠실새내역점",
        "label": "미용"
    },
    {
        "category_name": "가정,생활 > 미용 > 화장품 > 이니스프리",
        "place_name": "이니스프리 롯데마트월드타워점",
        "label": "미용"
    },
    {
        "category_name": "가정,생활 > 미용 > 미용실 > 준오헤어",
        "place_name": "준오헤어 잠실종합운동장사거리점",
        "label": "미용"
    },
    {
        "category_name": "가정,생활 > 미용 > 화장품 > 토니모리",
        "place_name": "토니모리 잠실지하상가점",
        "label": "미용"
    },
    {
        "category_name": "가정,생활 > 미용 > 발관리 > 더풋샵",
        "place_name": "더풋샵 잠실역점",
        "label": "미용"
    },
    {
        "category_name": "가정,생활 > 미용 > 미용실",
        "place_name": "코벨헤어 삼전점",
        "label": "미용"
    },
    {
        "category_name": "가정,생활 > 미용 > 화장품 > 네이처리퍼블릭",
        "place_name": "네이처리퍼블릭 롯데면세점잠실점",
        "label": "미용"
    },
    {
        "category_name": "가정,생활 > 미용 > 네일샵",
        "place_name": "브루미네일",
        "label": "미용"
    },
    {
        "category_name": "가정,생활 > 미용 > 미용실 > 에이바헤어",
        "place_name": "에이바헤어 송파나루역점",
        "label": "미용"
    },
    {
        "category_name": "가정,생활 > 미용 > 피부관리 > 세레니끄",
        "place_name": "세레니끄 잠실월드마크점",
        "label": "미용"
    },
    {
        "category_name": "가정,생활 > 미용 > 화장품 > 네이처리퍼블릭",
        "place_name": "네이처리퍼블릭 롯데마트월드타워점",
        "label": "미용"
    },
    {
        "category_name": "가정,생활 > 미용 > 화장품 > 네이처리퍼블릭",
        "place_name": "네이처리퍼블릭 잠실광장점",
        "label": "미용"
    },
    {
        "category_name": "가정,생활 > 미용 > 미용실 > 리안헤어",
        "place_name": "리안헤어 잠실삼전역점",
        "label": "미용"
    },
    {
        "category_name": "가정,생활 > 미용 > 미용실 > 리안헤어",
        "place_name": "리안헤어 잠실나루역점",
        "label": "미용"
    },
    {
        "category_name": "가정,생활 > 미용 > 미용실 > 블루클럽",
        "place_name": "블루클럽 잠실새내역점",
        "label": "미용"
    },
    {
        "category_name": "가정,생활 > 미용 > 미용실 > 모즈토리",
        "place_name": "모즈토리 잠실새내역점",
        "label": "미용"
    },
    {
        "category_name": "가정,생활 > 미용 > 화장품 > 이니스프리",
        "place_name": "이니스프리 롯데마트월드타워점",
        "label": "미용"
    },
    {
        "category_name": "가정,생활 > 미용 > 미용실 > 준오헤어",
        "place_name": "준오헤어 잠실종합운동장사거리점",
        "label": "미용"
    },
    {
        "category_name": "가정,생활 > 미용 > 화장품 > 토니모리",
        "place_name": "토니모리 잠실지하상가점",
        "label": "미용"
    },
    {
        "category_name": "가정,생활 > 미용 > 발관리 > 더풋샵",
        "place_name": "더풋샵 잠실역점",
        "label": "미용"
    },
    {
        "category_name": "가정,생활 > 미용 > 미용실",
        "place_name": "코벨헤어 삼전점",
        "label": "미용"
    },
    {
        "category_name": "가정,생활 > 미용 > 화장품 > 네이처리퍼블릭",
        "place_name": "네이처리퍼블릭 롯데면세점잠실점",
        "label": "미용"
    },
    {
        "category_name": "가정,생활 > 미용 > 네일샵",
        "place_name": "브루미네일",
        "label": "미용"
    },
    {
        "category_name": "가정,생활 > 미용 > 미용실 > 에이바헤어",
        "place_name": "에이바헤어 송파나루역점",
        "label": "미용"
    },
    {
        "category_name": "가정,생활 > 미용 > 피부관리 > 세레니끄",
        "place_name": "세레니끄 잠실월드마크점",
        "label": "미용"
    },
    {
        "category_name": "가정,생활 > 미용 > 화장품 > 네이처리퍼블릭",
        "place_name": "네이처리퍼블릭 롯데마트월드타워점",
        "label": "미용"
    },
    {
        "category_name": "가정,생활 > 미용 > 화장품 > 네이처리퍼블릭",
        "place_name": "네이처리퍼블릭 잠실광장점",
        "label": "미용"
    },
    {
        "category_name": "가정,생활 > 미용 > 미용실 > 리안헤어",
        "place_name": "리안헤어 잠실삼전역점",
        "label": "미용"
    },
    {
        "category_name": "가정,생활 > 미용 > 미용실 > 리안헤어",
        "place_name": "리안헤어 잠실나루역점",
        "label": "미용"
    },
    {
        "category_name": "가정,생활 > 미용 > 미용실 > 블루클럽",
        "place_name": "블루클럽 잠실새내역점",
        "label": "미용"
    },
    {
        "category_name": "가정,생활 > 미용 > 미용실 > 모즈토리",
        "place_name": "모즈토리 잠실새내역점",
        "label": "미용"
    },
    {
        "category_name": "가정,생활 > 미용 > 화장품 > 이니스프리",
        "place_name": "이니스프리 롯데마트월드타워점",
        "label": "미용"
    },
    {
        "category_name": "가정,생활 > 미용 > 미용실 > 준오헤어",
        "place_name": "준오헤어 잠실종합운동장사거리점",
        "label": "미용"
    },
    {
        "category_name": "가정,생활 > 미용 > 화장품 > 토니모리",
        "place_name": "토니모리 잠실지하상가점",
        "label": "미용"
    },
    {
        "category_name": "가정,생활 > 미용 > 발관리 > 더풋샵",
        "place_name": "더풋샵 잠실역점",
        "label": "미용"
    },
    {
        "category_name": "가정,생활 > 미용 > 미용실",
        "place_name": "코벨헤어 삼전점",
        "label": "미용"
    },
    {
        "category_name": "가정,생활 > 미용 > 화장품 > 네이처리퍼블릭",
        "place_name": "네이처리퍼블릭 롯데면세점잠실점",
        "label": "미용"
    },
    {
        "category_name": "가정,생활 > 미용 > 네일샵",
        "place_name": "브루미네일",
        "label": "미용"
    },
    {
        "category_name": "가정,생활 > 미용 > 미용실 > 에이바헤어",
        "place_name": "에이바헤어 송파나루역점",
        "label": "미용"
    },
    {
        "category_name": "가정,생활 > 미용 > 피부관리 > 세레니끄",
        "place_name": "세레니끄 잠실월드마크점",
        "label": "미용"
    },
    {
        "category_name": "가정,생활 > 미용 > 화장품 > 네이처리퍼블릭",
        "place_name": "네이처리퍼블릭 롯데마트월드타워점",
        "label": "미용"
    },
    {
        "category_name": "가정,생활 > 미용 > 화장품 > 네이처리퍼블릭",
        "place_name": "네이처리퍼블릭 잠실광장점",
        "label": "미용"
    },
    {
        "category_name": "가정,생활 > 미용 > 미용실 > 리안헤어",
        "place_name": "리안헤어 잠실삼전역점",
        "label": "미용"
    },
    {
        "category_name": "가정,생활 > 미용 > 미용실 > 리안헤어",
        "place_name": "리안헤어 잠실나루역점",
        "label": "미용"
    },
    {
        "category_name": "가정,생활 > 미용 > 미용실 > 블루클럽",
        "place_name": "블루클럽 잠실새내역점",
        "label": "미용"
    },
    {
        "category_name": "가정,생활 > 미용 > 미용실 > 모즈토리",
        "place_name": "모즈토리 잠실새내역점",
        "label": "미용"
    },
    {
        "category_name": "가정,생활 > 미용 > 화장품 > 이니스프리",
        "place_name": "이니스프리 롯데마트월드타워점",
        "label": "미용"
    },
    {
        "category_name": "가정,생활 > 미용 > 미용실 > 준오헤어",
        "place_name": "준오헤어 잠실종합운동장사거리점",
        "label": "미용"
    },
    {
        "category_name": "가정,생활 > 미용 > 화장품 > 토니모리",
        "place_name": "토니모리 잠실지하상가점",
        "label": "미용"
    },
    {
        "category_name": "가정,생활 > 미용 > 발관리 > 더풋샵",
        "place_name": "더풋샵 잠실역점",
        "label": "미용"
    },
    {
        "category_name": "가정,생활 > 미용 > 미용실",
        "place_name": "코벨헤어 삼전점",
        "label": "미용"
    },
    {
        "category_name": "가정,생활 > 미용 > 화장품 > 네이처리퍼블릭",
        "place_name": "네이처리퍼블릭 롯데면세점잠실점",
        "label": "미용"
    },
    {
        "category_name": "가정,생활 > 미용 > 네일샵",
        "place_name": "브루미네일",
        "label": "미용"
    },
    {
        "category_name": "가정,생활 > 미용 > 미용실 > 에이바헤어",
        "place_name": "에이바헤어 송파나루역점",
        "label": "미용"
    },
    {
        "category_name": "가정,생활 > 미용 > 피부관리 > 세레니끄",
        "place_name": "세레니끄 잠실월드마크점",
        "label": "미용"
    },
    {
        "category_name": "가정,생활 > 미용 > 화장품 > 네이처리퍼블릭",
        "place_name": "네이처리퍼블릭 롯데마트월드타워점",
        "label": "미용"
    },
    {
        "category_name": "가정,생활 > 미용 > 화장품 > 네이처리퍼블릭",
        "place_name": "네이처리퍼블릭 잠실광장점",
        "label": "미용"
    },
    {
        "category_name": "가정,생활 > 미용 > 미용실 > 리안헤어",
        "place_name": "리안헤어 잠실삼전역점",
        "label": "미용"
    },
    {
        "category_name": "가정,생활 > 미용 > 미용실 > 리안헤어",
        "place_name": "리안헤어 잠실나루역점",
        "label": "미용"
    },
    {
        "category_name": "가정,생활 > 미용 > 미용실 > 블루클럽",
        "place_name": "블루클럽 잠실새내역점",
        "label": "미용"
    },
    {
        "category_name": "가정,생활 > 미용 > 미용실 > 모즈토리",
        "place_name": "모즈토리 잠실새내역점",
        "label": "미용"
    },
    {
        "category_name": "가정,생활 > 미용 > 화장품 > 이니스프리",
        "place_name": "이니스프리 롯데마트월드타워점",
        "label": "미용"
    },
    {
        "category_name": "가정,생활 > 미용 > 미용실 > 준오헤어",
        "place_name": "준오헤어 잠실종합운동장사거리점",
        "label": "미용"
    },
    {
        "category_name": "가정,생활 > 미용 > 화장품 > 토니모리",
        "place_name": "토니모리 잠실지하상가점",
        "label": "미용"
    },
    {
        "category_name": "가정,생활 > 미용 > 발관리 > 더풋샵",
        "place_name": "더풋샵 잠실역점",
        "label": "미용"
    },
    {
        "category_name": "가정,생활 > 미용 > 미용실",
        "place_name": "코벨헤어 삼전점",
        "label": "미용"
    },
    {
        "category_name": "가정,생활 > 미용 > 화장품 > 네이처리퍼블릭",
        "place_name": "네이처리퍼블릭 롯데면세점잠실점",
        "label": "미용"
    },
    {
        "category_name": "가정,생활 > 미용 > 네일샵",
        "place_name": "브루미네일",
        "label": "미용"
    },
    {
        "category_name": "가정,생활 > 미용 > 미용실 > 에이바헤어",
        "place_name": "에이바헤어 송파나루역점",
        "label": "미용"
    },
    {
        "category_name": "가정,생활 > 미용 > 피부관리 > 세레니끄",
        "place_name": "세레니끄 잠실월드마크점",
        "label": "미용"
    },
    {
        "category_name": "가정,생활 > 미용 > 화장품 > 네이처리퍼블릭",
        "place_name": "네이처리퍼블릭 롯데마트월드타워점",
        "label": "미용"
    },
    {
        "category_name": "가정,생활 > 미용 > 화장품 > 네이처리퍼블릭",
        "place_name": "네이처리퍼블릭 잠실광장점",
        "label": "미용"
    },
    {
        "category_name": "가정,생활 > 미용 > 미용실 > 리안헤어",
        "place_name": "리안헤어 잠실삼전역점",
        "label": "미용"
    },
    {
        "category_name": "가정,생활 > 미용 > 미용실 > 리안헤어",
        "place_name": "리안헤어 잠실나루역점",
        "label": "미용"
    },
    {
        "category_name": "가정,생활 > 미용 > 미용실 > 블루클럽",
        "place_name": "블루클럽 잠실새내역점",
        "label": "미용"
    },
    {
        "category_name": "가정,생활 > 미용 > 미용실 > 모즈토리",
        "place_name": "모즈토리 잠실새내역점",
        "label": "미용"
    },
    {
        "category_name": "가정,생활 > 미용 > 화장품 > 이니스프리",
        "place_name": "이니스프리 롯데마트월드타워점",
        "label": "미용"
    },
    {
        "category_name": "가정,생활 > 미용 > 미용실 > 준오헤어",
        "place_name": "준오헤어 잠실종합운동장사거리점",
        "label": "미용"
    },
    {
        "category_name": "가정,생활 > 미용 > 화장품 > 토니모리",
        "place_name": "토니모리 잠실지하상가점",
        "label": "미용"
    },
    {
        "category_name": "가정,생활 > 미용 > 발관리 > 더풋샵",
        "place_name": "더풋샵 잠실역점",
        "label": "미용"
    },
    {
        "category_name": "가정,생활 > 미용 > 미용실",
        "place_name": "코벨헤어 삼전점",
        "label": "미용"
    },
    {
        "category_name": "가정,생활 > 미용 > 화장품 > 네이처리퍼블릭",
        "place_name": "네이처리퍼블릭 롯데면세점잠실점",
        "label": "미용"
    },
    {
        "category_name": "가정,생활 > 미용 > 네일샵",
        "place_name": "브루미네일",
        "label": "미용"
    },
    {
        "category_name": "가정,생활 > 미용 > 미용실 > 에이바헤어",
        "place_name": "에이바헤어 송파나루역점",
        "label": "미용"
    },
    {
        "category_name": "가정,생활 > 미용 > 피부관리 > 세레니끄",
        "place_name": "세레니끄 잠실월드마크점",
        "label": "미용"
    },
    {
        "category_name": "가정,생활 > 미용 > 화장품 > 네이처리퍼블릭",
        "place_name": "네이처리퍼블릭 롯데마트월드타워점",
        "label": "미용"
    },
    {
        "category_name": "가정,생활 > 미용 > 화장품 > 네이처리퍼블릭",
        "place_name": "네이처리퍼블릭 잠실광장점",
        "label": "미용"
    },
    {
        "category_name": "가정,생활 > 미용 > 미용실 > 리안헤어",
        "place_name": "리안헤어 잠실삼전역점",
        "label": "미용"
    },
    {
        "category_name": "가정,생활 > 미용 > 미용실 > 리안헤어",
        "place_name": "리안헤어 잠실나루역점",
        "label": "미용"
    },
    {
        "category_name": "가정,생활 > 미용 > 미용실 > 블루클럽",
        "place_name": "블루클럽 잠실새내역점",
        "label": "미용"
    },
    {
        "category_name": "가정,생활 > 미용 > 미용실 > 모즈토리",
        "place_name": "모즈토리 잠실새내역점",
        "label": "미용"
    },
    {
        "category_name": "가정,생활 > 미용 > 화장품 > 이니스프리",
        "place_name": "이니스프리 롯데마트월드타워점",
        "label": "미용"
    },
    {
        "category_name": "가정,생활 > 미용 > 미용실 > 준오헤어",
        "place_name": "준오헤어 잠실종합운동장사거리점",
        "label": "미용"
    },
    {
        "category_name": "가정,생활 > 미용 > 화장품 > 토니모리",
        "place_name": "토니모리 잠실지하상가점",
        "label": "미용"
    },
    {
        "category_name": "가정,생활 > 미용 > 발관리 > 더풋샵",
        "place_name": "더풋샵 잠실역점",
        "label": "미용"
    },
    {
        "category_name": "가정,생활 > 미용 > 미용실",
        "place_name": "코벨헤어 삼전점",
        "label": "미용"
    },
    {
        "category_name": "가정,생활 > 미용 > 화장품 > 네이처리퍼블릭",
        "place_name": "네이처리퍼블릭 롯데면세점잠실점",
        "label": "미용"
    },
    {
        "category_name": "가정,생활 > 미용 > 네일샵",
        "place_name": "브루미네일",
        "label": "미용"
    },
    {
        "category_name": "가정,생활 > 미용 > 미용실 > 에이바헤어",
        "place_name": "에이바헤어 송파나루역점",
        "label": "미용"
    },
    {
        "category_name": "가정,생활 > 미용 > 피부관리 > 세레니끄",
        "place_name": "세레니끄 잠실월드마크점",
        "label": "미용"
    },
    {
        "category_name": "가정,생활 > 미용 > 화장품 > 네이처리퍼블릭",
        "place_name": "네이처리퍼블릭 롯데마트월드타워점",
        "label": "미용"
    },
    {
        "category_name": "가정,생활 > 미용 > 화장품 > 네이처리퍼블릭",
        "place_name": "네이처리퍼블릭 잠실광장점",
        "label": "미용"
    },
    {
        "category_name": "가정,생활 > 미용 > 미용실 > 리안헤어",
        "place_name": "리안헤어 잠실삼전역점",
        "label": "미용"
    },
    {
        "category_name": "가정,생활 > 미용 > 미용실 > 리안헤어",
        "place_name": "리안헤어 잠실나루역점",
        "label": "미용"
    },
    {
        "category_name": "가정,생활 > 미용 > 미용실 > 블루클럽",
        "place_name": "블루클럽 잠실새내역점",
        "label": "미용"
    },
    {
        "category_name": "가정,생활 > 미용 > 미용실 > 모즈토리",
        "place_name": "모즈토리 잠실새내역점",
        "label": "미용"
    },
    {
        "category_name": "가정,생활 > 미용 > 화장품 > 이니스프리",
        "place_name": "이니스프리 롯데마트월드타워점",
        "label": "미용"
    },
    {
        "category_name": "가정,생활 > 미용 > 미용실 > 준오헤어",
        "place_name": "준오헤어 잠실종합운동장사거리점",
        "label": "미용"
    },
    {
        "category_name": "가정,생활 > 미용 > 화장품 > 토니모리",
        "place_name": "토니모리 잠실지하상가점",
        "label": "미용"
    },
    {
        "category_name": "가정,생활 > 미용 > 발관리 > 더풋샵",
        "place_name": "더풋샵 잠실역점",
        "label": "미용"
    },
    {
        "category_name": "가정,생활 > 미용 > 미용실",
        "place_name": "코벨헤어 삼전점",
        "label": "미용"
    },
    {
        "category_name": "가정,생활 > 미용 > 화장품 > 네이처리퍼블릭",
        "place_name": "네이처리퍼블릭 롯데면세점잠실점",
        "label": "미용"
    },
    {
        "category_name": "가정,생활 > 미용 > 네일샵",
        "place_name": "브루미네일",
        "label": "미용"
    },
    {
        "category_name": "가정,생활 > 미용 > 미용실 > 에이바헤어",
        "place_name": "에이바헤어 송파나루역점",
        "label": "미용"
    },
    {
        "category_name": "가정,생활 > 미용 > 피부관리 > 세레니끄",
        "place_name": "세레니끄 잠실월드마크점",
        "label": "미용"
    },
    {
        "category_name": "가정,생활 > 미용 > 화장품 > 네이처리퍼블릭",
        "place_name": "네이처리퍼블릭 롯데마트월드타워점",
        "label": "미용"
    },
    {
        "category_name": "가정,생활 > 미용 > 화장품 > 네이처리퍼블릭",
        "place_name": "네이처리퍼블릭 잠실광장점",
        "label": "미용"
    },
    {
        "category_name": "가정,생활 > 미용 > 미용실 > 리안헤어",
        "place_name": "리안헤어 잠실삼전역점",
        "label": "미용"
    },
    {
        "category_name": "가정,생활 > 미용 > 미용실 > 리안헤어",
        "place_name": "리안헤어 잠실나루역점",
        "label": "미용"
    },
    {
        "category_name": "가정,생활 > 미용 > 미용실 > 블루클럽",
        "place_name": "블루클럽 잠실새내역점",
        "label": "미용"
    },
    {
        "category_name": "가정,생활 > 미용 > 미용실 > 모즈토리",
        "place_name": "모즈토리 잠실새내역점",
        "label": "미용"
    },
    {
        "category_name": "가정,생활 > 미용 > 화장품 > 이니스프리",
        "place_name": "이니스프리 롯데마트월드타워점",
        "label": "미용"
    },
    {
        "category_name": "가정,생활 > 미용 > 미용실 > 준오헤어",
        "place_name": "준오헤어 잠실종합운동장사거리점",
        "label": "미용"
    },
    {
        "category_name": "가정,생활 > 미용 > 화장품 > 토니모리",
        "place_name": "토니모리 잠실지하상가점",
        "label": "미용"
    },
    {
        "category_name": "가정,생활 > 미용 > 발관리 > 더풋샵",
        "place_name": "더풋샵 잠실역점",
        "label": "미용"
    },
    {
        "category_name": "가정,생활 > 미용 > 미용실",
        "place_name": "코벨헤어 삼전점",
        "label": "미용"
    },
    {
        "category_name": "가정,생활 > 미용 > 화장품 > 네이처리퍼블릭",
        "place_name": "네이처리퍼블릭 롯데면세점잠실점",
        "label": "미용"
    },
    {
        "category_name": "가정,생활 > 미용 > 네일샵",
        "place_name": "브루미네일",
        "label": "미용"
    },
    {
        "category_name": "가정,생활 > 미용 > 미용실 > 에이바헤어",
        "place_name": "에이바헤어 송파나루역점",
        "label": "미용"
    },
    {
        "category_name": "가정,생활 > 미용 > 피부관리 > 세레니끄",
        "place_name": "세레니끄 잠실월드마크점",
        "label": "미용"
    },
    {
        "category_name": "가정,생활 > 미용 > 화장품 > 네이처리퍼블릭",
        "place_name": "네이처리퍼블릭 롯데마트월드타워점",
        "label": "미용"
    },
    {
        "category_name": "가정,생활 > 미용 > 화장품 > 네이처리퍼블릭",
        "place_name": "네이처리퍼블릭 잠실광장점",
        "label": "미용"
    },
    {
        "category_name": "가정,생활 > 미용 > 미용실 > 리안헤어",
        "place_name": "리안헤어 잠실삼전역점",
        "label": "미용"
    },
    {
        "category_name": "가정,생활 > 미용 > 미용실 > 리안헤어",
        "place_name": "리안헤어 잠실나루역점",
        "label": "미용"
    },
    {
        "category_name": "가정,생활 > 미용 > 미용실 > 블루클럽",
        "place_name": "블루클럽 잠실새내역점",
        "label": "미용"
    },
    {
        "category_name": "가정,생활 > 미용 > 미용실 > 모즈토리",
        "place_name": "모즈토리 잠실새내역점",
        "label": "미용"
    },
    {
        "category_name": "가정,생활 > 미용 > 화장품 > 이니스프리",
        "place_name": "이니스프리 롯데마트월드타워점",
        "label": "미용"
    },
    {
        "category_name": "가정,생활 > 미용 > 미용실 > 준오헤어",
        "place_name": "준오헤어 잠실종합운동장사거리점",
        "label": "미용"
    },
    {
        "category_name": "가정,생활 > 미용 > 화장품 > 토니모리",
        "place_name": "토니모리 잠실지하상가점",
        "label": "미용"
    },
    {
        "category_name": "가정,생활 > 미용 > 발관리 > 더풋샵",
        "place_name": "더풋샵 잠실역점",
        "label": "미용"
    },
    {
        "category_name": "가정,생활 > 미용 > 미용실",
        "place_name": "코벨헤어 삼전점",
        "label": "미용"
    },
    {
        "category_name": "가정,생활 > 미용 > 화장품 > 네이처리퍼블릭",
        "place_name": "네이처리퍼블릭 롯데면세점잠실점",
        "label": "미용"
    },
    {
        "category_name": "가정,생활 > 미용 > 네일샵",
        "place_name": "브루미네일",
        "label": "미용"
    },
    {
        "category_name": "가정,생활 > 미용 > 미용실 > 에이바헤어",
        "place_name": "에이바헤어 송파나루역점",
        "label": "미용"
    },
    {
        "category_name": "가정,생활 > 미용 > 피부관리 > 세레니끄",
        "place_name": "세레니끄 잠실월드마크점",
        "label": "미용"
    },
    {
        "category_name": "가정,생활 > 미용 > 화장품 > 네이처리퍼블릭",
        "place_name": "네이처리퍼블릭 롯데마트월드타워점",
        "label": "미용"
    },
    {
        "category_name": "가정,생활 > 미용 > 화장품 > 네이처리퍼블릭",
        "place_name": "네이처리퍼블릭 잠실광장점",
        "label": "미용"
    },
    {
        "category_name": "가정,생활 > 미용 > 미용실 > 리안헤어",
        "place_name": "리안헤어 잠실삼전역점",
        "label": "미용"
    },
    {
        "category_name": "가정,생활 > 미용 > 미용실 > 리안헤어",
        "place_name": "리안헤어 잠실나루역점",
        "label": "미용"
    },
    {
        "category_name": "가정,생활 > 미용 > 미용실 > 블루클럽",
        "place_name": "블루클럽 잠실새내역점",
        "label": "미용"
    },
    {
        "category_name": "가정,생활 > 미용 > 미용실 > 모즈토리",
        "place_name": "모즈토리 잠실새내역점",
        "label": "미용"
    },
    {
        "category_name": "가정,생활 > 미용 > 화장품 > 이니스프리",
        "place_name": "이니스프리 롯데마트월드타워점",
        "label": "미용"
    },
    {
        "category_name": "가정,생활 > 미용 > 미용실 > 준오헤어",
        "place_name": "준오헤어 잠실종합운동장사거리점",
        "label": "미용"
    },
    {
        "category_name": "가정,생활 > 미용 > 화장품 > 토니모리",
        "place_name": "토니모리 잠실지하상가점",
        "label": "미용"
    },
    {
        "category_name": "가정,생활 > 미용 > 발관리 > 더풋샵",
        "place_name": "더풋샵 잠실역점",
        "label": "미용"
    },
    {
        "category_name": "가정,생활 > 미용 > 미용실",
        "place_name": "코벨헤어 삼전점",
        "label": "미용"
    },
    {
        "category_name": "가정,생활 > 미용 > 화장품 > 네이처리퍼블릭",
        "place_name": "네이처리퍼블릭 롯데면세점잠실점",
        "label": "미용"
    },
    {
        "category_name": "가정,생활 > 미용 > 네일샵",
        "place_name": "브루미네일",
        "label": "미용"
    },
    {
        "category_name": "가정,생활 > 미용 > 미용실 > 에이바헤어",
        "place_name": "에이바헤어 송파나루역점",
        "label": "미용"
    },
    {
        "category_name": "가정,생활 > 미용 > 피부관리 > 세레니끄",
        "place_name": "세레니끄 잠실월드마크점",
        "label": "미용"
    },
    {
        "category_name": "가정,생활 > 미용 > 화장품 > 네이처리퍼블릭",
        "place_name": "네이처리퍼블릭 롯데마트월드타워점",
        "label": "미용"
    },
    {
        "category_name": "가정,생활 > 미용 > 화장품 > 네이처리퍼블릭",
        "place_name": "네이처리퍼블릭 잠실광장점",
        "label": "미용"
    },
    {
        "category_name": "가정,생활 > 미용 > 미용실 > 리안헤어",
        "place_name": "리안헤어 잠실삼전역점",
        "label": "미용"
    },
    {
        "category_name": "가정,생활 > 미용 > 미용실 > 리안헤어",
        "place_name": "리안헤어 잠실나루역점",
        "label": "미용"
    },
    {
        "category_name": "가정,생활 > 미용 > 미용실 > 블루클럽",
        "place_name": "블루클럽 잠실새내역점",
        "label": "미용"
    },
    {
        "category_name": "가정,생활 > 미용 > 미용실 > 모즈토리",
        "place_name": "모즈토리 잠실새내역점",
        "label": "미용"
    },
    {
        "category_name": "가정,생활 > 미용 > 화장품 > 이니스프리",
        "place_name": "이니스프리 롯데마트월드타워점",
        "label": "미용"
    },
    {
        "category_name": "가정,생활 > 미용 > 미용실 > 준오헤어",
        "place_name": "준오헤어 잠실종합운동장사거리점",
        "label": "미용"
    },
    {
        "category_name": "가정,생활 > 미용 > 화장품 > 토니모리",
        "place_name": "토니모리 잠실지하상가점",
        "label": "미용"
    },
    {
        "category_name": "가정,생활 > 미용 > 발관리 > 더풋샵",
        "place_name": "더풋샵 잠실역점",
        "label": "미용"
    },
    {
        "category_name": "가정,생활 > 미용 > 미용실",
        "place_name": "코벨헤어 삼전점",
        "label": "미용"
    },
    {
        "category_name": "가정,생활 > 미용 > 화장품 > 네이처리퍼블릭",
        "place_name": "네이처리퍼블릭 롯데면세점잠실점",
        "label": "미용"
    },
    {
        "category_name": "가정,생활 > 미용 > 네일샵",
        "place_name": "브루미네일",
        "label": "미용"
    },
    {
        "category_name": "가정,생활 > 미용 > 미용실 > 에이바헤어",
        "place_name": "에이바헤어 송파나루역점",
        "label": "미용"
    },
    {
        "category_name": "가정,생활 > 미용 > 피부관리 > 세레니끄",
        "place_name": "세레니끄 잠실월드마크점",
        "label": "미용"
    },
    {
        "category_name": "가정,생활 > 미용 > 화장품 > 네이처리퍼블릭",
        "place_name": "네이처리퍼블릭 롯데마트월드타워점",
        "label": "미용"
    },
    {
        "category_name": "가정,생활 > 미용 > 화장품 > 네이처리퍼블릭",
        "place_name": "네이처리퍼블릭 잠실광장점",
        "label": "미용"
    },
    {
        "category_name": "가정,생활 > 미용 > 미용실 > 리안헤어",
        "place_name": "리안헤어 잠실삼전역점",
        "label": "미용"
    },
    {
        "category_name": "가정,생활 > 미용 > 미용실 > 리안헤어",
        "place_name": "리안헤어 잠실나루역점",
        "label": "미용"
    },
    {
        "category_name": "가정,생활 > 미용 > 미용실 > 블루클럽",
        "place_name": "블루클럽 잠실새내역점",
        "label": "미용"
    },
    {
        "category_name": "가정,생활 > 미용 > 미용실 > 모즈토리",
        "place_name": "모즈토리 잠실새내역점",
        "label": "미용"
    },
    {
        "category_name": "가정,생활 > 미용 > 화장품 > 이니스프리",
        "place_name": "이니스프리 롯데마트월드타워점",
        "label": "미용"
    },
    {
        "category_name": "가정,생활 > 미용 > 미용실 > 준오헤어",
        "place_name": "준오헤어 잠실종합운동장사거리점",
        "label": "미용"
    },
    {
        "category_name": "가정,생활 > 미용 > 화장품 > 토니모리",
        "place_name": "토니모리 잠실지하상가점",
        "label": "미용"
    },
    {
        "category_name": "가정,생활 > 미용 > 발관리 > 더풋샵",
        "place_name": "더풋샵 잠실역점",
        "label": "미용"
    },
    {
        "category_name": "가정,생활 > 미용 > 미용실",
        "place_name": "코벨헤어 삼전점",
        "label": "미용"
    },
    {
        "category_name": "가정,생활 > 미용 > 화장품 > 네이처리퍼블릭",
        "place_name": "네이처리퍼블릭 롯데면세점잠실점",
        "label": "미용"
    },
    {
        "category_name": "가정,생활 > 미용 > 네일샵",
        "place_name": "브루미네일",
        "label": "미용"
    },
    {
        "category_name": "가정,생활 > 미용 > 미용실 > 에이바헤어",
        "place_name": "에이바헤어 송파나루역점",
        "label": "미용"
    },
    {
        "category_name": "가정,생활 > 미용 > 피부관리 > 세레니끄",
        "place_name": "세레니끄 잠실월드마크점",
        "label": "미용"
    },
    {
        "category_name": "가정,생활 > 미용 > 화장품 > 네이처리퍼블릭",
        "place_name": "네이처리퍼블릭 롯데마트월드타워점",
        "label": "미용"
    },
    {
        "category_name": "가정,생활 > 미용 > 화장품 > 네이처리퍼블릭",
        "place_name": "네이처리퍼블릭 잠실광장점",
        "label": "미용"
    },
    {
        "category_name": "가정,생활 > 미용 > 미용실 > 리안헤어",
        "place_name": "리안헤어 잠실삼전역점",
        "label": "미용"
    },
    {
        "category_name": "가정,생활 > 미용 > 미용실 > 리안헤어",
        "place_name": "리안헤어 잠실나루역점",
        "label": "미용"
    },
    {
        "category_name": "가정,생활 > 미용 > 미용실 > 블루클럽",
        "place_name": "블루클럽 잠실새내역점",
        "label": "미용"
    },
    {
        "category_name": "가정,생활 > 미용 > 미용실 > 모즈토리",
        "place_name": "모즈토리 잠실새내역점",
        "label": "미용"
    },
    {
        "category_name": "가정,생활 > 미용 > 화장품 > 이니스프리",
        "place_name": "이니스프리 롯데마트월드타워점",
        "label": "미용"
    },
    {
        "category_name": "가정,생활 > 미용 > 미용실 > 준오헤어",
        "place_name": "준오헤어 잠실종합운동장사거리점",
        "label": "미용"
    },
    {
        "category_name": "가정,생활 > 미용 > 화장품 > 토니모리",
        "place_name": "토니모리 잠실지하상가점",
        "label": "미용"
    },
    {
        "category_name": "가정,생활 > 미용 > 발관리 > 더풋샵",
        "place_name": "더풋샵 잠실역점",
        "label": "미용"
    },
    {
        "category_name": "가정,생활 > 미용 > 미용실",
        "place_name": "코벨헤어 삼전점",
        "label": "미용"
    },
    {
        "category_name": "가정,생활 > 미용 > 화장품 > 네이처리퍼블릭",
        "place_name": "네이처리퍼블릭 롯데면세점잠실점",
        "label": "미용"
    },
    {
        "category_name": "가정,생활 > 미용 > 네일샵",
        "place_name": "브루미네일",
        "label": "미용"
    },
    {
        "category_name": "가정,생활 > 미용 > 미용실 > 에이바헤어",
        "place_name": "에이바헤어 송파나루역점",
        "label": "미용"
    },
    {
        "category_name": "가정,생활 > 미용 > 피부관리 > 세레니끄",
        "place_name": "세레니끄 잠실월드마크점",
        "label": "미용"
    },
    {
        "category_name": "가정,생활 > 미용 > 화장품 > 네이처리퍼블릭",
        "place_name": "네이처리퍼블릭 롯데마트월드타워점",
        "label": "미용"
    },
    {
        "category_name": "가정,생활 > 미용 > 화장품 > 네이처리퍼블릭",
        "place_name": "네이처리퍼블릭 잠실광장점",
        "label": "미용"
    },
    {
        "category_name": "가정,생활 > 미용 > 미용실 > 리안헤어",
        "place_name": "리안헤어 잠실삼전역점",
        "label": "미용"
    },
    {
        "category_name": "가정,생활 > 미용 > 미용실 > 리안헤어",
        "place_name": "리안헤어 잠실나루역점",
        "label": "미용"
    },
    {
        "category_name": "가정,생활 > 미용 > 미용실 > 블루클럽",
        "place_name": "블루클럽 잠실새내역점",
        "label": "미용"
    },
    {
        "category_name": "가정,생활 > 미용 > 미용실 > 모즈토리",
        "place_name": "모즈토리 잠실새내역점",
        "label": "미용"
    },
    {
        "category_name": "가정,생활 > 미용 > 화장품 > 이니스프리",
        "place_name": "이니스프리 롯데마트월드타워점",
        "label": "미용"
    },
    {
        "category_name": "가정,생활 > 미용 > 미용실 > 준오헤어",
        "place_name": "준오헤어 잠실종합운동장사거리점",
        "label": "미용"
    },
    {
        "category_name": "가정,생활 > 미용 > 화장품 > 토니모리",
        "place_name": "토니모리 잠실지하상가점",
        "label": "미용"
    },
    {
        "category_name": "가정,생활 > 미용 > 발관리 > 더풋샵",
        "place_name": "더풋샵 잠실역점",
        "label": "미용"
    },
    {
        "category_name": "가정,생활 > 미용 > 미용실",
        "place_name": "코벨헤어 삼전점",
        "label": "미용"
    },
    {
        "category_name": "가정,생활 > 미용 > 화장품 > 네이처리퍼블릭",
        "place_name": "네이처리퍼블릭 롯데면세점잠실점",
        "label": "미용"
    },
    {
        "category_name": "가정,생활 > 미용 > 네일샵",
        "place_name": "브루미네일",
        "label": "미용"
    },
    {
        "category_name": "가정,생활 > 미용 > 미용실 > 에이바헤어",
        "place_name": "에이바헤어 송파나루역점",
        "label": "미용"
    },
    {
        "category_name": "가정,생활 > 미용 > 피부관리 > 세레니끄",
        "place_name": "세레니끄 잠실월드마크점",
        "label": "미용"
    },
    {
        "category_name": "가정,생활 > 미용 > 화장품 > 네이처리퍼블릭",
        "place_name": "네이처리퍼블릭 롯데마트월드타워점",
        "label": "미용"
    },
    {
        "category_name": "가정,생활 > 미용 > 화장품 > 네이처리퍼블릭",
        "place_name": "네이처리퍼블릭 잠실광장점",
        "label": "미용"
    },
    {
        "category_name": "가정,생활 > 미용 > 미용실 > 리안헤어",
        "place_name": "리안헤어 잠실삼전역점",
        "label": "미용"
    },
    {
        "category_name": "가정,생활 > 미용 > 미용실 > 리안헤어",
        "place_name": "리안헤어 잠실나루역점",
        "label": "미용"
    },
    {
        "category_name": "가정,생활 > 미용 > 미용실 > 블루클럽",
        "place_name": "블루클럽 잠실새내역점",
        "label": "미용"
    },
    {
        "category_name": "가정,생활 > 미용 > 미용실 > 모즈토리",
        "place_name": "모즈토리 잠실새내역점",
        "label": "미용"
    },
    {
        "category_name": "가정,생활 > 미용 > 화장품 > 이니스프리",
        "place_name": "이니스프리 롯데마트월드타워점",
        "label": "미용"
    },
    {
        "category_name": "가정,생활 > 미용 > 미용실 > 준오헤어",
        "place_name": "준오헤어 잠실종합운동장사거리점",
        "label": "미용"
    },
    {
        "category_name": "가정,생활 > 미용 > 화장품 > 토니모리",
        "place_name": "토니모리 잠실지하상가점",
        "label": "미용"
    },
    {
        "category_name": "가정,생활 > 미용 > 발관리 > 더풋샵",
        "place_name": "더풋샵 잠실역점",
        "label": "미용"
    },
    {
        "category_name": "가정,생활 > 미용 > 미용실",
        "place_name": "코벨헤어 삼전점",
        "label": "미용"
    },
    {
        "category_name": "가정,생활 > 미용 > 화장품 > 네이처리퍼블릭",
        "place_name": "네이처리퍼블릭 롯데면세점잠실점",
        "label": "미용"
    },
    {
        "category_name": "가정,생활 > 미용 > 네일샵",
        "place_name": "브루미네일",
        "label": "미용"
    },
    {
        "category_name": "가정,생활 > 미용 > 미용실 > 에이바헤어",
        "place_name": "에이바헤어 송파나루역점",
        "label": "미용"
    },
    {
        "category_name": "가정,생활 > 미용 > 피부관리 > 세레니끄",
        "place_name": "세레니끄 잠실월드마크점",
        "label": "미용"
    },
    {
        "category_name": "가정,생활 > 미용 > 화장품 > 네이처리퍼블릭",
        "place_name": "네이처리퍼블릭 롯데마트월드타워점",
        "label": "미용"
    },
    {
        "category_name": "가정,생활 > 미용 > 화장품 > 네이처리퍼블릭",
        "place_name": "네이처리퍼블릭 잠실광장점",
        "label": "미용"
    },
    {
        "category_name": "가정,생활 > 미용 > 미용실 > 리안헤어",
        "place_name": "리안헤어 잠실삼전역점",
        "label": "미용"
    },
    {
        "category_name": "가정,생활 > 미용 > 미용실 > 리안헤어",
        "place_name": "리안헤어 잠실나루역점",
        "label": "미용"
    },
    {
        "category_name": "가정,생활 > 미용 > 미용실 > 블루클럽",
        "place_name": "블루클럽 잠실새내역점",
        "label": "미용"
    },
    {
        "category_name": "가정,생활 > 미용 > 미용실 > 모즈토리",
        "place_name": "모즈토리 잠실새내역점",
        "label": "미용"
    },
    {
        "category_name": "가정,생활 > 미용 > 화장품 > 이니스프리",
        "place_name": "이니스프리 롯데마트월드타워점",
        "label": "미용"
    },
    {
        "category_name": "가정,생활 > 미용 > 미용실 > 준오헤어",
        "place_name": "준오헤어 잠실종합운동장사거리점",
        "label": "미용"
    },
    {
        "category_name": "가정,생활 > 미용 > 화장품 > 토니모리",
        "place_name": "토니모리 잠실지하상가점",
        "label": "미용"
    },
    {
        "category_name": "가정,생활 > 미용 > 발관리 > 더풋샵",
        "place_name": "더풋샵 잠실역점",
        "label": "미용"
    },
    {
        "category_name": "가정,생활 > 미용 > 미용실",
        "place_name": "코벨헤어 삼전점",
        "label": "미용"
    },
    {
        "category_name": "가정,생활 > 미용 > 화장품 > 네이처리퍼블릭",
        "place_name": "네이처리퍼블릭 롯데면세점잠실점",
        "label": "미용"
    },
    {
        "category_name": "가정,생활 > 미용 > 네일샵",
        "place_name": "브루미네일",
        "label": "미용"
    },
    {
        "category_name": "가정,생활 > 미용 > 미용실 > 에이바헤어",
        "place_name": "에이바헤어 송파나루역점",
        "label": "미용"
    },
    {
        "category_name": "가정,생활 > 미용 > 피부관리 > 세레니끄",
        "place_name": "세레니끄 잠실월드마크점",
        "label": "미용"
    },
    {
        "category_name": "가정,생활 > 미용 > 화장품 > 네이처리퍼블릭",
        "place_name": "네이처리퍼블릭 롯데마트월드타워점",
        "label": "미용"
    },
    {
        "category_name": "가정,생활 > 미용 > 화장품 > 네이처리퍼블릭",
        "place_name": "네이처리퍼블릭 잠실광장점",
        "label": "미용"
    },
    {
        "category_name": "가정,생활 > 미용 > 미용실 > 리안헤어",
        "place_name": "리안헤어 잠실삼전역점",
        "label": "미용"
    },
    {
        "category_name": "가정,생활 > 미용 > 미용실 > 리안헤어",
        "place_name": "리안헤어 잠실나루역점",
        "label": "미용"
    },
    {
        "category_name": "가정,생활 > 미용 > 미용실 > 블루클럽",
        "place_name": "블루클럽 잠실새내역점",
        "label": "미용"
    },
    {
        "category_name": "가정,생활 > 미용 > 미용실 > 모즈토리",
        "place_name": "모즈토리 잠실새내역점",
        "label": "미용"
    },
    {
        "category_name": "가정,생활 > 미용 > 화장품 > 이니스프리",
        "place_name": "이니스프리 롯데마트월드타워점",
        "label": "미용"
    },
    {
        "category_name": "가정,생활 > 미용 > 미용실 > 준오헤어",
        "place_name": "준오헤어 잠실종합운동장사거리점",
        "label": "미용"
    },
    {
        "category_name": "가정,생활 > 미용 > 화장품 > 토니모리",
        "place_name": "토니모리 잠실지하상가점",
        "label": "미용"
    },
    {
        "category_name": "가정,생활 > 미용 > 발관리 > 더풋샵",
        "place_name": "더풋샵 잠실역점",
        "label": "미용"
    },
    {
        "category_name": "가정,생활 > 미용 > 미용실",
        "place_name": "코벨헤어 삼전점",
        "label": "미용"
    },
    {
        "category_name": "가정,생활 > 미용 > 화장품 > 네이처리퍼블릭",
        "place_name": "네이처리퍼블릭 롯데면세점잠실점",
        "label": "미용"
    },
    {
        "category_name": "가정,생활 > 미용 > 네일샵",
        "place_name": "브루미네일",
        "label": "미용"
    },
    {
        "category_name": "가정,생활 > 미용 > 미용실 > 에이바헤어",
        "place_name": "에이바헤어 송파나루역점",
        "label": "미용"
    },
    {
        "category_name": "가정,생활 > 미용 > 피부관리 > 세레니끄",
        "place_name": "세레니끄 잠실월드마크점",
        "label": "미용"
    },
    {
        "category_name": "가정,생활 > 미용 > 화장품 > 네이처리퍼블릭",
        "place_name": "네이처리퍼블릭 롯데마트월드타워점",
        "label": "미용"
    },
    {
        "category_name": "가정,생활 > 미용 > 화장품 > 네이처리퍼블릭",
        "place_name": "네이처리퍼블릭 잠실광장점",
        "label": "미용"
    },
    {
        "category_name": "가정,생활 > 미용 > 미용실 > 리안헤어",
        "place_name": "리안헤어 잠실삼전역점",
        "label": "미용"
    },
    {
        "category_name": "가정,생활 > 미용 > 미용실 > 리안헤어",
        "place_name": "리안헤어 잠실나루역점",
        "label": "미용"
    },
    {
        "category_name": "가정,생활 > 미용 > 미용실 > 블루클럽",
        "place_name": "블루클럽 잠실새내역점",
        "label": "미용"
    },
    {
        "category_name": "가정,생활 > 미용 > 미용실 > 모즈토리",
        "place_name": "모즈토리 잠실새내역점",
        "label": "미용"
    },
    {
        "category_name": "가정,생활 > 미용 > 화장품 > 이니스프리",
        "place_name": "이니스프리 롯데마트월드타워점",
        "label": "미용"
    },
    {
        "category_name": "가정,생활 > 미용 > 미용실 > 준오헤어",
        "place_name": "준오헤어 잠실종합운동장사거리점",
        "label": "미용"
    },
    {
        "category_name": "가정,생활 > 미용 > 화장품 > 토니모리",
        "place_name": "토니모리 잠실지하상가점",
        "label": "미용"
    },
    {
        "category_name": "가정,생활 > 미용 > 발관리 > 더풋샵",
        "place_name": "더풋샵 잠실역점",
        "label": "미용"
    },
    {
        "category_name": "가정,생활 > 미용 > 미용실",
        "place_name": "코벨헤어 삼전점",
        "label": "미용"
    },
    {
        "category_name": "가정,생활 > 미용 > 화장품 > 네이처리퍼블릭",
        "place_name": "네이처리퍼블릭 롯데면세점잠실점",
        "label": "미용"
    },
    {
        "category_name": "가정,생활 > 미용 > 네일샵",
        "place_name": "브루미네일",
        "label": "미용"
    },
    {
        "category_name": "가정,생활 > 미용 > 미용실 > 에이바헤어",
        "place_name": "에이바헤어 송파나루역점",
        "label": "미용"
    },
    {
        "category_name": "가정,생활 > 미용 > 피부관리 > 세레니끄",
        "place_name": "세레니끄 잠실월드마크점",
        "label": "미용"
    },
    {
        "category_name": "가정,생활 > 미용 > 화장품 > 네이처리퍼블릭",
        "place_name": "네이처리퍼블릭 롯데마트월드타워점",
        "label": "미용"
    },
    {
        "category_name": "가정,생활 > 미용 > 화장품 > 네이처리퍼블릭",
        "place_name": "네이처리퍼블릭 잠실광장점",
        "label": "미용"
    },
    {
        "category_name": "가정,생활 > 미용 > 미용실 > 리안헤어",
        "place_name": "리안헤어 잠실삼전역점",
        "label": "미용"
    },
    {
        "category_name": "가정,생활 > 미용 > 미용실 > 리안헤어",
        "place_name": "리안헤어 잠실나루역점",
        "label": "미용"
    },
    {
        "category_name": "가정,생활 > 미용 > 미용실 > 블루클럽",
        "place_name": "블루클럽 잠실새내역점",
        "label": "미용"
    },
    {
        "category_name": "가정,생활 > 미용 > 미용실 > 모즈토리",
        "place_name": "모즈토리 잠실새내역점",
        "label": "미용"
    },
    {
        "category_name": "가정,생활 > 미용 > 화장품 > 이니스프리",
        "place_name": "이니스프리 롯데마트월드타워점",
        "label": "미용"
    },
    {
        "category_name": "가정,생활 > 미용 > 미용실 > 준오헤어",
        "place_name": "준오헤어 잠실종합운동장사거리점",
        "label": "미용"
    },
    {
        "category_name": "가정,생활 > 미용 > 화장품 > 토니모리",
        "place_name": "토니모리 잠실지하상가점",
        "label": "미용"
    },
    {
        "category_name": "가정,생활 > 미용 > 발관리 > 더풋샵",
        "place_name": "더풋샵 잠실역점",
        "label": "미용"
    },
    {
        "category_name": "가정,생활 > 미용 > 미용실",
        "place_name": "코벨헤어 삼전점",
        "label": "미용"
    },
    {
        "category_name": "가정,생활 > 미용 > 화장품 > 네이처리퍼블릭",
        "place_name": "네이처리퍼블릭 롯데면세점잠실점",
        "label": "미용"
    },
    {
        "category_name": "가정,생활 > 미용 > 네일샵",
        "place_name": "브루미네일",
        "label": "미용"
    },
    {
        "category_name": "가정,생활 > 미용 > 미용실 > 에이바헤어",
        "place_name": "에이바헤어 송파나루역점",
        "label": "미용"
    },
    {
        "category_name": "가정,생활 > 미용 > 피부관리 > 세레니끄",
        "place_name": "세레니끄 잠실월드마크점",
        "label": "미용"
    },
    {
        "category_name": "가정,생활 > 미용 > 화장품 > 네이처리퍼블릭",
        "place_name": "네이처리퍼블릭 롯데마트월드타워점",
        "label": "미용"
    },
    {
        "category_name": "가정,생활 > 미용 > 화장품 > 네이처리퍼블릭",
        "place_name": "네이처리퍼블릭 잠실광장점",
        "label": "미용"
    },
    {
        "category_name": "가정,생활 > 미용 > 미용실 > 리안헤어",
        "place_name": "리안헤어 잠실삼전역점",
        "label": "미용"
    },
    {
        "category_name": "가정,생활 > 미용 > 미용실 > 리안헤어",
        "place_name": "리안헤어 잠실나루역점",
        "label": "미용"
    },
    {
        "category_name": "가정,생활 > 미용 > 미용실 > 블루클럽",
        "place_name": "블루클럽 잠실새내역점",
        "label": "미용"
    },
    {
        "category_name": "가정,생활 > 미용 > 미용실 > 모즈토리",
        "place_name": "모즈토리 잠실새내역점",
        "label": "미용"
    },
    {
        "category_name": "가정,생활 > 미용 > 화장품 > 이니스프리",
        "place_name": "이니스프리 롯데마트월드타워점",
        "label": "미용"
    },
    {
        "category_name": "가정,생활 > 미용 > 미용실 > 준오헤어",
        "place_name": "준오헤어 잠실종합운동장사거리점",
        "label": "미용"
    },
    {
        "category_name": "가정,생활 > 미용 > 화장품 > 토니모리",
        "place_name": "토니모리 잠실지하상가점",
        "label": "미용"
    },
    {
        "category_name": "가정,생활 > 미용 > 발관리 > 더풋샵",
        "place_name": "더풋샵 잠실역점",
        "label": "미용"
    },
    {
        "category_name": "가정,생활 > 미용 > 미용실",
        "place_name": "코벨헤어 삼전점",
        "label": "미용"
    },
    {
        "category_name": "가정,생활 > 미용 > 화장품 > 네이처리퍼블릭",
        "place_name": "네이처리퍼블릭 롯데면세점잠실점",
        "label": "미용"
    },
    {
        "category_name": "가정,생활 > 미용 > 네일샵",
        "place_name": "브루미네일",
        "label": "미용"
    },
    {
        "category_name": "가정,생활 > 미용 > 미용실 > 에이바헤어",
        "place_name": "에이바헤어 송파나루역점",
        "label": "미용"
    },
    {
        "category_name": "가정,생활 > 미용 > 피부관리 > 세레니끄",
        "place_name": "세레니끄 잠실월드마크점",
        "label": "미용"
    },
    {
        "category_name": "가정,생활 > 미용 > 화장품 > 네이처리퍼블릭",
        "place_name": "네이처리퍼블릭 롯데마트월드타워점",
        "label": "미용"
    },
    {
        "category_name": "가정,생활 > 미용 > 화장품 > 네이처리퍼블릭",
        "place_name": "네이처리퍼블릭 잠실광장점",
        "label": "미용"
    },
    {
        "category_name": "가정,생활 > 미용 > 미용실 > 리안헤어",
        "place_name": "리안헤어 잠실삼전역점",
        "label": "미용"
    },
    {
        "category_name": "가정,생활 > 미용 > 미용실 > 리안헤어",
        "place_name": "리안헤어 잠실나루역점",
        "label": "미용"
    },
    {
        "category_name": "가정,생활 > 미용 > 미용실 > 블루클럽",
        "place_name": "블루클럽 잠실새내역점",
        "label": "미용"
    },
    {
        "category_name": "가정,생활 > 미용 > 미용실 > 모즈토리",
        "place_name": "모즈토리 잠실새내역점",
        "label": "미용"
    },
    {
        "category_name": "가정,생활 > 미용 > 화장품 > 이니스프리",
        "place_name": "이니스프리 롯데마트월드타워점",
        "label": "미용"
    },
    {
        "category_name": "가정,생활 > 미용 > 미용실 > 준오헤어",
        "place_name": "준오헤어 잠실종합운동장사거리점",
        "label": "미용"
    },
    {
        "category_name": "가정,생활 > 미용 > 화장품 > 토니모리",
        "place_name": "토니모리 잠실지하상가점",
        "label": "미용"
    },
    {
        "category_name": "가정,생활 > 미용 > 발관리 > 더풋샵",
        "place_name": "더풋샵 잠실역점",
        "label": "미용"
    },
    {
        "category_name": "가정,생활 > 미용 > 미용실",
        "place_name": "코벨헤어 삼전점",
        "label": "미용"
    },
    {
        "category_name": "가정,생활 > 미용 > 화장품 > 네이처리퍼블릭",
        "place_name": "네이처리퍼블릭 롯데면세점잠실점",
        "label": "미용"
    },
    {
        "category_name": "가정,생활 > 미용 > 네일샵",
        "place_name": "브루미네일",
        "label": "미용"
    },
    {
        "category_name": "가정,생활 > 미용 > 미용실 > 에이바헤어",
        "place_name": "에이바헤어 송파나루역점",
        "label": "미용"
    },
    {
        "category_name": "가정,생활 > 미용 > 피부관리 > 세레니끄",
        "place_name": "세레니끄 잠실월드마크점",
        "label": "미용"
    },
    {
        "category_name": "가정,생활 > 미용 > 화장품 > 네이처리퍼블릭",
        "place_name": "네이처리퍼블릭 롯데마트월드타워점",
        "label": "미용"
    },
    {
        "category_name": "가정,생활 > 미용 > 화장품 > 네이처리퍼블릭",
        "place_name": "네이처리퍼블릭 잠실광장점",
        "label": "미용"
    },
    {
        "category_name": "가정,생활 > 미용 > 미용실 > 리안헤어",
        "place_name": "리안헤어 잠실삼전역점",
        "label": "미용"
    },
    {
        "category_name": "가정,생활 > 미용 > 미용실 > 리안헤어",
        "place_name": "리안헤어 잠실나루역점",
        "label": "미용"
    },
    {
        "category_name": "가정,생활 > 미용 > 미용실 > 블루클럽",
        "place_name": "블루클럽 잠실새내역점",
        "label": "미용"
    },
    {
        "category_name": "가정,생활 > 미용 > 미용실 > 모즈토리",
        "place_name": "모즈토리 잠실새내역점",
        "label": "미용"
    },
    {
        "category_name": "가정,생활 > 미용 > 화장품 > 이니스프리",
        "place_name": "이니스프리 롯데마트월드타워점",
        "label": "미용"
    },
    {
        "category_name": "가정,생활 > 미용 > 미용실 > 준오헤어",
        "place_name": "준오헤어 잠실종합운동장사거리점",
        "label": "미용"
    },
    {
        "category_name": "가정,생활 > 미용 > 화장품 > 토니모리",
        "place_name": "토니모리 잠실지하상가점",
        "label": "미용"
    },
    {
        "category_name": "가정,생활 > 미용 > 발관리 > 더풋샵",
        "place_name": "더풋샵 잠실역점",
        "label": "미용"
    },
    {
        "category_name": "가정,생활 > 미용 > 미용실",
        "place_name": "코벨헤어 삼전점",
        "label": "미용"
    },
    {
        "category_name": "가정,생활 > 미용 > 화장품 > 네이처리퍼블릭",
        "place_name": "네이처리퍼블릭 롯데면세점잠실점",
        "label": "미용"
    },
    {
        "category_name": "가정,생활 > 미용 > 네일샵",
        "place_name": "브루미네일",
        "label": "미용"
    },
    {
        "category_name": "가정,생활 > 미용 > 미용실 > 에이바헤어",
        "place_name": "에이바헤어 송파나루역점",
        "label": "미용"
    },
    {
        "category_name": "가정,생활 > 미용 > 피부관리 > 세레니끄",
        "place_name": "세레니끄 잠실월드마크점",
        "label": "미용"
    },
    {
        "category_name": "가정,생활 > 미용 > 화장품 > 네이처리퍼블릭",
        "place_name": "네이처리퍼블릭 롯데마트월드타워점",
        "label": "미용"
    },
    {
        "category_name": "가정,생활 > 미용 > 화장품 > 네이처리퍼블릭",
        "place_name": "네이처리퍼블릭 잠실광장점",
        "label": "미용"
    },
    {
        "category_name": "가정,생활 > 미용 > 미용실 > 리안헤어",
        "place_name": "리안헤어 잠실삼전역점",
        "label": "미용"
    },
    {
        "category_name": "가정,생활 > 미용 > 미용실 > 리안헤어",
        "place_name": "리안헤어 잠실나루역점",
        "label": "미용"
    },
    {
        "category_name": "가정,생활 > 미용 > 미용실 > 블루클럽",
        "place_name": "블루클럽 잠실새내역점",
        "label": "미용"
    },
    {
        "category_name": "가정,생활 > 미용 > 미용실 > 모즈토리",
        "place_name": "모즈토리 잠실새내역점",
        "label": "미용"
    },
    {
        "category_name": "가정,생활 > 미용 > 화장품 > 이니스프리",
        "place_name": "이니스프리 롯데마트월드타워점",
        "label": "미용"
    },
    {
        "category_name": "가정,생활 > 미용 > 미용실 > 준오헤어",
        "place_name": "준오헤어 잠실종합운동장사거리점",
        "label": "미용"
    },
    {
        "category_name": "가정,생활 > 미용 > 화장품 > 토니모리",
        "place_name": "토니모리 잠실지하상가점",
        "label": "미용"
    },
    {
        "category_name": "가정,생활 > 미용 > 발관리 > 더풋샵",
        "place_name": "더풋샵 잠실역점",
        "label": "미용"
    },
    {
        "category_name": "가정,생활 > 미용 > 미용실",
        "place_name": "코벨헤어 삼전점",
        "label": "미용"
    },
    {
        "category_name": "가정,생활 > 미용 > 화장품 > 네이처리퍼블릭",
        "place_name": "네이처리퍼블릭 롯데면세점잠실점",
        "label": "미용"
    },
    {
        "category_name": "가정,생활 > 미용 > 네일샵",
        "place_name": "브루미네일",
        "label": "미용"
    },
    {
        "category_name": "가정,생활 > 미용 > 미용실 > 에이바헤어",
        "place_name": "에이바헤어 송파나루역점",
        "label": "미용"
    },
    {
        "category_name": "가정,생활 > 미용 > 피부관리 > 세레니끄",
        "place_name": "세레니끄 잠실월드마크점",
        "label": "미용"
    },
    {
        "category_name": "가정,생활 > 미용 > 화장품 > 네이처리퍼블릭",
        "place_name": "네이처리퍼블릭 롯데마트월드타워점",
        "label": "미용"
    },
    {
        "category_name": "가정,생활 > 미용 > 화장품 > 네이처리퍼블릭",
        "place_name": "네이처리퍼블릭 잠실광장점",
        "label": "미용"
    },
    {
        "category_name": "가정,생활 > 미용 > 미용실 > 리안헤어",
        "place_name": "리안헤어 잠실삼전역점",
        "label": "미용"
    },
    {
        "category_name": "가정,생활 > 미용 > 미용실 > 리안헤어",
        "place_name": "리안헤어 잠실나루역점",
        "label": "미용"
    },
    {
        "category_name": "가정,생활 > 미용 > 미용실 > 블루클럽",
        "place_name": "블루클럽 잠실새내역점",
        "label": "미용"
    },
    {
        "category_name": "가정,생활 > 미용 > 미용실 > 모즈토리",
        "place_name": "모즈토리 잠실새내역점",
        "label": "미용"
    },
    {
        "category_name": "가정,생활 > 미용 > 화장품 > 이니스프리",
        "place_name": "이니스프리 롯데마트월드타워점",
        "label": "미용"
    },
    {
        "category_name": "가정,생활 > 미용 > 미용실 > 준오헤어",
        "place_name": "준오헤어 잠실종합운동장사거리점",
        "label": "미용"
    },
    {
        "category_name": "가정,생활 > 미용 > 화장품 > 토니모리",
        "place_name": "토니모리 잠실지하상가점",
        "label": "미용"
    },
    {
        "category_name": "가정,생활 > 미용 > 발관리 > 더풋샵",
        "place_name": "더풋샵 잠실역점",
        "label": "미용"
    },
    {
        "category_name": "가정,생활 > 미용 > 미용실",
        "place_name": "코벨헤어 삼전점",
        "label": "미용"
    },
    {
        "category_name": "가정,생활 > 미용 > 화장품 > 네이처리퍼블릭",
        "place_name": "네이처리퍼블릭 롯데면세점잠실점",
        "label": "미용"
    },
    {
        "category_name": "가정,생활 > 미용 > 네일샵",
        "place_name": "브루미네일",
        "label": "미용"
    },
    {
        "category_name": "가정,생활 > 미용 > 미용실 > 에이바헤어",
        "place_name": "에이바헤어 송파나루역점",
        "label": "미용"
    },
    {
        "category_name": "가정,생활 > 미용 > 피부관리 > 세레니끄",
        "place_name": "세레니끄 잠실월드마크점",
        "label": "미용"
    },
    {
        "category_name": "가정,생활 > 미용 > 화장품 > 네이처리퍼블릭",
        "place_name": "네이처리퍼블릭 롯데마트월드타워점",
        "label": "미용"
    },
    {
        "category_name": "가정,생활 > 미용 > 화장품 > 네이처리퍼블릭",
        "place_name": "네이처리퍼블릭 잠실광장점",
        "label": "미용"
    },
    {
        "category_name": "가정,생활 > 미용 > 미용실 > 리안헤어",
        "place_name": "리안헤어 잠실삼전역점",
        "label": "미용"
    },
    {
        "category_name": "가정,생활 > 미용 > 미용실 > 리안헤어",
        "place_name": "리안헤어 잠실나루역점",
        "label": "미용"
    },
    {
        "category_name": "가정,생활 > 미용 > 미용실 > 블루클럽",
        "place_name": "블루클럽 잠실새내역점",
        "label": "미용"
    },
    {
        "category_name": "가정,생활 > 미용 > 미용실 > 모즈토리",
        "place_name": "모즈토리 잠실새내역점",
        "label": "미용"
    },
    {
        "category_name": "가정,생활 > 미용 > 화장품 > 이니스프리",
        "place_name": "이니스프리 롯데마트월드타워점",
        "label": "미용"
    },
    {
        "category_name": "가정,생활 > 미용 > 미용실 > 준오헤어",
        "place_name": "준오헤어 잠실종합운동장사거리점",
        "label": "미용"
    },
    {
        "category_name": "가정,생활 > 미용 > 화장품 > 토니모리",
        "place_name": "토니모리 잠실지하상가점",
        "label": "미용"
    },
    {
        "category_name": "가정,생활 > 미용 > 발관리 > 더풋샵",
        "place_name": "더풋샵 잠실역점",
        "label": "미용"
    },
    {
        "category_name": "가정,생활 > 미용 > 미용실",
        "place_name": "코벨헤어 삼전점",
        "label": "미용"
    },
    {
        "category_name": "가정,생활 > 미용 > 화장품 > 네이처리퍼블릭",
        "place_name": "네이처리퍼블릭 롯데면세점잠실점",
        "label": "미용"
    },
    {
        "category_name": "가정,생활 > 미용 > 네일샵",
        "place_name": "브루미네일",
        "label": "미용"
    },
    {
        "category_name": "가정,생활 > 미용 > 미용실 > 에이바헤어",
        "place_name": "에이바헤어 송파나루역점",
        "label": "미용"
    },
    {
        "category_name": "가정,생활 > 미용 > 피부관리 > 세레니끄",
        "place_name": "세레니끄 잠실월드마크점",
        "label": "미용"
    },
    {
        "category_name": "가정,생활 > 미용 > 화장품 > 네이처리퍼블릭",
        "place_name": "네이처리퍼블릭 롯데마트월드타워점",
        "label": "미용"
    },
    {
        "category_name": "가정,생활 > 미용 > 화장품 > 네이처리퍼블릭",
        "place_name": "네이처리퍼블릭 잠실광장점",
        "label": "미용"
    },
    {
        "category_name": "가정,생활 > 미용 > 미용실 > 리안헤어",
        "place_name": "리안헤어 잠실삼전역점",
        "label": "미용"
    },
    {
        "category_name": "가정,생활 > 미용 > 미용실 > 리안헤어",
        "place_name": "리안헤어 잠실나루역점",
        "label": "미용"
    },
    {
        "category_name": "가정,생활 > 미용 > 미용실 > 블루클럽",
        "place_name": "블루클럽 잠실새내역점",
        "label": "미용"
    },
    {
        "category_name": "가정,생활 > 미용 > 미용실 > 모즈토리",
        "place_name": "모즈토리 잠실새내역점",
        "label": "미용"
    },
    {
        "category_name": "가정,생활 > 미용 > 화장품 > 이니스프리",
        "place_name": "이니스프리 롯데마트월드타워점",
        "label": "미용"
    },
    {
        "category_name": "가정,생활 > 미용 > 미용실 > 준오헤어",
        "place_name": "준오헤어 잠실종합운동장사거리점",
        "label": "미용"
    },
    {
        "category_name": "가정,생활 > 미용 > 화장품 > 토니모리",
        "place_name": "토니모리 잠실지하상가점",
        "label": "미용"
    },
    {
        "category_name": "가정,생활 > 미용 > 발관리 > 더풋샵",
        "place_name": "더풋샵 잠실역점",
        "label": "미용"
    },
    {
        "category_name": "가정,생활 > 미용 > 미용실",
        "place_name": "코벨헤어 삼전점",
        "label": "미용"
    },
    {
        "category_name": "가정,생활 > 미용 > 화장품 > 네이처리퍼블릭",
        "place_name": "네이처리퍼블릭 롯데면세점잠실점",
        "label": "미용"
    },
    {
        "category_name": "가정,생활 > 미용 > 네일샵",
        "place_name": "브루미네일",
        "label": "미용"
    },
    {
        "category_name": "가정,생활 > 미용 > 미용실 > 에이바헤어",
        "place_name": "에이바헤어 송파나루역점",
        "label": "미용"
    },
    {
        "category_name": "가정,생활 > 미용 > 피부관리 > 세레니끄",
        "place_name": "세레니끄 잠실월드마크점",
        "label": "미용"
    },
    {
        "category_name": "가정,생활 > 미용 > 화장품 > 네이처리퍼블릭",
        "place_name": "네이처리퍼블릭 롯데마트월드타워점",
        "label": "미용"
    },
    {
        "category_name": "가정,생활 > 미용 > 화장품 > 네이처리퍼블릭",
        "place_name": "네이처리퍼블릭 잠실광장점",
        "label": "미용"
    },
    {
        "category_name": "가정,생활 > 미용 > 미용실 > 리안헤어",
        "place_name": "리안헤어 잠실삼전역점",
        "label": "미용"
    },
    {
        "category_name": "가정,생활 > 미용 > 미용실 > 리안헤어",
        "place_name": "리안헤어 잠실나루역점",
        "label": "미용"
    },
    {
        "category_name": "가정,생활 > 미용 > 미용실 > 블루클럽",
        "place_name": "블루클럽 잠실새내역점",
        "label": "미용"
    },
    {
        "category_name": "가정,생활 > 미용 > 미용실 > 모즈토리",
        "place_name": "모즈토리 잠실새내역점",
        "label": "미용"
    },
    {
        "category_name": "가정,생활 > 미용 > 화장품 > 이니스프리",
        "place_name": "이니스프리 롯데마트월드타워점",
        "label": "미용"
    },
    {
        "category_name": "가정,생활 > 미용 > 미용실 > 준오헤어",
        "place_name": "준오헤어 잠실종합운동장사거리점",
        "label": "미용"
    },
    {
        "category_name": "가정,생활 > 미용 > 화장품 > 토니모리",
        "place_name": "토니모리 잠실지하상가점",
        "label": "미용"
    },
    {
        "category_name": "가정,생활 > 미용 > 발관리 > 더풋샵",
        "place_name": "더풋샵 잠실역점",
        "label": "미용"
    },
    {
        "category_name": "가정,생활 > 미용 > 미용실",
        "place_name": "코벨헤어 삼전점",
        "label": "미용"
    },
    {
        "category_name": "가정,생활 > 미용 > 화장품 > 네이처리퍼블릭",
        "place_name": "네이처리퍼블릭 롯데면세점잠실점",
        "label": "미용"
    },
    {
        "category_name": "가정,생활 > 미용 > 네일샵",
        "place_name": "브루미네일",
        "label": "미용"
    },
    {
        "category_name": "가정,생활 > 미용 > 미용실 > 에이바헤어",
        "place_name": "에이바헤어 송파나루역점",
        "label": "미용"
    },
    {
        "category_name": "가정,생활 > 미용 > 피부관리 > 세레니끄",
        "place_name": "세레니끄 잠실월드마크점",
        "label": "미용"
    },
    {
        "category_name": "가정,생활 > 미용 > 화장품 > 네이처리퍼블릭",
        "place_name": "네이처리퍼블릭 롯데마트월드타워점",
        "label": "미용"
    },
    {
        "category_name": "가정,생활 > 드럭스토어 > 올리브영",
        "place_name": "올리브영 잠실점",
        "label": "미용"
    },
    {
        "category_name": "가정,생활 > 드럭스토어 > 올리브영",
        "place_name": "올리브영 롯데백화점잠실점",
        "label": "미용"
    },
    {
        "category_name": "가정,생활 > 드럭스토어 > 올리브영",
        "place_name": "올리브영 잠실장미상가점",
        "label": "미용"
    },
    {
        "category_name": "가정,생활 > 드럭스토어 > 올리브영",
        "place_name": "올리브영 롯데월드점",
        "label": "미용"
    },
    {
        "category_name": "가정,생활 > 드럭스토어 > 올리브영",
        "place_name": "올리브영 롯데월드몰점",
        "label": "미용"
    },
    {
        "category_name": "가정,생활 > 드럭스토어 > 올리브영",
        "place_name": "올리브영 잠실학원사거리점",
        "label": "미용"
    },
    {
        "category_name": "가정,생활 > 드럭스토어 > 올리브영",
        "place_name": "올리브영 송파구청점",
        "label": "미용"
    },
    {
        "category_name": "가정,생활 > 드럭스토어 > 올리브영",
        "place_name": "올리브영 롯데월드몰플러스점",
        "label": "미용"
    },
    {
        "category_name": "가정,생활 > 드럭스토어 > 올리브영",
        "place_name": "올리브영 홈플러스잠실점",
        "label": "미용"
    },
    {
        "category_name": "가정,생활 > 드럭스토어 > 올리브영",
        "place_name": "올리브영 잠실역8호선점",
        "label": "미용"
    },
    {
        "category_name": "가정,생활 > 드럭스토어 > 올리브영",
        "place_name": "올리브영 석촌역점",
        "label": "미용"
    },
    {
        "category_name": "가정,생활 > 드럭스토어 > 올리브영",
        "place_name": "올리브영 삼전역점",
        "label": "미용"
    },
    {
        "category_name": "가정,생활 > 드럭스토어 > 올리브영",
        "place_name": "올리브영 신천중앙점",
        "label": "미용"
    },
    {
        "category_name": "가정,생활 > 드럭스토어 > 올리브영",
        "place_name": "올리브영 배명사거리점",
        "label": "미용"
    },
    {
        "category_name": "가정,생활 > 드럭스토어 > 올리브영",
        "place_name": "올리브영 송리단길점",
        "label": "미용"
    },
    {
        "category_name": "가정,생활 > 드럭스토어 > 올리브영",
        "place_name": "올리브영 방이시장점",
        "label": "미용"
    },
    {
        "category_name": "가정,생활 > 드럭스토어 > 올리브영",
        "place_name": "올리브영 헬리오시티점",
        "label": "미용"
    },
    {
        "category_name": "가정,생활 > 드럭스토어 > 올리브영",
        "place_name": "올리브영 강변역점",
        "label": "미용"
    },
    {
        "category_name": "가정,생활 > 드럭스토어 > 올리브영",
        "place_name": "올리브영 수서역점",
        "label": "미용"
    },
    {
        "category_name": "가정,생활 > 드럭스토어 > 올리브영",
        "place_name": "올리브영 가락시장역점",
        "label": "미용"
    },
    {
        "category_name": "가정,생활 > 드럭스토어 > 올리브영",
        "place_name": "올리브영 봉은사역점",
        "label": "미용"
    },
    {
        "category_name": "가정,생활 > 드럭스토어 > 올리브영",
        "place_name": "올리브영 방이역점",
        "label": "미용"
    },
    {
        "category_name": "가정,생활 > 드럭스토어 > 올리브영",
        "place_name": "올리브영 문정역점",
        "label": "미용"
    },
    {
        "category_name": "가정,생활 > 드럭스토어 > 올리브영",
        "place_name": "올리브영 파르나스몰점",
        "label": "미용"
    },
    {
        "category_name": "가정,생활 > 드럭스토어 > 올리브영",
        "place_name": "올리브영 코엑스몰점",
        "label": "미용"
    },
    {
        "category_name": "가정,생활 > 드럭스토어 > 올리브영",
        "place_name": "올리브영 강동구청점",
        "label": "미용"
    },
    {
        "category_name": "가정,생활 > 드럭스토어 > 올리브영",
        "place_name": "올리브영 테헤란로점",
        "label": "미용"
    },
    {
        "category_name": "가정,생활 > 드럭스토어 > 올리브영",
        "place_name": "올리브영 둔촌점",
        "label": "미용"
    },
    {
        "category_name": "가정,생활 > 드럭스토어 > 올리브영",
        "place_name": "올리브영 올림픽대교북단점",
        "label": "미용"
    },
    {
        "category_name": "가정,생활 > 드럭스토어 > 올리브영",
        "place_name": "올리브영 구의역점",
        "label": "미용"
    },
    {
        "category_name": "가정,생활 > 드럭스토어 > 올리브영",
        "place_name": "올리브영 대치점",
        "label": "미용"
    },
    {
        "category_name": "가정,생활 > 드럭스토어 > 올리브영",
        "place_name": "올리브영 건대타운점",
        "label": "미용"
    },
    {
        "category_name": "가정,생활 > 드럭스토어 > 올리브영",
        "place_name": "올리브영 올림픽아파트점",
        "label": "미용"
    },
    {
        "category_name": "가정,생활 > 드럭스토어 > 올리브영",
        "place_name": "올리브영 천호중앙점",
        "label": "미용"
    },
    {
        "category_name": "가정,생활 > 드럭스토어 > 올리브영",
        "place_name": "올리브영 건대입구점",
        "label": "미용"
    },
    {
        "category_name": "가정,생활 > 드럭스토어 > 올리브영",
        "place_name": "올리브영 대치역점",
        "label": "미용"
    },
    {
        "category_name": "가정,생활 > 드럭스토어 > 올리브영",
        "place_name": "올리브영 천호역점",
        "label": "미용"
    },
    {
        "category_name": "가정,생활 > 드럭스토어 > 올리브영",
        "place_name": "올리브영 강변엔터식스점",
        "label": "미용"
    },
    {
        "category_name": "가정,생활 > 드럭스토어 > 올리브영",
        "place_name": "올리브영 개롱역점",
        "label": "미용"
    },
    {
        "category_name": "가정,생활 > 드럭스토어 > 올리브영",
        "place_name": "올리브영 광나루역점",
        "label": "미용"
    },
    {
        "category_name": "가정,생활 > 드럭스토어 > 올리브영",
        "place_name": "올리브영 파르나스삼성 타운점",
        "label": "미용"
    },
    {
        "category_name": "가정,생활 > 드럭스토어 > 올리브영",
        "place_name": "올리브영 일원역점",
        "label": "미용"
    },
    {
        "category_name": "가정,생활 > 드럭스토어 > 올리브영",
        "place_name": "올리브영 대치사거리점",
        "label": "미용"
    },
    {
        "category_name": "가정,생활 > 드럭스토어 > 올리브영",
        "place_name": "올리브영 자양역점",
        "label": "미용"
    },
    {
        "category_name": "가정,생활 > 드럭스토어 > 올리브영",
        "place_name": "올리브영 선릉로점",
        "label": "미용"
    },
    {
        "category_name": "가정,생활 > 드럭스토어 > 올리브영",
        "place_name": "올리브영 대치점",
        "label": "미용"
    },
    {
        "category_name": "가정,생활 > 드럭스토어 > 올리브영",
        "place_name": "올리브영 건대타운점",
        "label": "미용"
    },
    {
        "category_name": "가정,생활 > 드럭스토어 > 올리브영",
        "place_name": "올리브영 올림픽아파트점",
        "label": "미용"
    },
    {
        "category_name": "가정,생활 > 드럭스토어 > 올리브영",
        "place_name": "올리브영 천호중앙점",
        "label": "미용"
    },
    {
        "category_name": "가정,생활 > 드럭스토어 > 올리브영",
        "place_name": "올리브영 건대입구점",
        "label": "미용"
    },
    {
        "category_name": "가정,생활 > 드럭스토어 > 올리브영",
        "place_name": "올리브영 대치역점",
        "label": "미용"
    },
    {
        "category_name": "가정,생활 > 드럭스토어 > 올리브영",
        "place_name": "올리브영 천호역점",
        "label": "미용"
    },
    {
        "category_name": "가정,생활 > 드럭스토어 > 올리브영",
        "place_name": "올리브영 강변엔터식스점",
        "label": "미용"
    },
    {
        "category_name": "가정,생활 > 드럭스토어 > 올리브영",
        "place_name": "올리브영 개롱역점",
        "label": "미용"
    },
    {
        "category_name": "가정,생활 > 드럭스토어 > 올리브영",
        "place_name": "올리브영 광나루역점",
        "label": "미용"
    },
    {
        "category_name": "가정,생활 > 드럭스토어 > 올리브영",
        "place_name": "올리브영 파르나스삼성 타운점",
        "label": "미용"
    },
    {
        "category_name": "가정,생활 > 드럭스토어 > 올리브영",
        "place_name": "올리브영 일원역점",
        "label": "미용"
    },
    {
        "category_name": "가정,생활 > 드럭스토어 > 올리브영",
        "place_name": "올리브영 대치사거리점",
        "label": "미용"
    },
    {
        "category_name": "가정,생활 > 드럭스토어 > 올리브영",
        "place_name": "올리브영 자양역점",
        "label": "미용"
    },
    {
        "category_name": "가정,생활 > 드럭스토어 > 올리브영",
        "place_name": "올리브영 선릉로점",
        "label": "미용"
    },
    {
        "category_name": "가정,생활 > 드럭스토어 > 올리브영",
        "place_name": "올리브영 대치점",
        "label": "미용"
    },
    {
        "category_name": "가정,생활 > 드럭스토어 > 올리브영",
        "place_name": "올리브영 건대타운점",
        "label": "미용"
    },
    {
        "category_name": "가정,생활 > 드럭스토어 > 올리브영",
        "place_name": "올리브영 올림픽아파트점",
        "label": "미용"
    },
    {
        "category_name": "가정,생활 > 드럭스토어 > 올리브영",
        "place_name": "올리브영 천호중앙점",
        "label": "미용"
    },
    {
        "category_name": "가정,생활 > 드럭스토어 > 올리브영",
        "place_name": "올리브영 건대입구점",
        "label": "미용"
    },
    {
        "category_name": "가정,생활 > 드럭스토어 > 올리브영",
        "place_name": "올리브영 대치역점",
        "label": "미용"
    },
    {
        "category_name": "가정,생활 > 드럭스토어 > 올리브영",
        "place_name": "올리브영 천호역점",
        "label": "미용"
    },
    {
        "category_name": "가정,생활 > 드럭스토어 > 올리브영",
        "place_name": "올리브영 강변엔터식스점",
        "label": "미용"
    },
    {
        "category_name": "가정,생활 > 드럭스토어 > 올리브영",
        "place_name": "올리브영 개롱역점",
        "label": "미용"
    },
    {
        "category_name": "가정,생활 > 드럭스토어 > 올리브영",
        "place_name": "올리브영 광나루역점",
        "label": "미용"
    },
    {
        "category_name": "가정,생활 > 드럭스토어 > 올리브영",
        "place_name": "올리브영 파르나스삼성 타운점",
        "label": "미용"
    },
    {
        "category_name": "가정,생활 > 드럭스토어 > 올리브영",
        "place_name": "올리브영 일원역점",
        "label": "미용"
    },
    {
        "category_name": "가정,생활 > 드럭스토어 > 올리브영",
        "place_name": "올리브영 대치사거리점",
        "label": "미용"
    },
    {
        "category_name": "가정,생활 > 드럭스토어 > 올리브영",
        "place_name": "올리브영 자양역점",
        "label": "미용"
    },
    {
        "category_name": "가정,생활 > 드럭스토어 > 올리브영",
        "place_name": "올리브영 선릉로점",
        "label": "미용"
    },
    {
        "category_name": "가정,생활 > 드럭스토어 > 올리브영",
        "place_name": "올리브영 대치점",
        "label": "미용"
    },
    {
        "category_name": "가정,생활 > 드럭스토어 > 올리브영",
        "place_name": "올리브영 건대타운점",
        "label": "미용"
    },
    {
        "category_name": "가정,생활 > 드럭스토어 > 올리브영",
        "place_name": "올리브영 올림픽아파트점",
        "label": "미용"
    },
    {
        "category_name": "가정,생활 > 드럭스토어 > 올리브영",
        "place_name": "올리브영 천호중앙점",
        "label": "미용"
    },
    {
        "category_name": "가정,생활 > 드럭스토어 > 올리브영",
        "place_name": "올리브영 건대입구점",
        "label": "미용"
    },
    {
        "category_name": "가정,생활 > 드럭스토어 > 올리브영",
        "place_name": "올리브영 대치역점",
        "label": "미용"
    },
    {
        "category_name": "가정,생활 > 드럭스토어 > 올리브영",
        "place_name": "올리브영 천호역점",
        "label": "미용"
    },
    {
        "category_name": "가정,생활 > 드럭스토어 > 올리브영",
        "place_name": "올리브영 강변엔터식스점",
        "label": "미용"
    },
    {
        "category_name": "가정,생활 > 드럭스토어 > 올리브영",
        "place_name": "올리브영 개롱역점",
        "label": "미용"
    },
    {
        "category_name": "가정,생활 > 드럭스토어 > 올리브영",
        "place_name": "올리브영 광나루역점",
        "label": "미용"
    },
    {
        "category_name": "가정,생활 > 드럭스토어 > 올리브영",
        "place_name": "올리브영 파르나스삼성 타운점",
        "label": "미용"
    },
    {
        "category_name": "가정,생활 > 드럭스토어 > 올리브영",
        "place_name": "올리브영 일원역점",
        "label": "미용"
    },
    {
        "category_name": "가정,생활 > 드럭스토어 > 올리브영",
        "place_name": "올리브영 대치사거리점",
        "label": "미용"
    },
    {
        "category_name": "가정,생활 > 드럭스토어 > 올리브영",
        "place_name": "올리브영 자양역점",
        "label": "미용"
    },
    {
        "category_name": "가정,생활 > 드럭스토어 > 올리브영",
        "place_name": "올리브영 선릉로점",
        "label": "미용"
    },
    {
        "category_name": "가정,생활 > 드럭스토어 > 올리브영",
        "place_name": "올리브영 대치점",
        "label": "미용"
    },
    {
        "category_name": "가정,생활 > 드럭스토어 > 올리브영",
        "place_name": "올리브영 건대타운점",
        "label": "미용"
    },
    {
        "category_name": "가정,생활 > 드럭스토어 > 올리브영",
        "place_name": "올리브영 올림픽아파트점",
        "label": "미용"
    },
    {
        "category_name": "가정,생활 > 드럭스토어 > 올리브영",
        "place_name": "올리브영 천호중앙점",
        "label": "미용"
    },
    {
        "category_name": "가정,생활 > 드럭스토어 > 올리브영",
        "place_name": "올리브영 건대입구점",
        "label": "미용"
    },
    {
        "category_name": "가정,생활 > 드럭스토어 > 올리브영",
        "place_name": "올리브영 대치역점",
        "label": "미용"
    },
    {
        "category_name": "가정,생활 > 드럭스토어 > 올리브영",
        "place_name": "올리브영 천호역점",
        "label": "미용"
    },
    {
        "category_name": "가정,생활 > 드럭스토어 > 올리브영",
        "place_name": "올리브영 강변엔터식스점",
        "label": "미용"
    },
    {
        "category_name": "가정,생활 > 드럭스토어 > 올리브영",
        "place_name": "올리브영 개롱역점",
        "label": "미용"
    },
    {
        "category_name": "가정,생활 > 드럭스토어 > 올리브영",
        "place_name": "올리브영 광나루역점",
        "label": "미용"
    },
    {
        "category_name": "가정,생활 > 드럭스토어 > 올리브영",
        "place_name": "올리브영 파르나스삼성 타운점",
        "label": "미용"
    },
    {
        "category_name": "가정,생활 > 드럭스토어 > 올리브영",
        "place_name": "올리브영 일원역점",
        "label": "미용"
    },
    {
        "category_name": "가정,생활 > 드럭스토어 > 올리브영",
        "place_name": "올리브영 대치사거리점",
        "label": "미용"
    },
    {
        "category_name": "가정,생활 > 드럭스토어 > 올리브영",
        "place_name": "올리브영 자양역점",
        "label": "미용"
    },
    {
        "category_name": "가정,생활 > 드럭스토어 > 올리브영",
        "place_name": "올리브영 선릉로점",
        "label": "미용"
    },
    {
        "category_name": "가정,생활 > 드럭스토어 > 올리브영",
        "place_name": "올리브영 대치점",
        "label": "미용"
    },
    {
        "category_name": "가정,생활 > 드럭스토어 > 올리브영",
        "place_name": "올리브영 건대타운점",
        "label": "미용"
    },
    {
        "category_name": "가정,생활 > 드럭스토어 > 올리브영",
        "place_name": "올리브영 올림픽아파트점",
        "label": "미용"
    },
    {
        "category_name": "가정,생활 > 드럭스토어 > 올리브영",
        "place_name": "올리브영 천호중앙점",
        "label": "미용"
    },
    {
        "category_name": "가정,생활 > 드럭스토어 > 올리브영",
        "place_name": "올리브영 건대입구점",
        "label": "미용"
    },
    {
        "category_name": "가정,생활 > 드럭스토어 > 올리브영",
        "place_name": "올리브영 대치역점",
        "label": "미용"
    },
    {
        "category_name": "가정,생활 > 드럭스토어 > 올리브영",
        "place_name": "올리브영 천호역점",
        "label": "미용"
    },
    {
        "category_name": "가정,생활 > 드럭스토어 > 올리브영",
        "place_name": "올리브영 강변엔터식스점",
        "label": "미용"
    },
    {
        "category_name": "가정,생활 > 드럭스토어 > 올리브영",
        "place_name": "올리브영 개롱역점",
        "label": "미용"
    },
    {
        "category_name": "가정,생활 > 드럭스토어 > 올리브영",
        "place_name": "올리브영 광나루역점",
        "label": "미용"
    },
    {
        "category_name": "가정,생활 > 드럭스토어 > 올리브영",
        "place_name": "올리브영 파르나스삼성 타운점",
        "label": "미용"
    },
    {
        "category_name": "가정,생활 > 드럭스토어 > 올리브영",
        "place_name": "올리브영 일원역점",
        "label": "미용"
    },
    {
        "category_name": "가정,생활 > 드럭스토어 > 올리브영",
        "place_name": "올리브영 대치사거리점",
        "label": "미용"
    },
    {
        "category_name": "가정,생활 > 드럭스토어 > 올리브영",
        "place_name": "올리브영 자양역점",
        "label": "미용"
    },
    {
        "category_name": "가정,생활 > 드럭스토어 > 올리브영",
        "place_name": "올리브영 선릉로점",
        "label": "미용"
    },
    {
        "category_name": "가정,생활 > 드럭스토어 > 올리브영",
        "place_name": "올리브영 대치점",
        "label": "미용"
    },
    {
        "category_name": "가정,생활 > 드럭스토어 > 올리브영",
        "place_name": "올리브영 건대타운점",
        "label": "미용"
    },
    {
        "category_name": "가정,생활 > 드럭스토어 > 올리브영",
        "place_name": "올리브영 올림픽아파트점",
        "label": "미용"
    },
    {
        "category_name": "가정,생활 > 드럭스토어 > 올리브영",
        "place_name": "올리브영 천호중앙점",
        "label": "미용"
    },
    {
        "category_name": "가정,생활 > 드럭스토어 > 올리브영",
        "place_name": "올리브영 건대입구점",
        "label": "미용"
    },
    {
        "category_name": "가정,생활 > 드럭스토어 > 올리브영",
        "place_name": "올리브영 대치역점",
        "label": "미용"
    },
    {
        "category_name": "가정,생활 > 드럭스토어 > 올리브영",
        "place_name": "올리브영 천호역점",
        "label": "미용"
    },
    {
        "category_name": "가정,생활 > 드럭스토어 > 올리브영",
        "place_name": "올리브영 강변엔터식스점",
        "label": "미용"
    },
    {
        "category_name": "가정,생활 > 드럭스토어 > 올리브영",
        "place_name": "올리브영 개롱역점",
        "label": "미용"
    },
    {
        "category_name": "가정,생활 > 드럭스토어 > 올리브영",
        "place_name": "올리브영 광나루역점",
        "label": "미용"
    },
    {
        "category_name": "가정,생활 > 드럭스토어 > 올리브영",
        "place_name": "올리브영 파르나스삼성 타운점",
        "label": "미용"
    },
    {
        "category_name": "가정,생활 > 드럭스토어 > 올리브영",
        "place_name": "올리브영 일원역점",
        "label": "미용"
    },
    {
        "category_name": "가정,생활 > 드럭스토어 > 올리브영",
        "place_name": "올리브영 대치사거리점",
        "label": "미용"
    },
    {
        "category_name": "가정,생활 > 드럭스토어 > 올리브영",
        "place_name": "올리브영 자양역점",
        "label": "미용"
    },
    {
        "category_name": "가정,생활 > 드럭스토어 > 올리브영",
        "place_name": "올리브영 선릉로점",
        "label": "미용"
    },
    {
        "category_name": "가정,생활 > 드럭스토어 > 올리브영",
        "place_name": "올리브영 대치점",
        "label": "미용"
    },
    {
        "category_name": "가정,생활 > 드럭스토어 > 올리브영",
        "place_name": "올리브영 건대타운점",
        "label": "미용"
    },
    {
        "category_name": "가정,생활 > 드럭스토어 > 올리브영",
        "place_name": "올리브영 올림픽아파트점",
        "label": "미용"
    },
    {
        "category_name": "가정,생활 > 드럭스토어 > 올리브영",
        "place_name": "올리브영 천호중앙점",
        "label": "미용"
    },
    {
        "category_name": "가정,생활 > 드럭스토어 > 올리브영",
        "place_name": "올리브영 건대입구점",
        "label": "미용"
    },
    {
        "category_name": "가정,생활 > 드럭스토어 > 올리브영",
        "place_name": "올리브영 대치역점",
        "label": "미용"
    },
    {
        "category_name": "가정,생활 > 드럭스토어 > 올리브영",
        "place_name": "올리브영 천호역점",
        "label": "미용"
    },
    {
        "category_name": "가정,생활 > 드럭스토어 > 올리브영",
        "place_name": "올리브영 강변엔터식스점",
        "label": "미용"
    },
    {
        "category_name": "가정,생활 > 드럭스토어 > 올리브영",
        "place_name": "올리브영 개롱역점",
        "label": "미용"
    },
    {
        "category_name": "가정,생활 > 드럭스토어 > 올리브영",
        "place_name": "올리브영 광나루역점",
        "label": "미용"
    },
    {
        "category_name": "가정,생활 > 드럭스토어 > 올리브영",
        "place_name": "올리브영 파르나스삼성 타운점",
        "label": "미용"
    },
    {
        "category_name": "가정,생활 > 드럭스토어 > 올리브영",
        "place_name": "올리브영 일원역점",
        "label": "미용"
    },
    {
        "category_name": "가정,생활 > 드럭스토어 > 올리브영",
        "place_name": "올리브영 대치사거리점",
        "label": "미용"
    },
    {
        "category_name": "가정,생활 > 드럭스토어 > 올리브영",
        "place_name": "올리브영 자양역점",
        "label": "미용"
    },
    {
        "category_name": "가정,생활 > 드럭스토어 > 올리브영",
        "place_name": "올리브영 선릉로점",
        "label": "미용"
    },
    {
        "category_name": "가정,생활 > 드럭스토어 > 올리브영",
        "place_name": "올리브영 대치점",
        "label": "미용"
    },
    {
        "category_name": "가정,생활 > 드럭스토어 > 올리브영",
        "place_name": "올리브영 건대타운점",
        "label": "미용"
    },
    {
        "category_name": "가정,생활 > 드럭스토어 > 올리브영",
        "place_name": "올리브영 올림픽아파트점",
        "label": "미용"
    },
    {
        "category_name": "가정,생활 > 드럭스토어 > 올리브영",
        "place_name": "올리브영 천호중앙점",
        "label": "미용"
    },
    {
        "category_name": "가정,생활 > 드럭스토어 > 올리브영",
        "place_name": "올리브영 건대입구점",
        "label": "미용"
    },
    {
        "category_name": "가정,생활 > 드럭스토어 > 올리브영",
        "place_name": "올리브영 대치역점",
        "label": "미용"
    },
    {
        "category_name": "가정,생활 > 드럭스토어 > 올리브영",
        "place_name": "올리브영 천호역점",
        "label": "미용"
    },
    {
        "category_name": "가정,생활 > 드럭스토어 > 올리브영",
        "place_name": "올리브영 강변엔터식스점",
        "label": "미용"
    },
    {
        "category_name": "가정,생활 > 드럭스토어 > 올리브영",
        "place_name": "올리브영 개롱역점",
        "label": "미용"
    },
    {
        "category_name": "가정,생활 > 드럭스토어 > 올리브영",
        "place_name": "올리브영 광나루역점",
        "label": "미용"
    },
    {
        "category_name": "가정,생활 > 드럭스토어 > 올리브영",
        "place_name": "올리브영 파르나스삼성 타운점",
        "label": "미용"
    },
    {
        "category_name": "가정,생활 > 드럭스토어 > 올리브영",
        "place_name": "올리브영 일원역점",
        "label": "미용"
    },
    {
        "category_name": "가정,생활 > 드럭스토어 > 올리브영",
        "place_name": "올리브영 대치사거리점",
        "label": "미용"
    },
    {
        "category_name": "가정,생활 > 드럭스토어 > 올리브영",
        "place_name": "올리브영 자양역점",
        "label": "미용"
    },
    {
        "category_name": "가정,생활 > 드럭스토어 > 올리브영",
        "place_name": "올리브영 선릉로점",
        "label": "미용"
    },
    {
        "category_name": "가정,생활 > 드럭스토어 > 올리브영",
        "place_name": "올리브영 대치점",
        "label": "미용"
    },
    {
        "category_name": "가정,생활 > 드럭스토어 > 올리브영",
        "place_name": "올리브영 건대타운점",
        "label": "미용"
    },
    {
        "category_name": "가정,생활 > 드럭스토어 > 올리브영",
        "place_name": "올리브영 올림픽아파트점",
        "label": "미용"
    },
    {
        "category_name": "가정,생활 > 드럭스토어 > 올리브영",
        "place_name": "올리브영 천호중앙점",
        "label": "미용"
    },
    {
        "category_name": "가정,생활 > 드럭스토어 > 올리브영",
        "place_name": "올리브영 건대입구점",
        "label": "미용"
    },
    {
        "category_name": "가정,생활 > 드럭스토어 > 올리브영",
        "place_name": "올리브영 대치역점",
        "label": "미용"
    },
    {
        "category_name": "가정,생활 > 드럭스토어 > 올리브영",
        "place_name": "올리브영 천호역점",
        "label": "미용"
    },
    {
        "category_name": "가정,생활 > 드럭스토어 > 올리브영",
        "place_name": "올리브영 강변엔터식스점",
        "label": "미용"
    },
    {
        "category_name": "가정,생활 > 드럭스토어 > 올리브영",
        "place_name": "올리브영 개롱역점",
        "label": "미용"
    },
    {
        "category_name": "가정,생활 > 드럭스토어 > 올리브영",
        "place_name": "올리브영 광나루역점",
        "label": "미용"
    },
    {
        "category_name": "가정,생활 > 드럭스토어 > 올리브영",
        "place_name": "올리브영 파르나스삼성 타운점",
        "label": "미용"
    },
    {
        "category_name": "가정,생활 > 드럭스토어 > 올리브영",
        "place_name": "올리브영 일원역점",
        "label": "미용"
    },
    {
        "category_name": "가정,생활 > 드럭스토어 > 올리브영",
        "place_name": "올리브영 대치사거리점",
        "label": "미용"
    },
    {
        "category_name": "가정,생활 > 드럭스토어 > 올리브영",
        "place_name": "올리브영 자양역점",
        "label": "미용"
    },
    {
        "category_name": "가정,생활 > 드럭스토어 > 올리브영",
        "place_name": "올리브영 선릉로점",
        "label": "미용"
    },
    {
        "category_name": "가정,생활 > 드럭스토어 > 올리브영",
        "place_name": "올리브영 대치점",
        "label": "미용"
    },
    {
        "category_name": "가정,생활 > 드럭스토어 > 올리브영",
        "place_name": "올리브영 건대타운점",
        "label": "미용"
    },
    {
        "category_name": "가정,생활 > 드럭스토어 > 올리브영",
        "place_name": "올리브영 올림픽아파트점",
        "label": "미용"
    },
    {
        "category_name": "가정,생활 > 드럭스토어 > 올리브영",
        "place_name": "올리브영 천호중앙점",
        "label": "미용"
    },
    {
        "category_name": "가정,생활 > 드럭스토어 > 올리브영",
        "place_name": "올리브영 건대입구점",
        "label": "미용"
    },
    {
        "category_name": "가정,생활 > 드럭스토어 > 올리브영",
        "place_name": "올리브영 대치역점",
        "label": "미용"
    },
    {
        "category_name": "가정,생활 > 드럭스토어 > 올리브영",
        "place_name": "올리브영 천호역점",
        "label": "미용"
    },
    {
        "category_name": "가정,생활 > 드럭스토어 > 올리브영",
        "place_name": "올리브영 강변엔터식스점",
        "label": "미용"
    },
    {
        "category_name": "가정,생활 > 드럭스토어 > 올리브영",
        "place_name": "올리브영 개롱역점",
        "label": "미용"
    },
    {
        "category_name": "가정,생활 > 드럭스토어 > 올리브영",
        "place_name": "올리브영 광나루역점",
        "label": "미용"
    },
    {
        "category_name": "가정,생활 > 드럭스토어 > 올리브영",
        "place_name": "올리브영 파르나스삼성 타운점",
        "label": "미용"
    },
    {
        "category_name": "가정,생활 > 드럭스토어 > 올리브영",
        "place_name": "올리브영 일원역점",
        "label": "미용"
    },
    {
        "category_name": "가정,생활 > 드럭스토어 > 올리브영",
        "place_name": "올리브영 대치사거리점",
        "label": "미용"
    },
    {
        "category_name": "가정,생활 > 드럭스토어 > 올리브영",
        "place_name": "올리브영 자양역점",
        "label": "미용"
    },
    {
        "category_name": "가정,생활 > 드럭스토어 > 올리브영",
        "place_name": "올리브영 선릉로점",
        "label": "미용"
    },
    {
        "category_name": "가정,생활 > 드럭스토어 > 올리브영",
        "place_name": "올리브영 대치점",
        "label": "미용"
    },
    {
        "category_name": "가정,생활 > 드럭스토어 > 올리브영",
        "place_name": "올리브영 건대타운점",
        "label": "미용"
    },
    {
        "category_name": "가정,생활 > 드럭스토어 > 올리브영",
        "place_name": "올리브영 올림픽아파트점",
        "label": "미용"
    },
    {
        "category_name": "가정,생활 > 드럭스토어 > 올리브영",
        "place_name": "올리브영 천호중앙점",
        "label": "미용"
    },
    {
        "category_name": "가정,생활 > 드럭스토어 > 올리브영",
        "place_name": "올리브영 건대입구점",
        "label": "미용"
    },
    {
        "category_name": "가정,생활 > 드럭스토어 > 올리브영",
        "place_name": "올리브영 대치역점",
        "label": "미용"
    },
    {
        "category_name": "가정,생활 > 드럭스토어 > 올리브영",
        "place_name": "올리브영 천호역점",
        "label": "미용"
    },
    {
        "category_name": "가정,생활 > 드럭스토어 > 올리브영",
        "place_name": "올리브영 강변엔터식스점",
        "label": "미용"
    },
    {
        "category_name": "가정,생활 > 드럭스토어 > 올리브영",
        "place_name": "올리브영 개롱역점",
        "label": "미용"
    },
    {
        "category_name": "가정,생활 > 드럭스토어 > 올리브영",
        "place_name": "올리브영 광나루역점",
        "label": "미용"
    },
    {
        "category_name": "가정,생활 > 드럭스토어 > 올리브영",
        "place_name": "올리브영 파르나스삼성 타운점",
        "label": "미용"
    },
    {
        "category_name": "가정,생활 > 드럭스토어 > 올리브영",
        "place_name": "올리브영 일원역점",
        "label": "미용"
    },
    {
        "category_name": "가정,생활 > 드럭스토어 > 올리브영",
        "place_name": "올리브영 대치사거리점",
        "label": "미용"
    },
    {
        "category_name": "가정,생활 > 드럭스토어 > 올리브영",
        "place_name": "올리브영 자양역점",
        "label": "미용"
    },
    {
        "category_name": "가정,생활 > 드럭스토어 > 올리브영",
        "place_name": "올리브영 선릉로점",
        "label": "미용"
    },
    {
        "category_name": "가정,생활 > 드럭스토어 > 올리브영",
        "place_name": "올리브영 대치점",
        "label": "미용"
    },
    {
        "category_name": "가정,생활 > 드럭스토어 > 올리브영",
        "place_name": "올리브영 건대타운점",
        "label": "미용"
    },
    {
        "category_name": "가정,생활 > 드럭스토어 > 올리브영",
        "place_name": "올리브영 올림픽아파트점",
        "label": "미용"
    },
    {
        "category_name": "가정,생활 > 드럭스토어 > 올리브영",
        "place_name": "올리브영 천호중앙점",
        "label": "미용"
    },
    {
        "category_name": "가정,생활 > 드럭스토어 > 올리브영",
        "place_name": "올리브영 건대입구점",
        "label": "미용"
    },
    {
        "category_name": "가정,생활 > 드럭스토어 > 올리브영",
        "place_name": "올리브영 대치역점",
        "label": "미용"
    },
    {
        "category_name": "가정,생활 > 드럭스토어 > 올리브영",
        "place_name": "올리브영 천호역점",
        "label": "미용"
    },
    {
        "category_name": "가정,생활 > 드럭스토어 > 올리브영",
        "place_name": "올리브영 강변엔터식스점",
        "label": "미용"
    },
    {
        "category_name": "가정,생활 > 드럭스토어 > 올리브영",
        "place_name": "올리브영 개롱역점",
        "label": "미용"
    },
    {
        "category_name": "가정,생활 > 드럭스토어 > 올리브영",
        "place_name": "올리브영 광나루역점",
        "label": "미용"
    },
    {
        "category_name": "가정,생활 > 드럭스토어 > 올리브영",
        "place_name": "올리브영 파르나스삼성 타운점",
        "label": "미용"
    },
    {
        "category_name": "가정,생활 > 드럭스토어 > 올리브영",
        "place_name": "올리브영 일원역점",
        "label": "미용"
    },
    {
        "category_name": "가정,생활 > 드럭스토어 > 올리브영",
        "place_name": "올리브영 대치사거리점",
        "label": "미용"
    },
    {
        "category_name": "가정,생활 > 드럭스토어 > 올리브영",
        "place_name": "올리브영 자양역점",
        "label": "미용"
    },
    {
        "category_name": "가정,생활 > 드럭스토어 > 올리브영",
        "place_name": "올리브영 선릉로점",
        "label": "미용"
    },
    {
        "category_name": "가정,생활 > 드럭스토어 > 올리브영",
        "place_name": "올리브영 대치점",
        "label": "미용"
    },
    {
        "category_name": "가정,생활 > 드럭스토어 > 올리브영",
        "place_name": "올리브영 건대타운점",
        "label": "미용"
    },
    {
        "category_name": "가정,생활 > 드럭스토어 > 올리브영",
        "place_name": "올리브영 올림픽아파트점",
        "label": "미용"
    },
    {
        "category_name": "가정,생활 > 드럭스토어 > 올리브영",
        "place_name": "올리브영 천호중앙점",
        "label": "미용"
    },
    {
        "category_name": "가정,생활 > 드럭스토어 > 올리브영",
        "place_name": "올리브영 건대입구점",
        "label": "미용"
    },
    {
        "category_name": "가정,생활 > 드럭스토어 > 올리브영",
        "place_name": "올리브영 대치역점",
        "label": "미용"
    },
    {
        "category_name": "가정,생활 > 드럭스토어 > 올리브영",
        "place_name": "올리브영 천호역점",
        "label": "미용"
    },
    {
        "category_name": "가정,생활 > 드럭스토어 > 올리브영",
        "place_name": "올리브영 강변엔터식스점",
        "label": "미용"
    },
    {
        "category_name": "가정,생활 > 드럭스토어 > 올리브영",
        "place_name": "올리브영 개롱역점",
        "label": "미용"
    },
    {
        "category_name": "가정,생활 > 드럭스토어 > 올리브영",
        "place_name": "올리브영 광나루역점",
        "label": "미용"
    },
    {
        "category_name": "가정,생활 > 드럭스토어 > 올리브영",
        "place_name": "올리브영 파르나스삼성 타운점",
        "label": "미용"
    },
    {
        "category_name": "가정,생활 > 드럭스토어 > 올리브영",
        "place_name": "올리브영 일원역점",
        "label": "미용"
    },
    {
        "category_name": "가정,생활 > 드럭스토어 > 올리브영",
        "place_name": "올리브영 대치사거리점",
        "label": "미용"
    },
    {
        "category_name": "가정,생활 > 드럭스토어 > 올리브영",
        "place_name": "올리브영 자양역점",
        "label": "미용"
    },
    {
        "category_name": "가정,생활 > 드럭스토어 > 올리브영",
        "place_name": "올리브영 선릉로점",
        "label": "미용"
    },
    {
        "category_name": "가정,생활 > 드럭스토어 > 올리브영",
        "place_name": "올리브영 대치점",
        "label": "미용"
    },
    {
        "category_name": "가정,생활 > 드럭스토어 > 올리브영",
        "place_name": "올리브영 건대타운점",
        "label": "미용"
    },
    {
        "category_name": "가정,생활 > 드럭스토어 > 올리브영",
        "place_name": "올리브영 올림픽아파트점",
        "label": "미용"
    },
    {
        "category_name": "가정,생활 > 드럭스토어 > 올리브영",
        "place_name": "올리브영 천호중앙점",
        "label": "미용"
    },
    {
        "category_name": "가정,생활 > 드럭스토어 > 올리브영",
        "place_name": "올리브영 건대입구점",
        "label": "미용"
    },
    {
        "category_name": "가정,생활 > 드럭스토어 > 올리브영",
        "place_name": "올리브영 대치역점",
        "label": "미용"
    },
    {
        "category_name": "가정,생활 > 드럭스토어 > 올리브영",
        "place_name": "올리브영 천호역점",
        "label": "미용"
    },
    {
        "category_name": "가정,생활 > 드럭스토어 > 올리브영",
        "place_name": "올리브영 강변엔터식스점",
        "label": "미용"
    },
    {
        "category_name": "가정,생활 > 드럭스토어 > 올리브영",
        "place_name": "올리브영 개롱역점",
        "label": "미용"
    },
    {
        "category_name": "가정,생활 > 드럭스토어 > 올리브영",
        "place_name": "올리브영 광나루역점",
        "label": "미용"
    },
    {
        "category_name": "가정,생활 > 드럭스토어 > 올리브영",
        "place_name": "올리브영 파르나스삼성 타운점",
        "label": "미용"
    },
    {
        "category_name": "가정,생활 > 드럭스토어 > 올리브영",
        "place_name": "올리브영 일원역점",
        "label": "미용"
    },
    {
        "category_name": "가정,생활 > 드럭스토어 > 올리브영",
        "place_name": "올리브영 대치사거리점",
        "label": "미용"
    },
    {
        "category_name": "가정,생활 > 드럭스토어 > 올리브영",
        "place_name": "올리브영 자양역점",
        "label": "미용"
    },
    {
        "category_name": "가정,생활 > 드럭스토어 > 올리브영",
        "place_name": "올리브영 선릉로점",
        "label": "미용"
    },
    {
        "category_name": "가정,생활 > 드럭스토어 > 올리브영",
        "place_name": "올리브영 대치점",
        "label": "미용"
    },
    {
        "category_name": "가정,생활 > 드럭스토어 > 올리브영",
        "place_name": "올리브영 건대타운점",
        "label": "미용"
    },
    {
        "category_name": "가정,생활 > 드럭스토어 > 올리브영",
        "place_name": "올리브영 올림픽아파트점",
        "label": "미용"
    },
    {
        "category_name": "가정,생활 > 드럭스토어 > 올리브영",
        "place_name": "올리브영 천호중앙점",
        "label": "미용"
    },
    {
        "category_name": "가정,생활 > 드럭스토어 > 올리브영",
        "place_name": "올리브영 건대입구점",
        "label": "미용"
    },
    {
        "category_name": "가정,생활 > 드럭스토어 > 올리브영",
        "place_name": "올리브영 대치역점",
        "label": "미용"
    },
    {
        "category_name": "가정,생활 > 드럭스토어 > 올리브영",
        "place_name": "올리브영 천호역점",
        "label": "미용"
    },
    {
        "category_name": "가정,생활 > 드럭스토어 > 올리브영",
        "place_name": "올리브영 강변엔터식스점",
        "label": "미용"
    },
    {
        "category_name": "가정,생활 > 드럭스토어 > 올리브영",
        "place_name": "올리브영 개롱역점",
        "label": "미용"
    },
    {
        "category_name": "가정,생활 > 드럭스토어 > 올리브영",
        "place_name": "올리브영 광나루역점",
        "label": "미용"
    },
    {
        "category_name": "가정,생활 > 드럭스토어 > 올리브영",
        "place_name": "올리브영 파르나스삼성 타운점",
        "label": "미용"
    },
    {
        "category_name": "가정,생활 > 드럭스토어 > 올리브영",
        "place_name": "올리브영 일원역점",
        "label": "미용"
    },
    {
        "category_name": "가정,생활 > 드럭스토어 > 올리브영",
        "place_name": "올리브영 대치사거리점",
        "label": "미용"
    },
    {
        "category_name": "가정,생활 > 드럭스토어 > 올리브영",
        "place_name": "올리브영 자양역점",
        "label": "미용"
    },
    {
        "category_name": "가정,생활 > 드럭스토어 > 올리브영",
        "place_name": "올리브영 선릉로점",
        "label": "미용"
    },
    {
        "category_name": "가정,생활 > 드럭스토어 > 올리브영",
        "place_name": "올리브영 대치점",
        "label": "미용"
    },
    {
        "category_name": "가정,생활 > 드럭스토어 > 올리브영",
        "place_name": "올리브영 건대타운점",
        "label": "미용"
    },
    {
        "category_name": "가정,생활 > 드럭스토어 > 올리브영",
        "place_name": "올리브영 올림픽아파트점",
        "label": "미용"
    },
    {
        "category_name": "가정,생활 > 드럭스토어 > 올리브영",
        "place_name": "올리브영 천호중앙점",
        "label": "미용"
    },
    {
        "category_name": "가정,생활 > 드럭스토어 > 올리브영",
        "place_name": "올리브영 건대입구점",
        "label": "미용"
    },
    {
        "category_name": "가정,생활 > 드럭스토어 > 올리브영",
        "place_name": "올리브영 대치역점",
        "label": "미용"
    },
    {
        "category_name": "가정,생활 > 드럭스토어 > 올리브영",
        "place_name": "올리브영 천호역점",
        "label": "미용"
    },
    {
        "category_name": "가정,생활 > 드럭스토어 > 올리브영",
        "place_name": "올리브영 강변엔터식스점",
        "label": "미용"
    },
    {
        "category_name": "가정,생활 > 드럭스토어 > 올리브영",
        "place_name": "올리브영 개롱역점",
        "label": "미용"
    },
    {
        "category_name": "가정,생활 > 드럭스토어 > 올리브영",
        "place_name": "올리브영 광나루역점",
        "label": "미용"
    },
    {
        "category_name": "가정,생활 > 드럭스토어 > 올리브영",
        "place_name": "올리브영 파르나스삼성 타운점",
        "label": "미용"
    },
    {
        "category_name": "가정,생활 > 드럭스토어 > 올리브영",
        "place_name": "올리브영 일원역점",
        "label": "미용"
    },
    {
        "category_name": "가정,생활 > 드럭스토어 > 올리브영",
        "place_name": "올리브영 대치사거리점",
        "label": "미용"
    },
    {
        "category_name": "가정,생활 > 드럭스토어 > 올리브영",
        "place_name": "올리브영 자양역점",
        "label": "미용"
    },
    {
        "category_name": "가정,생활 > 드럭스토어 > 올리브영",
        "place_name": "올리브영 선릉로점",
        "label": "미용"
    },
    {
        "category_name": "가정,생활 > 드럭스토어 > 올리브영",
        "place_name": "올리브영 대치점",
        "label": "미용"
    },
    {
        "category_name": "가정,생활 > 드럭스토어 > 올리브영",
        "place_name": "올리브영 건대타운점",
        "label": "미용"
    },
    {
        "category_name": "가정,생활 > 드럭스토어 > 올리브영",
        "place_name": "올리브영 올림픽아파트점",
        "label": "미용"
    },
    {
        "category_name": "가정,생활 > 드럭스토어 > 올리브영",
        "place_name": "올리브영 천호중앙점",
        "label": "미용"
    },
    {
        "category_name": "가정,생활 > 드럭스토어 > 올리브영",
        "place_name": "올리브영 건대입구점",
        "label": "미용"
    },
    {
        "category_name": "가정,생활 > 드럭스토어 > 올리브영",
        "place_name": "올리브영 대치역점",
        "label": "미용"
    },
    {
        "category_name": "가정,생활 > 드럭스토어 > 올리브영",
        "place_name": "올리브영 천호역점",
        "label": "미용"
    },
    {
        "category_name": "가정,생활 > 드럭스토어 > 올리브영",
        "place_name": "올리브영 강변엔터식스점",
        "label": "미용"
    },
    {
        "category_name": "가정,생활 > 드럭스토어 > 올리브영",
        "place_name": "올리브영 개롱역점",
        "label": "미용"
    },
    {
        "category_name": "가정,생활 > 드럭스토어 > 올리브영",
        "place_name": "올리브영 광나루역점",
        "label": "미용"
    },
    {
        "category_name": "가정,생활 > 드럭스토어 > 올리브영",
        "place_name": "올리브영 파르나스삼성 타운점",
        "label": "미용"
    },
    {
        "category_name": "가정,생활 > 드럭스토어 > 올리브영",
        "place_name": "올리브영 일원역점",
        "label": "미용"
    },
    {
        "category_name": "가정,생활 > 드럭스토어 > 올리브영",
        "place_name": "올리브영 대치사거리점",
        "label": "미용"
    },
    {
        "category_name": "가정,생활 > 드럭스토어 > 올리브영",
        "place_name": "올리브영 자양역점",
        "label": "미용"
    },
    {
        "category_name": "가정,생활 > 드럭스토어 > 올리브영",
        "place_name": "올리브영 선릉로점",
        "label": "미용"
    },
    {
        "category_name": "가정,생활 > 드럭스토어 > 올리브영",
        "place_name": "올리브영 대치점",
        "label": "미용"
    },
    {
        "category_name": "가정,생활 > 드럭스토어 > 올리브영",
        "place_name": "올리브영 건대타운점",
        "label": "미용"
    },
    {
        "category_name": "가정,생활 > 드럭스토어 > 올리브영",
        "place_name": "올리브영 올림픽아파트점",
        "label": "미용"
    },
    {
        "category_name": "가정,생활 > 드럭스토어 > 올리브영",
        "place_name": "올리브영 천호중앙점",
        "label": "미용"
    },
    {
        "category_name": "가정,생활 > 드럭스토어 > 올리브영",
        "place_name": "올리브영 건대입구점",
        "label": "미용"
    },
    {
        "category_name": "가정,생활 > 드럭스토어 > 올리브영",
        "place_name": "올리브영 대치역점",
        "label": "미용"
    },
    {
        "category_name": "가정,생활 > 드럭스토어 > 올리브영",
        "place_name": "올리브영 천호역점",
        "label": "미용"
    },
    {
        "category_name": "가정,생활 > 드럭스토어 > 올리브영",
        "place_name": "올리브영 강변엔터식스점",
        "label": "미용"
    },
    {
        "category_name": "가정,생활 > 드럭스토어 > 올리브영",
        "place_name": "올리브영 개롱역점",
        "label": "미용"
    },
    {
        "category_name": "가정,생활 > 드럭스토어 > 올리브영",
        "place_name": "올리브영 광나루역점",
        "label": "미용"
    },
    {
        "category_name": "가정,생활 > 드럭스토어 > 올리브영",
        "place_name": "올리브영 파르나스삼성 타운점",
        "label": "미용"
    },
    {
        "category_name": "가정,생활 > 드럭스토어 > 올리브영",
        "place_name": "올리브영 일원역점",
        "label": "미용"
    },
    {
        "category_name": "가정,생활 > 드럭스토어 > 올리브영",
        "place_name": "올리브영 대치사거리점",
        "label": "미용"
    },
    {
        "category_name": "가정,생활 > 드럭스토어 > 올리브영",
        "place_name": "올리브영 자양역점",
        "label": "미용"
    },
    {
        "category_name": "가정,생활 > 드럭스토어 > 올리브영",
        "place_name": "올리브영 선릉로점",
        "label": "미용"
    },
    {
        "category_name": "가정,생활 > 드럭스토어 > 올리브영",
        "place_name": "올리브영 대치점",
        "label": "미용"
    },
    {
        "category_name": "가정,생활 > 드럭스토어 > 올리브영",
        "place_name": "올리브영 건대타운점",
        "label": "미용"
    },
    {
        "category_name": "가정,생활 > 드럭스토어 > 올리브영",
        "place_name": "올리브영 올림픽아파트점",
        "label": "미용"
    },
    {
        "category_name": "가정,생활 > 드럭스토어 > 올리브영",
        "place_name": "올리브영 천호중앙점",
        "label": "미용"
    },
    {
        "category_name": "가정,생활 > 드럭스토어 > 올리브영",
        "place_name": "올리브영 건대입구점",
        "label": "미용"
    },
    {
        "category_name": "가정,생활 > 드럭스토어 > 올리브영",
        "place_name": "올리브영 대치역점",
        "label": "미용"
    },
    {
        "category_name": "가정,생활 > 드럭스토어 > 올리브영",
        "place_name": "올리브영 천호역점",
        "label": "미용"
    },
    {
        "category_name": "가정,생활 > 드럭스토어 > 올리브영",
        "place_name": "올리브영 강변엔터식스점",
        "label": "미용"
    },
    {
        "category_name": "가정,생활 > 드럭스토어 > 올리브영",
        "place_name": "올리브영 개롱역점",
        "label": "미용"
    },
    {
        "category_name": "가정,생활 > 드럭스토어 > 올리브영",
        "place_name": "올리브영 광나루역점",
        "label": "미용"
    },
    {
        "category_name": "가정,생활 > 드럭스토어 > 올리브영",
        "place_name": "올리브영 파르나스삼성 타운점",
        "label": "미용"
    },
    {
        "category_name": "가정,생활 > 드럭스토어 > 올리브영",
        "place_name": "올리브영 일원역점",
        "label": "미용"
    },
    {
        "category_name": "가정,생활 > 드럭스토어 > 올리브영",
        "place_name": "올리브영 대치사거리점",
        "label": "미용"
    },
    {
        "category_name": "가정,생활 > 드럭스토어 > 올리브영",
        "place_name": "올리브영 자양역점",
        "label": "미용"
    },
    {
        "category_name": "가정,생활 > 드럭스토어 > 올리브영",
        "place_name": "올리브영 선릉로점",
        "label": "미용"
    },
    {
        "category_name": "가정,생활 > 드럭스토어 > 올리브영",
        "place_name": "올리브영 대치점",
        "label": "미용"
    },
    {
        "category_name": "가정,생활 > 드럭스토어 > 올리브영",
        "place_name": "올리브영 건대타운점",
        "label": "미용"
    },
    {
        "category_name": "가정,생활 > 드럭스토어 > 올리브영",
        "place_name": "올리브영 올림픽아파트점",
        "label": "미용"
    },
    {
        "category_name": "가정,생활 > 드럭스토어 > 올리브영",
        "place_name": "올리브영 천호중앙점",
        "label": "미용"
    },
    {
        "category_name": "가정,생활 > 드럭스토어 > 올리브영",
        "place_name": "올리브영 건대입구점",
        "label": "미용"
    },
    {
        "category_name": "가정,생활 > 드럭스토어 > 올리브영",
        "place_name": "올리브영 대치역점",
        "label": "미용"
    },
    {
        "category_name": "가정,생활 > 드럭스토어 > 올리브영",
        "place_name": "올리브영 천호역점",
        "label": "미용"
    },
    {
        "category_name": "가정,생활 > 드럭스토어 > 올리브영",
        "place_name": "올리브영 강변엔터식스점",
        "label": "미용"
    },
    {
        "category_name": "가정,생활 > 드럭스토어 > 올리브영",
        "place_name": "올리브영 개롱역점",
        "label": "미용"
    },
    {
        "category_name": "가정,생활 > 드럭스토어 > 올리브영",
        "place_name": "올리브영 광나루역점",
        "label": "미용"
    },
    {
        "category_name": "가정,생활 > 드럭스토어 > 올리브영",
        "place_name": "올리브영 파르나스삼성 타운점",
        "label": "미용"
    },
    {
        "category_name": "가정,생활 > 드럭스토어 > 올리브영",
        "place_name": "올리브영 일원역점",
        "label": "미용"
    },
    {
        "category_name": "가정,생활 > 드럭스토어 > 올리브영",
        "place_name": "올리브영 대치사거리점",
        "label": "미용"
    },
    {
        "category_name": "가정,생활 > 드럭스토어 > 올리브영",
        "place_name": "올리브영 자양역점",
        "label": "미용"
    },
    {
        "category_name": "가정,생활 > 드럭스토어 > 올리브영",
        "place_name": "올리브영 선릉로점",
        "label": "미용"
    },
    {
        "category_name": "가정,생활 > 드럭스토어 > 올리브영",
        "place_name": "올리브영 대치점",
        "label": "미용"
    },
    {
        "category_name": "가정,생활 > 드럭스토어 > 올리브영",
        "place_name": "올리브영 건대타운점",
        "label": "미용"
    },
    {
        "category_name": "가정,생활 > 드럭스토어 > 올리브영",
        "place_name": "올리브영 올림픽아파트점",
        "label": "미용"
    },
    {
        "category_name": "가정,생활 > 드럭스토어 > 올리브영",
        "place_name": "올리브영 천호중앙점",
        "label": "미용"
    },
    {
        "category_name": "가정,생활 > 드럭스토어 > 올리브영",
        "place_name": "올리브영 건대입구점",
        "label": "미용"
    },
    {
        "category_name": "가정,생활 > 드럭스토어 > 올리브영",
        "place_name": "올리브영 대치역점",
        "label": "미용"
    },
    {
        "category_name": "가정,생활 > 드럭스토어 > 올리브영",
        "place_name": "올리브영 천호역점",
        "label": "미용"
    },
    {
        "category_name": "가정,생활 > 드럭스토어 > 올리브영",
        "place_name": "올리브영 강변엔터식스점",
        "label": "미용"
    },
    {
        "category_name": "가정,생활 > 드럭스토어 > 올리브영",
        "place_name": "올리브영 개롱역점",
        "label": "미용"
    },
    {
        "category_name": "가정,생활 > 드럭스토어 > 올리브영",
        "place_name": "올리브영 광나루역점",
        "label": "미용"
    },
    {
        "category_name": "가정,생활 > 드럭스토어 > 올리브영",
        "place_name": "올리브영 파르나스삼성 타운점",
        "label": "미용"
    },
    {
        "category_name": "가정,생활 > 드럭스토어 > 올리브영",
        "place_name": "올리브영 일원역점",
        "label": "미용"
    },
    {
        "category_name": "가정,생활 > 드럭스토어 > 올리브영",
        "place_name": "올리브영 대치사거리점",
        "label": "미용"
    },
    {
        "category_name": "가정,생활 > 드럭스토어 > 올리브영",
        "place_name": "올리브영 자양역점",
        "label": "미용"
    },
    {
        "category_name": "가정,생활 > 드럭스토어 > 올리브영",
        "place_name": "올리브영 선릉로점",
        "label": "미용"
    },
    {
        "category_name": "가정,생활 > 드럭스토어 > 올리브영",
        "place_name": "올리브영 대치점",
        "label": "미용"
    },
    {
        "category_name": "가정,생활 > 드럭스토어 > 올리브영",
        "place_name": "올리브영 건대타운점",
        "label": "미용"
    },
    {
        "category_name": "가정,생활 > 드럭스토어 > 올리브영",
        "place_name": "올리브영 올림픽아파트점",
        "label": "미용"
    },
    {
        "category_name": "가정,생활 > 드럭스토어 > 올리브영",
        "place_name": "올리브영 천호중앙점",
        "label": "미용"
    },
    {
        "category_name": "가정,생활 > 드럭스토어 > 올리브영",
        "place_name": "올리브영 건대입구점",
        "label": "미용"
    },
    {
        "category_name": "가정,생활 > 드럭스토어 > 올리브영",
        "place_name": "올리브영 대치역점",
        "label": "미용"
    },
    {
        "category_name": "가정,생활 > 드럭스토어 > 올리브영",
        "place_name": "올리브영 천호역점",
        "label": "미용"
    },
    {
        "category_name": "가정,생활 > 드럭스토어 > 올리브영",
        "place_name": "올리브영 강변엔터식스점",
        "label": "미용"
    },
    {
        "category_name": "가정,생활 > 드럭스토어 > 올리브영",
        "place_name": "올리브영 개롱역점",
        "label": "미용"
    },
    {
        "category_name": "가정,생활 > 드럭스토어 > 올리브영",
        "place_name": "올리브영 광나루역점",
        "label": "미용"
    },
    {
        "category_name": "가정,생활 > 드럭스토어 > 올리브영",
        "place_name": "올리브영 파르나스삼성 타운점",
        "label": "미용"
    },
    {
        "category_name": "가정,생활 > 드럭스토어 > 올리브영",
        "place_name": "올리브영 일원역점",
        "label": "미용"
    },
    {
        "category_name": "가정,생활 > 드럭스토어 > 올리브영",
        "place_name": "올리브영 대치사거리점",
        "label": "미용"
    },
    {
        "category_name": "가정,생활 > 드럭스토어 > 올리브영",
        "place_name": "올리브영 자양역점",
        "label": "미용"
    },
    {
        "category_name": "가정,생활 > 드럭스토어 > 올리브영",
        "place_name": "올리브영 선릉로점",
        "label": "미용"
    },
    {
        "category_name": "가정,생활 > 드럭스토어 > 올리브영",
        "place_name": "올리브영 대치점",
        "label": "미용"
    },
    {
        "category_name": "가정,생활 > 드럭스토어 > 올리브영",
        "place_name": "올리브영 건대타운점",
        "label": "미용"
    },
    {
        "category_name": "가정,생활 > 드럭스토어 > 올리브영",
        "place_name": "올리브영 올림픽아파트점",
        "label": "미용"
    },
    {
        "category_name": "가정,생활 > 드럭스토어 > 올리브영",
        "place_name": "올리브영 천호중앙점",
        "label": "미용"
    },
    {
        "category_name": "가정,생활 > 드럭스토어 > 올리브영",
        "place_name": "올리브영 건대입구점",
        "label": "미용"
    },
    {
        "category_name": "가정,생활 > 드럭스토어 > 올리브영",
        "place_name": "올리브영 대치역점",
        "label": "미용"
    },
    {
        "category_name": "가정,생활 > 드럭스토어 > 올리브영",
        "place_name": "올리브영 천호역점",
        "label": "미용"
    },
    {
        "category_name": "가정,생활 > 드럭스토어 > 올리브영",
        "place_name": "올리브영 강변엔터식스점",
        "label": "미용"
    },
    {
        "category_name": "가정,생활 > 드럭스토어 > 올리브영",
        "place_name": "올리브영 개롱역점",
        "label": "미용"
    },
    {
        "category_name": "가정,생활 > 드럭스토어 > 올리브영",
        "place_name": "올리브영 광나루역점",
        "label": "미용"
    },
    {
        "category_name": "가정,생활 > 드럭스토어 > 올리브영",
        "place_name": "올리브영 파르나스삼성 타운점",
        "label": "미용"
    },
    {
        "category_name": "가정,생활 > 드럭스토어 > 올리브영",
        "place_name": "올리브영 일원역점",
        "label": "미용"
    },
    {
        "category_name": "가정,생활 > 드럭스토어 > 올리브영",
        "place_name": "올리브영 대치사거리점",
        "label": "미용"
    },
    {
        "category_name": "가정,생활 > 드럭스토어 > 올리브영",
        "place_name": "올리브영 자양역점",
        "label": "미용"
    },
    {
        "category_name": "가정,생활 > 드럭스토어 > 올리브영",
        "place_name": "올리브영 선릉로점",
        "label": "미용"
    },
    {
        "category_name": "가정,생활 > 드럭스토어 > 올리브영",
        "place_name": "올리브영 대치점",
        "label": "미용"
    },
    {
        "category_name": "가정,생활 > 드럭스토어 > 올리브영",
        "place_name": "올리브영 건대타운점",
        "label": "미용"
    },
    {
        "category_name": "가정,생활 > 드럭스토어 > 올리브영",
        "place_name": "올리브영 올림픽아파트점",
        "label": "미용"
    },
    {
        "category_name": "가정,생활 > 드럭스토어 > 올리브영",
        "place_name": "올리브영 천호중앙점",
        "label": "미용"
    },
    {
        "category_name": "가정,생활 > 드럭스토어 > 올리브영",
        "place_name": "올리브영 건대입구점",
        "label": "미용"
    },
    {
        "category_name": "가정,생활 > 드럭스토어 > 올리브영",
        "place_name": "올리브영 대치역점",
        "label": "미용"
    },
    {
        "category_name": "가정,생활 > 드럭스토어 > 올리브영",
        "place_name": "올리브영 천호역점",
        "label": "미용"
    },
    {
        "category_name": "가정,생활 > 드럭스토어 > 올리브영",
        "place_name": "올리브영 강변엔터식스점",
        "label": "미용"
    },
    {
        "category_name": "가정,생활 > 드럭스토어 > 올리브영",
        "place_name": "올리브영 개롱역점",
        "label": "미용"
    },
    {
        "category_name": "가정,생활 > 드럭스토어 > 올리브영",
        "place_name": "올리브영 광나루역점",
        "label": "미용"
    },
    {
        "category_name": "가정,생활 > 드럭스토어 > 올리브영",
        "place_name": "올리브영 파르나스삼성 타운점",
        "label": "미용"
    },
    {
        "category_name": "가정,생활 > 드럭스토어 > 올리브영",
        "place_name": "올리브영 일원역점",
        "label": "미용"
    },
    {
        "category_name": "가정,생활 > 드럭스토어 > 올리브영",
        "place_name": "올리브영 대치사거리점",
        "label": "미용"
    },
    {
        "category_name": "가정,생활 > 드럭스토어 > 올리브영",
        "place_name": "올리브영 자양역점",
        "label": "미용"
    },
    {
        "category_name": "가정,생활 > 드럭스토어 > 올리브영",
        "place_name": "올리브영 선릉로점",
        "label": "미용"
    },
    {
        "category_name": "가정,생활 > 드럭스토어 > 올리브영",
        "place_name": "올리브영 대치점",
        "label": "미용"
    },
    {
        "category_name": "가정,생활 > 드럭스토어 > 올리브영",
        "place_name": "올리브영 건대타운점",
        "label": "미용"
    },
    {
        "category_name": "가정,생활 > 드럭스토어 > 올리브영",
        "place_name": "올리브영 올림픽아파트점",
        "label": "미용"
    },
    {
        "category_name": "가정,생활 > 드럭스토어 > 올리브영",
        "place_name": "올리브영 천호중앙점",
        "label": "미용"
    },
    {
        "category_name": "가정,생활 > 드럭스토어 > 올리브영",
        "place_name": "올리브영 건대입구점",
        "label": "미용"
    },
    {
        "category_name": "가정,생활 > 드럭스토어 > 올리브영",
        "place_name": "올리브영 대치역점",
        "label": "미용"
    },
    {
        "category_name": "가정,생활 > 드럭스토어 > 올리브영",
        "place_name": "올리브영 천호역점",
        "label": "미용"
    },
    {
        "category_name": "가정,생활 > 드럭스토어 > 올리브영",
        "place_name": "올리브영 강변엔터식스점",
        "label": "미용"
    },
    {
        "category_name": "가정,생활 > 드럭스토어 > 올리브영",
        "place_name": "올리브영 개롱역점",
        "label": "미용"
    },
    {
        "category_name": "가정,생활 > 드럭스토어 > 올리브영",
        "place_name": "올리브영 광나루역점",
        "label": "미용"
    },
    {
        "category_name": "가정,생활 > 드럭스토어 > 올리브영",
        "place_name": "올리브영 파르나스삼성 타운점",
        "label": "미용"
    },
    {
        "category_name": "가정,생활 > 드럭스토어 > 올리브영",
        "place_name": "올리브영 일원역점",
        "label": "미용"
    },
    {
        "category_name": "가정,생활 > 드럭스토어 > 올리브영",
        "place_name": "올리브영 대치사거리점",
        "label": "미용"
    },
    {
        "category_name": "가정,생활 > 드럭스토어 > 올리브영",
        "place_name": "올리브영 자양역점",
        "label": "미용"
    },
    {
        "category_name": "가정,생활 > 드럭스토어 > 올리브영",
        "place_name": "올리브영 선릉로점",
        "label": "미용"
    },
    {
        "category_name": "가정,생활 > 드럭스토어 > 올리브영",
        "place_name": "올리브영 대치점",
        "label": "미용"
    },
    {
        "category_name": "가정,생활 > 드럭스토어 > 올리브영",
        "place_name": "올리브영 건대타운점",
        "label": "미용"
    },
    {
        "category_name": "가정,생활 > 드럭스토어 > 올리브영",
        "place_name": "올리브영 올림픽아파트점",
        "label": "미용"
    },
    {
        "category_name": "가정,생활 > 드럭스토어 > 올리브영",
        "place_name": "올리브영 천호중앙점",
        "label": "미용"
    },
    {
        "category_name": "가정,생활 > 드럭스토어 > 올리브영",
        "place_name": "올리브영 건대입구점",
        "label": "미용"
    },
    {
        "category_name": "가정,생활 > 드럭스토어 > 올리브영",
        "place_name": "올리브영 대치역점",
        "label": "미용"
    },
    {
        "category_name": "가정,생활 > 드럭스토어 > 올리브영",
        "place_name": "올리브영 천호역점",
        "label": "미용"
    },
    {
        "category_name": "가정,생활 > 드럭스토어 > 올리브영",
        "place_name": "올리브영 강변엔터식스점",
        "label": "미용"
    },
    {
        "category_name": "가정,생활 > 드럭스토어 > 올리브영",
        "place_name": "올리브영 개롱역점",
        "label": "미용"
    },
    {
        "category_name": "가정,생활 > 드럭스토어 > 올리브영",
        "place_name": "올리브영 광나루역점",
        "label": "미용"
    },
    {
        "category_name": "가정,생활 > 드럭스토어 > 올리브영",
        "place_name": "올리브영 파르나스삼성 타운점",
        "label": "미용"
    },
    {
        "category_name": "가정,생활 > 드럭스토어 > 올리브영",
        "place_name": "올리브영 일원역점",
        "label": "미용"
    },
    {
        "category_name": "가정,생활 > 드럭스토어 > 올리브영",
        "place_name": "올리브영 대치사거리점",
        "label": "미용"
    },
    {
        "category_name": "가정,생활 > 드럭스토어 > 올리브영",
        "place_name": "올리브영 자양역점",
        "label": "미용"
    },
    {
        "category_name": "가정,생활 > 드럭스토어 > 올리브영",
        "place_name": "올리브영 선릉로점",
        "label": "미용"
    },
    {
        "category_name": "가정,생활 > 드럭스토어 > 올리브영",
        "place_name": "올리브영 대치점",
        "label": "미용"
    },
    {
        "category_name": "가정,생활 > 드럭스토어 > 올리브영",
        "place_name": "올리브영 건대타운점",
        "label": "미용"
    },
    {
        "category_name": "가정,생활 > 드럭스토어 > 올리브영",
        "place_name": "올리브영 올림픽아파트점",
        "label": "미용"
    },
    {
        "category_name": "가정,생활 > 드럭스토어 > 올리브영",
        "place_name": "올리브영 천호중앙점",
        "label": "미용"
    },
    {
        "category_name": "가정,생활 > 드럭스토어 > 올리브영",
        "place_name": "올리브영 건대입구점",
        "label": "미용"
    },
    {
        "category_name": "가정,생활 > 드럭스토어 > 올리브영",
        "place_name": "올리브영 대치역점",
        "label": "미용"
    },
    {
        "category_name": "가정,생활 > 드럭스토어 > 올리브영",
        "place_name": "올리브영 천호역점",
        "label": "미용"
    },
    {
        "category_name": "가정,생활 > 드럭스토어 > 올리브영",
        "place_name": "올리브영 강변엔터식스점",
        "label": "미용"
    },
    {
        "category_name": "가정,생활 > 드럭스토어 > 올리브영",
        "place_name": "올리브영 개롱역점",
        "label": "미용"
    },
    {
        "category_name": "가정,생활 > 드럭스토어 > 올리브영",
        "place_name": "올리브영 광나루역점",
        "label": "미용"
    },
    {
        "category_name": "가정,생활 > 드럭스토어 > 올리브영",
        "place_name": "올리브영 파르나스삼성 타운점",
        "label": "미용"
    },
    {
        "category_name": "가정,생활 > 드럭스토어 > 올리브영",
        "place_name": "올리브영 일원역점",
        "label": "미용"
    },
    {
        "category_name": "가정,생활 > 드럭스토어 > 올리브영",
        "place_name": "올리브영 대치사거리점",
        "label": "미용"
    },
    {
        "category_name": "가정,생활 > 드럭스토어 > 올리브영",
        "place_name": "올리브영 자양역점",
        "label": "미용"
    },
    {
        "category_name": "가정,생활 > 드럭스토어 > 올리브영",
        "place_name": "올리브영 선릉로점",
        "label": "미용"
    },
    {
        "category_name": "가정,생활 > 드럭스토어 > 올리브영",
        "place_name": "올리브영 대치점",
        "label": "미용"
    },
    {
        "category_name": "가정,생활 > 드럭스토어 > 올리브영",
        "place_name": "올리브영 건대타운점",
        "label": "미용"
    },
    {
        "category_name": "가정,생활 > 드럭스토어 > 올리브영",
        "place_name": "올리브영 올림픽아파트점",
        "label": "미용"
    },
    {
        "category_name": "가정,생활 > 드럭스토어 > 올리브영",
        "place_name": "올리브영 천호중앙점",
        "label": "미용"
    },
    {
        "category_name": "가정,생활 > 드럭스토어 > 올리브영",
        "place_name": "올리브영 건대입구점",
        "label": "미용"
    },
    {
        "category_name": "가정,생활 > 드럭스토어 > 올리브영",
        "place_name": "올리브영 대치역점",
        "label": "미용"
    },
    {
        "category_name": "가정,생활 > 드럭스토어 > 올리브영",
        "place_name": "올리브영 천호역점",
        "label": "미용"
    },
    {
        "category_name": "가정,생활 > 드럭스토어 > 올리브영",
        "place_name": "올리브영 강변엔터식스점",
        "label": "미용"
    },
    {
        "category_name": "가정,생활 > 드럭스토어 > 올리브영",
        "place_name": "올리브영 개롱역점",
        "label": "미용"
    },
    {
        "category_name": "가정,생활 > 드럭스토어 > 올리브영",
        "place_name": "올리브영 광나루역점",
        "label": "미용"
    },
    {
        "category_name": "가정,생활 > 드럭스토어 > 올리브영",
        "place_name": "올리브영 파르나스삼성 타운점",
        "label": "미용"
    },
    {
        "category_name": "가정,생활 > 드럭스토어 > 올리브영",
        "place_name": "올리브영 일원역점",
        "label": "미용"
    },
    {
        "category_name": "가정,생활 > 드럭스토어 > 올리브영",
        "place_name": "올리브영 대치사거리점",
        "label": "미용"
    },
    {
        "category_name": "가정,생활 > 드럭스토어 > 올리브영",
        "place_name": "올리브영 자양역점",
        "label": "미용"
    },
    {
        "category_name": "가정,생활 > 드럭스토어 > 올리브영",
        "place_name": "올리브영 선릉로점",
        "label": "미용"
    },
    {
        "category_name": "가정,생활 > 드럭스토어 > 올리브영",
        "place_name": "올리브영 대치점",
        "label": "미용"
    },
    {
        "category_name": "가정,생활 > 드럭스토어 > 올리브영",
        "place_name": "올리브영 건대타운점",
        "label": "미용"
    },
    {
        "category_name": "가정,생활 > 드럭스토어 > 올리브영",
        "place_name": "올리브영 올림픽아파트점",
        "label": "미용"
    },
    {
        "category_name": "가정,생활 > 드럭스토어 > 올리브영",
        "place_name": "올리브영 천호중앙점",
        "label": "미용"
    },
    {
        "category_name": "가정,생활 > 드럭스토어 > 올리브영",
        "place_name": "올리브영 건대입구점",
        "label": "미용"
    },
    {
        "category_name": "가정,생활 > 드럭스토어 > 올리브영",
        "place_name": "올리브영 대치역점",
        "label": "미용"
    },
    {
        "category_name": "가정,생활 > 드럭스토어 > 올리브영",
        "place_name": "올리브영 천호역점",
        "label": "미용"
    },
    {
        "category_name": "가정,생활 > 드럭스토어 > 올리브영",
        "place_name": "올리브영 강변엔터식스점",
        "label": "미용"
    },
    {
        "category_name": "가정,생활 > 드럭스토어 > 올리브영",
        "place_name": "올리브영 개롱역점",
        "label": "미용"
    },
    {
        "category_name": "가정,생활 > 드럭스토어 > 올리브영",
        "place_name": "올리브영 광나루역점",
        "label": "미용"
    },
    {
        "category_name": "가정,생활 > 드럭스토어 > 올리브영",
        "place_name": "올리브영 파르나스삼성 타운점",
        "label": "미용"
    },
    {
        "category_name": "가정,생활 > 드럭스토어 > 올리브영",
        "place_name": "올리브영 일원역점",
        "label": "미용"
    },
    {
        "category_name": "가정,생활 > 드럭스토어 > 올리브영",
        "place_name": "올리브영 대치사거리점",
        "label": "미용"
    },
    {
        "category_name": "가정,생활 > 드럭스토어 > 올리브영",
        "place_name": "올리브영 자양역점",
        "label": "미용"
    },
    {
        "category_name": "가정,생활 > 드럭스토어 > 올리브영",
        "place_name": "올리브영 선릉로점",
        "label": "미용"
    },
    {
        "category_name": "가정,생활 > 드럭스토어 > 올리브영",
        "place_name": "올리브영 대치점",
        "label": "미용"
    },
    {
        "category_name": "가정,생활 > 드럭스토어 > 올리브영",
        "place_name": "올리브영 건대타운점",
        "label": "미용"
    },
    {
        "category_name": "가정,생활 > 드럭스토어 > 올리브영",
        "place_name": "올리브영 올림픽아파트점",
        "label": "미용"
    },
    {
        "category_name": "가정,생활 > 드럭스토어 > 올리브영",
        "place_name": "올리브영 천호중앙점",
        "label": "미용"
    },
    {
        "category_name": "가정,생활 > 드럭스토어 > 올리브영",
        "place_name": "올리브영 건대입구점",
        "label": "미용"
    },
    {
        "category_name": "가정,생활 > 드럭스토어 > 올리브영",
        "place_name": "올리브영 대치역점",
        "label": "미용"
    },
    {
        "category_name": "가정,생활 > 드럭스토어 > 올리브영",
        "place_name": "올리브영 천호역점",
        "label": "미용"
    },
    {
        "category_name": "가정,생활 > 드럭스토어 > 올리브영",
        "place_name": "올리브영 강변엔터식스점",
        "label": "미용"
    },
    {
        "category_name": "가정,생활 > 드럭스토어 > 올리브영",
        "place_name": "올리브영 개롱역점",
        "label": "미용"
    },
    {
        "category_name": "가정,생활 > 드럭스토어 > 올리브영",
        "place_name": "올리브영 광나루역점",
        "label": "미용"
    },
    {
        "category_name": "가정,생활 > 드럭스토어 > 올리브영",
        "place_name": "올리브영 파르나스삼성 타운점",
        "label": "미용"
    },
    {
        "category_name": "가정,생활 > 드럭스토어 > 올리브영",
        "place_name": "올리브영 일원역점",
        "label": "미용"
    },
    {
        "category_name": "가정,생활 > 드럭스토어 > 올리브영",
        "place_name": "올리브영 대치사거리점",
        "label": "미용"
    },
    {
        "category_name": "가정,생활 > 드럭스토어 > 올리브영",
        "place_name": "올리브영 자양역점",
        "label": "미용"
    },
    {
        "category_name": "가정,생활 > 드럭스토어 > 올리브영",
        "place_name": "올리브영 선릉로점",
        "label": "미용"
    },
    {
        "category_name": "가정,생활 > 드럭스토어 > 올리브영",
        "place_name": "올리브영 대치점",
        "label": "미용"
    },
    {
        "category_name": "가정,생활 > 드럭스토어 > 올리브영",
        "place_name": "올리브영 건대타운점",
        "label": "미용"
    },
    {
        "category_name": "가정,생활 > 드럭스토어 > 올리브영",
        "place_name": "올리브영 올림픽아파트점",
        "label": "미용"
    },
    {
        "category_name": "가정,생활 > 드럭스토어 > 올리브영",
        "place_name": "올리브영 천호중앙점",
        "label": "미용"
    },
    {
        "category_name": "가정,생활 > 드럭스토어 > 올리브영",
        "place_name": "올리브영 건대입구점",
        "label": "미용"
    },
    {
        "category_name": "가정,생활 > 드럭스토어 > 올리브영",
        "place_name": "올리브영 대치역점",
        "label": "미용"
    },
    {
        "category_name": "가정,생활 > 드럭스토어 > 올리브영",
        "place_name": "올리브영 천호역점",
        "label": "미용"
    },
    {
        "category_name": "가정,생활 > 드럭스토어 > 올리브영",
        "place_name": "올리브영 강변엔터식스점",
        "label": "미용"
    },
    {
        "category_name": "가정,생활 > 드럭스토어 > 올리브영",
        "place_name": "올리브영 개롱역점",
        "label": "미용"
    },
    {
        "category_name": "가정,생활 > 드럭스토어 > 올리브영",
        "place_name": "올리브영 광나루역점",
        "label": "미용"
    },
    {
        "category_name": "가정,생활 > 드럭스토어 > 올리브영",
        "place_name": "올리브영 파르나스삼성 타운점",
        "label": "미용"
    },
    {
        "category_name": "가정,생활 > 드럭스토어 > 올리브영",
        "place_name": "올리브영 일원역점",
        "label": "미용"
    },
    {
        "category_name": "가정,생활 > 드럭스토어 > 올리브영",
        "place_name": "올리브영 대치사거리점",
        "label": "미용"
    },
    {
        "category_name": "가정,생활 > 드럭스토어 > 올리브영",
        "place_name": "올리브영 자양역점",
        "label": "미용"
    },
    {
        "category_name": "가정,생활 > 드럭스토어 > 올리브영",
        "place_name": "올리브영 선릉로점",
        "label": "미용"
    },
    {
        "category_name": "가정,생활 > 드럭스토어 > 올리브영",
        "place_name": "올리브영 대치점",
        "label": "미용"
    },
    {
        "category_name": "가정,생활 > 드럭스토어 > 올리브영",
        "place_name": "올리브영 건대타운점",
        "label": "미용"
    },
    {
        "category_name": "가정,생활 > 드럭스토어 > 올리브영",
        "place_name": "올리브영 올림픽아파트점",
        "label": "미용"
    },
    {
        "category_name": "가정,생활 > 드럭스토어 > 올리브영",
        "place_name": "올리브영 천호중앙점",
        "label": "미용"
    },
    {
        "category_name": "가정,생활 > 드럭스토어 > 올리브영",
        "place_name": "올리브영 건대입구점",
        "label": "미용"
    },
    {
        "category_name": "가정,생활 > 드럭스토어 > 올리브영",
        "place_name": "올리브영 대치역점",
        "label": "미용"
    },
    {
        "category_name": "가정,생활 > 드럭스토어 > 올리브영",
        "place_name": "올리브영 천호역점",
        "label": "미용"
    },
    {
        "category_name": "가정,생활 > 드럭스토어 > 올리브영",
        "place_name": "올리브영 강변엔터식스점",
        "label": "미용"
    },
    {
        "category_name": "가정,생활 > 드럭스토어 > 올리브영",
        "place_name": "올리브영 개롱역점",
        "label": "미용"
    },
    {
        "category_name": "가정,생활 > 드럭스토어 > 올리브영",
        "place_name": "올리브영 광나루역점",
        "label": "미용"
    },
    {
        "category_name": "가정,생활 > 드럭스토어 > 올리브영",
        "place_name": "올리브영 파르나스삼성 타운점",
        "label": "미용"
    },
    {
        "category_name": "가정,생활 > 드럭스토어 > 올리브영",
        "place_name": "올리브영 일원역점",
        "label": "미용"
    },
    {
        "category_name": "가정,생활 > 드럭스토어 > 올리브영",
        "place_name": "올리브영 대치사거리점",
        "label": "미용"
    },
    {
        "category_name": "가정,생활 > 드럭스토어 > 올리브영",
        "place_name": "올리브영 자양역점",
        "label": "미용"
    },
    {
        "category_name": "가정,생활 > 드럭스토어 > 올리브영",
        "place_name": "올리브영 선릉로점",
        "label": "미용"
    },
    {
        "category_name": "가정,생활 > 드럭스토어 > 올리브영",
        "place_name": "올리브영 대치점",
        "label": "미용"
    },
    {
        "category_name": "가정,생활 > 드럭스토어 > 올리브영",
        "place_name": "올리브영 건대타운점",
        "label": "미용"
    },
    {
        "category_name": "가정,생활 > 드럭스토어 > 올리브영",
        "place_name": "올리브영 올림픽아파트점",
        "label": "미용"
    },
    {
        "category_name": "가정,생활 > 드럭스토어 > 올리브영",
        "place_name": "올리브영 천호중앙점",
        "label": "미용"
    },
    {
        "category_name": "가정,생활 > 드럭스토어 > 올리브영",
        "place_name": "올리브영 건대입구점",
        "label": "미용"
    },
    {
        "category_name": "가정,생활 > 드럭스토어 > 올리브영",
        "place_name": "올리브영 대치역점",
        "label": "미용"
    },
    {
        "category_name": "가정,생활 > 드럭스토어 > 올리브영",
        "place_name": "올리브영 천호역점",
        "label": "미용"
    },
    {
        "category_name": "가정,생활 > 드럭스토어 > 올리브영",
        "place_name": "올리브영 강변엔터식스점",
        "label": "미용"
    },
    {
        "category_name": "가정,생활 > 드럭스토어 > 올리브영",
        "place_name": "올리브영 개롱역점",
        "label": "미용"
    },
    {
        "category_name": "가정,생활 > 드럭스토어 > 올리브영",
        "place_name": "올리브영 광나루역점",
        "label": "미용"
    },
    {
        "category_name": "가정,생활 > 드럭스토어 > 올리브영",
        "place_name": "올리브영 파르나스삼성 타운점",
        "label": "미용"
    },
    {
        "category_name": "가정,생활 > 드럭스토어 > 올리브영",
        "place_name": "올리브영 일원역점",
        "label": "미용"
    },
    {
        "category_name": "가정,생활 > 드럭스토어 > 올리브영",
        "place_name": "올리브영 대치사거리점",
        "label": "미용"
    },
    {
        "category_name": "가정,생활 > 드럭스토어 > 올리브영",
        "place_name": "올리브영 자양역점",
        "label": "미용"
    },
    {
        "category_name": "가정,생활 > 드럭스토어 > 올리브영",
        "place_name": "올리브영 선릉로점",
        "label": "미용"
    },
    {
        "category_name": "가정,생활 > 드럭스토어 > 올리브영",
        "place_name": "올리브영 대치점",
        "label": "미용"
    },
    {
        "category_name": "가정,생활 > 드럭스토어 > 올리브영",
        "place_name": "올리브영 건대타운점",
        "label": "미용"
    },
    {
        "category_name": "가정,생활 > 드럭스토어 > 올리브영",
        "place_name": "올리브영 올림픽아파트점",
        "label": "미용"
    },
    {
        "category_name": "가정,생활 > 드럭스토어 > 올리브영",
        "place_name": "올리브영 천호중앙점",
        "label": "미용"
    },
    {
        "category_name": "가정,생활 > 드럭스토어 > 올리브영",
        "place_name": "올리브영 건대입구점",
        "label": "미용"
    },
    {
        "category_name": "가정,생활 > 드럭스토어 > 올리브영",
        "place_name": "올리브영 대치역점",
        "label": "미용"
    },
    {
        "category_name": "가정,생활 > 드럭스토어 > 올리브영",
        "place_name": "올리브영 천호역점",
        "label": "미용"
    },
    {
        "category_name": "가정,생활 > 드럭스토어 > 올리브영",
        "place_name": "올리브영 강변엔터식스점",
        "label": "미용"
    },
    {
        "category_name": "가정,생활 > 드럭스토어 > 올리브영",
        "place_name": "올리브영 개롱역점",
        "label": "미용"
    },
    {
        "category_name": "가정,생활 > 드럭스토어 > 올리브영",
        "place_name": "올리브영 광나루역점",
        "label": "미용"
    },
    {
        "category_name": "가정,생활 > 드럭스토어 > 올리브영",
        "place_name": "올리브영 파르나스삼성 타운점",
        "label": "미용"
    },
    {
        "category_name": "가정,생활 > 드럭스토어 > 올리브영",
        "place_name": "올리브영 일원역점",
        "label": "미용"
    },
    {
        "category_name": "가정,생활 > 드럭스토어 > 올리브영",
        "place_name": "올리브영 대치사거리점",
        "label": "미용"
    },
    {
        "category_name": "가정,생활 > 드럭스토어 > 올리브영",
        "place_name": "올리브영 자양역점",
        "label": "미용"
    },
    {
        "category_name": "가정,생활 > 드럭스토어 > 올리브영",
        "place_name": "올리브영 선릉로점",
        "label": "미용"
    },
    {
        "category_name": "가정,생활 > 드럭스토어 > 올리브영",
        "place_name": "올리브영 대치점",
        "label": "미용"
    },
    {
        "category_name": "가정,생활 > 드럭스토어 > 올리브영",
        "place_name": "올리브영 건대타운점",
        "label": "미용"
    },
    {
        "category_name": "가정,생활 > 드럭스토어 > 올리브영",
        "place_name": "올리브영 올림픽아파트점",
        "label": "미용"
    },
    {
        "category_name": "가정,생활 > 드럭스토어 > 올리브영",
        "place_name": "올리브영 천호중앙점",
        "label": "미용"
    },
    {
        "category_name": "가정,생활 > 드럭스토어 > 올리브영",
        "place_name": "올리브영 건대입구점",
        "label": "미용"
    },
    {
        "category_name": "가정,생활 > 드럭스토어 > 올리브영",
        "place_name": "올리브영 대치역점",
        "label": "미용"
    },
    {
        "category_name": "가정,생활 > 드럭스토어 > 올리브영",
        "place_name": "올리브영 천호역점",
        "label": "미용"
    },
    {
        "category_name": "가정,생활 > 드럭스토어 > 올리브영",
        "place_name": "올리브영 강변엔터식스점",
        "label": "미용"
    },
    {
        "category_name": "가정,생활 > 드럭스토어 > 올리브영",
        "place_name": "올리브영 개롱역점",
        "label": "미용"
    },
    {
        "category_name": "가정,생활 > 드럭스토어 > 올리브영",
        "place_name": "올리브영 광나루역점",
        "label": "미용"
    },
    {
        "category_name": "가정,생활 > 드럭스토어 > 올리브영",
        "place_name": "올리브영 파르나스삼성 타운점",
        "label": "미용"
    },
    {
        "category_name": "가정,생활 > 드럭스토어 > 올리브영",
        "place_name": "올리브영 일원역점",
        "label": "미용"
    },
    {
        "category_name": "가정,생활 > 드럭스토어 > 올리브영",
        "place_name": "올리브영 대치사거리점",
        "label": "미용"
    },
    {
        "category_name": "가정,생활 > 드럭스토어 > 올리브영",
        "place_name": "올리브영 자양역점",
        "label": "미용"
    },
    {
        "category_name": "가정,생활 > 드럭스토어 > 올리브영",
        "place_name": "올리브영 선릉로점",
        "label": "미용"
    },
    {
        "category_name": "가정,생활 > 드럭스토어 > 올리브영",
        "place_name": "올리브영 대치점",
        "label": "미용"
    },
    {
        "category_name": "가정,생활 > 드럭스토어 > 올리브영",
        "place_name": "올리브영 건대타운점",
        "label": "미용"
    },
    {
        "category_name": "가정,생활 > 드럭스토어 > 올리브영",
        "place_name": "올리브영 올림픽아파트점",
        "label": "미용"
    },
    {
        "category_name": "가정,생활 > 드럭스토어 > 올리브영",
        "place_name": "올리브영 천호중앙점",
        "label": "미용"
    },
    {
        "category_name": "가정,생활 > 드럭스토어 > 올리브영",
        "place_name": "올리브영 건대입구점",
        "label": "미용"
    },
    {
        "category_name": "가정,생활 > 드럭스토어 > 올리브영",
        "place_name": "올리브영 대치역점",
        "label": "미용"
    },
    {
        "category_name": "가정,생활 > 드럭스토어 > 올리브영",
        "place_name": "올리브영 천호역점",
        "label": "미용"
    },
    {
        "category_name": "가정,생활 > 드럭스토어 > 올리브영",
        "place_name": "올리브영 강변엔터식스점",
        "label": "미용"
    },
    {
        "category_name": "가정,생활 > 드럭스토어 > 올리브영",
        "place_name": "올리브영 개롱역점",
        "label": "미용"
    },
    {
        "category_name": "가정,생활 > 드럭스토어 > 올리브영",
        "place_name": "올리브영 광나루역점",
        "label": "미용"
    },
    {
        "category_name": "가정,생활 > 드럭스토어 > 올리브영",
        "place_name": "올리브영 파르나스삼성 타운점",
        "label": "미용"
    },
    {
        "category_name": "가정,생활 > 드럭스토어 > 올리브영",
        "place_name": "올리브영 일원역점",
        "label": "미용"
    },
    {
        "category_name": "가정,생활 > 드럭스토어 > 올리브영",
        "place_name": "올리브영 대치사거리점",
        "label": "미용"
    },
    {
        "category_name": "가정,생활 > 드럭스토어 > 올리브영",
        "place_name": "올리브영 자양역점",
        "label": "미용"
    },
    {
        "category_name": "가정,생활 > 드럭스토어 > 올리브영",
        "place_name": "올리브영 선릉로점",
        "label": "미용"
    },
    {
        "category_name": "가정,생활 > 드럭스토어 > 올리브영",
        "place_name": "올리브영 대치점",
        "label": "미용"
    },
    {
        "category_name": "가정,생활 > 드럭스토어 > 올리브영",
        "place_name": "올리브영 건대타운점",
        "label": "미용"
    },
    {
        "category_name": "가정,생활 > 드럭스토어 > 올리브영",
        "place_name": "올리브영 올림픽아파트점",
        "label": "미용"
    },
    {
        "category_name": "가정,생활 > 드럭스토어 > 올리브영",
        "place_name": "올리브영 천호중앙점",
        "label": "미용"
    },
    {
        "category_name": "가정,생활 > 드럭스토어 > 올리브영",
        "place_name": "올리브영 건대입구점",
        "label": "미용"
    },
    {
        "category_name": "가정,생활 > 드럭스토어 > 올리브영",
        "place_name": "올리브영 대치역점",
        "label": "미용"
    },
    {
        "category_name": "가정,생활 > 드럭스토어 > 올리브영",
        "place_name": "올리브영 천호역점",
        "label": "미용"
    },
    {
        "category_name": "가정,생활 > 드럭스토어 > 올리브영",
        "place_name": "올리브영 강변엔터식스점",
        "label": "미용"
    },
    {
        "category_name": "가정,생활 > 드럭스토어 > 올리브영",
        "place_name": "올리브영 개롱역점",
        "label": "미용"
    },
    {
        "category_name": "가정,생활 > 드럭스토어 > 올리브영",
        "place_name": "올리브영 광나루역점",
        "label": "미용"
    },
    {
        "category_name": "가정,생활 > 드럭스토어 > 올리브영",
        "place_name": "올리브영 파르나스삼성 타운점",
        "label": "미용"
    },
    {
        "category_name": "가정,생활 > 드럭스토어 > 올리브영",
        "place_name": "올리브영 일원역점",
        "label": "미용"
    },
    {
        "category_name": "가정,생활 > 드럭스토어 > 올리브영",
        "place_name": "올리브영 대치사거리점",
        "label": "미용"
    },
    {
        "category_name": "가정,생활 > 드럭스토어 > 올리브영",
        "place_name": "올리브영 자양역점",
        "label": "미용"
    },
    {
        "category_name": "가정,생활 > 드럭스토어 > 올리브영",
        "place_name": "올리브영 선릉로점",
        "label": "미용"
    },
    {
        "category_name": "가정,생활 > 드럭스토어 > 올리브영",
        "place_name": "올리브영 대치점",
        "label": "미용"
    },
    {
        "category_name": "가정,생활 > 드럭스토어 > 올리브영",
        "place_name": "올리브영 건대타운점",
        "label": "미용"
    },
    {
        "category_name": "가정,생활 > 드럭스토어 > 올리브영",
        "place_name": "올리브영 올림픽아파트점",
        "label": "미용"
    },
    {
        "category_name": "가정,생활 > 드럭스토어 > 올리브영",
        "place_name": "올리브영 천호중앙점",
        "label": "미용"
    },
    {
        "category_name": "가정,생활 > 드럭스토어 > 올리브영",
        "place_name": "올리브영 건대입구점",
        "label": "미용"
    },
    {
        "category_name": "가정,생활 > 드럭스토어 > 올리브영",
        "place_name": "올리브영 대치역점",
        "label": "미용"
    },
    {
        "category_name": "가정,생활 > 드럭스토어 > 올리브영",
        "place_name": "올리브영 천호역점",
        "label": "미용"
    },
    {
        "category_name": "가정,생활 > 드럭스토어 > 올리브영",
        "place_name": "올리브영 강변엔터식스점",
        "label": "미용"
    },
    {
        "category_name": "가정,생활 > 드럭스토어 > 올리브영",
        "place_name": "올리브영 개롱역점",
        "label": "미용"
    },
    {
        "category_name": "가정,생활 > 드럭스토어 > 올리브영",
        "place_name": "올리브영 광나루역점",
        "label": "미용"
    },
    {
        "category_name": "가정,생활 > 드럭스토어 > 올리브영",
        "place_name": "올리브영 파르나스삼성 타운점",
        "label": "미용"
    },
    {
        "category_name": "가정,생활 > 드럭스토어 > 올리브영",
        "place_name": "올리브영 일원역점",
        "label": "미용"
    },
    {
        "category_name": "가정,생활 > 드럭스토어 > 올리브영",
        "place_name": "올리브영 대치사거리점",
        "label": "미용"
    },
    {
        "category_name": "가정,생활 > 드럭스토어 > 올리브영",
        "place_name": "올리브영 자양역점",
        "label": "미용"
    },
    {
        "category_name": "가정,생활 > 드럭스토어 > 올리브영",
        "place_name": "올리브영 선릉로점",
        "label": "미용"
    },
    {
        "category_name": "가정,생활 > 드럭스토어 > 올리브영",
        "place_name": "올리브영 대치점",
        "label": "미용"
    },
    {
        "category_name": "가정,생활 > 드럭스토어 > 올리브영",
        "place_name": "올리브영 건대타운점",
        "label": "미용"
    },
    {
        "category_name": "가정,생활 > 드럭스토어 > 올리브영",
        "place_name": "올리브영 올림픽아파트점",
        "label": "미용"
    },
    {
        "category_name": "가정,생활 > 드럭스토어 > 올리브영",
        "place_name": "올리브영 천호중앙점",
        "label": "미용"
    },
    {
        "category_name": "가정,생활 > 드럭스토어 > 올리브영",
        "place_name": "올리브영 건대입구점",
        "label": "미용"
    },
    {
        "category_name": "가정,생활 > 드럭스토어 > 올리브영",
        "place_name": "올리브영 대치역점",
        "label": "미용"
    },
    {
        "category_name": "가정,생활 > 드럭스토어 > 올리브영",
        "place_name": "올리브영 천호역점",
        "label": "미용"
    },
    {
        "category_name": "가정,생활 > 드럭스토어 > 올리브영",
        "place_name": "올리브영 강변엔터식스점",
        "label": "미용"
    },
    {
        "category_name": "가정,생활 > 드럭스토어 > 올리브영",
        "place_name": "올리브영 개롱역점",
        "label": "미용"
    },
    {
        "category_name": "가정,생활 > 드럭스토어 > 올리브영",
        "place_name": "올리브영 광나루역점",
        "label": "미용"
    },
    {
        "category_name": "가정,생활 > 드럭스토어 > 올리브영",
        "place_name": "올리브영 파르나스삼성 타운점",
        "label": "미용"
    },
    {
        "category_name": "가정,생활 > 드럭스토어 > 올리브영",
        "place_name": "올리브영 일원역점",
        "label": "미용"
    },
    {
        "category_name": "가정,생활 > 드럭스토어 > 올리브영",
        "place_name": "올리브영 대치사거리점",
        "label": "미용"
    },
    {
        "category_name": "가정,생활 > 드럭스토어 > 올리브영",
        "place_name": "올리브영 자양역점",
        "label": "미용"
    },
    {
        "category_name": "가정,생활 > 드럭스토어 > 올리브영",
        "place_name": "올리브영 선릉로점",
        "label": "미용"
    },
    {
        "category_name": "가정,생활 > 드럭스토어 > 올리브영",
        "place_name": "올리브영 대치점",
        "label": "미용"
    },
    {
        "category_name": "가정,생활 > 드럭스토어 > 올리브영",
        "place_name": "올리브영 건대타운점",
        "label": "미용"
    },
    {
        "category_name": "가정,생활 > 드럭스토어 > 올리브영",
        "place_name": "올리브영 올림픽아파트점",
        "label": "미용"
    },
    {
        "category_name": "가정,생활 > 드럭스토어 > 올리브영",
        "place_name": "올리브영 천호중앙점",
        "label": "미용"
    },
    {
        "category_name": "가정,생활 > 드럭스토어 > 올리브영",
        "place_name": "올리브영 건대입구점",
        "label": "미용"
    },
    {
        "category_name": "가정,생활 > 드럭스토어 > 올리브영",
        "place_name": "올리브영 대치역점",
        "label": "미용"
    },
    {
        "category_name": "가정,생활 > 드럭스토어 > 올리브영",
        "place_name": "올리브영 천호역점",
        "label": "미용"
    },
    {
        "category_name": "가정,생활 > 드럭스토어 > 올리브영",
        "place_name": "올리브영 강변엔터식스점",
        "label": "미용"
    },
    {
        "category_name": "가정,생활 > 드럭스토어 > 올리브영",
        "place_name": "올리브영 개롱역점",
        "label": "미용"
    },
    {
        "category_name": "가정,생활 > 드럭스토어 > 올리브영",
        "place_name": "올리브영 광나루역점",
        "label": "미용"
    },
    {
        "category_name": "가정,생활 > 드럭스토어 > 올리브영",
        "place_name": "올리브영 파르나스삼성 타운점",
        "label": "미용"
    },
    {
        "category_name": "가정,생활 > 드럭스토어 > 올리브영",
        "place_name": "올리브영 일원역점",
        "label": "미용"
    },
    {
        "category_name": "가정,생활 > 드럭스토어 > 올리브영",
        "place_name": "올리브영 대치사거리점",
        "label": "미용"
    },
    {
        "category_name": "가정,생활 > 드럭스토어 > 올리브영",
        "place_name": "올리브영 자양역점",
        "label": "미용"
    },
    {
        "category_name": "가정,생활 > 드럭스토어 > 올리브영",
        "place_name": "올리브영 선릉로점",
        "label": "미용"
    },
    {
        "category_name": "가정,생활 > 드럭스토어 > 올리브영",
        "place_name": "올리브영 대치점",
        "label": "미용"
    },
    {
        "category_name": "가정,생활 > 드럭스토어 > 올리브영",
        "place_name": "올리브영 건대타운점",
        "label": "미용"
    },
    {
        "category_name": "가정,생활 > 드럭스토어 > 올리브영",
        "place_name": "올리브영 올림픽아파트점",
        "label": "미용"
    },
    {
        "category_name": "가정,생활 > 드럭스토어 > 올리브영",
        "place_name": "올리브영 천호중앙점",
        "label": "미용"
    },
    {
        "category_name": "가정,생활 > 드럭스토어 > 올리브영",
        "place_name": "올리브영 건대입구점",
        "label": "미용"
    },
    {
        "category_name": "가정,생활 > 드럭스토어 > 올리브영",
        "place_name": "올리브영 대치역점",
        "label": "미용"
    },
    {
        "category_name": "가정,생활 > 드럭스토어 > 올리브영",
        "place_name": "올리브영 천호역점",
        "label": "미용"
    },
    {
        "category_name": "가정,생활 > 드럭스토어 > 올리브영",
        "place_name": "올리브영 강변엔터식스점",
        "label": "미용"
    },
    {
        "category_name": "가정,생활 > 드럭스토어 > 올리브영",
        "place_name": "올리브영 개롱역점",
        "label": "미용"
    },
    {
        "category_name": "가정,생활 > 드럭스토어 > 올리브영",
        "place_name": "올리브영 광나루역점",
        "label": "미용"
    },
    {
        "category_name": "가정,생활 > 드럭스토어 > 올리브영",
        "place_name": "올리브영 파르나스삼성 타운점",
        "label": "미용"
    },
    {
        "category_name": "가정,생활 > 드럭스토어 > 올리브영",
        "place_name": "올리브영 일원역점",
        "label": "미용"
    },
    {
        "category_name": "가정,생활 > 드럭스토어 > 올리브영",
        "place_name": "올리브영 대치사거리점",
        "label": "미용"
    },
    {
        "category_name": "가정,생활 > 드럭스토어 > 올리브영",
        "place_name": "올리브영 자양역점",
        "label": "미용"
    },
    {
        "category_name": "가정,생활 > 드럭스토어 > 올리브영",
        "place_name": "올리브영 선릉로점",
        "label": "미용"
    },
    {
        "category_name": "가정,생활 > 드럭스토어 > 올리브영",
        "place_name": "올리브영 대치점",
        "label": "미용"
    },
    {
        "category_name": "가정,생활 > 드럭스토어 > 올리브영",
        "place_name": "올리브영 건대타운점",
        "label": "미용"
    },
    {
        "category_name": "가정,생활 > 드럭스토어 > 올리브영",
        "place_name": "올리브영 올림픽아파트점",
        "label": "미용"
    },
    {
        "category_name": "가정,생활 > 드럭스토어 > 올리브영",
        "place_name": "올리브영 천호중앙점",
        "label": "미용"
    },
    {
        "category_name": "가정,생활 > 드럭스토어 > 올리브영",
        "place_name": "올리브영 건대입구점",
        "label": "미용"
    },
    {
        "category_name": "가정,생활 > 드럭스토어 > 올리브영",
        "place_name": "올리브영 대치역점",
        "label": "미용"
    },
    {
        "category_name": "가정,생활 > 드럭스토어 > 올리브영",
        "place_name": "올리브영 천호역점",
        "label": "미용"
    },
    {
        "category_name": "가정,생활 > 드럭스토어 > 올리브영",
        "place_name": "올리브영 강변엔터식스점",
        "label": "미용"
    },
    {
        "category_name": "가정,생활 > 드럭스토어 > 올리브영",
        "place_name": "올리브영 개롱역점",
        "label": "미용"
    },
    {
        "category_name": "가정,생활 > 드럭스토어 > 올리브영",
        "place_name": "올리브영 광나루역점",
        "label": "미용"
    },
    {
        "category_name": "가정,생활 > 드럭스토어 > 올리브영",
        "place_name": "올리브영 파르나스삼성 타운점",
        "label": "미용"
    },
    {
        "category_name": "가정,생활 > 드럭스토어 > 올리브영",
        "place_name": "올리브영 일원역점",
        "label": "미용"
    },
    {
        "category_name": "가정,생활 > 드럭스토어 > 올리브영",
        "place_name": "올리브영 대치사거리점",
        "label": "미용"
    },
    {
        "category_name": "가정,생활 > 드럭스토어 > 올리브영",
        "place_name": "올리브영 자양역점",
        "label": "미용"
    },
    {
        "category_name": "가정,생활 > 드럭스토어 > 올리브영",
        "place_name": "올리브영 선릉로점",
        "label": "미용"
    }
]